<?xml version="1.0" encoding="UTF-8"?>
<kml xmlns="http://www.opengis.net/kml/2.2">
  <Document>
    <name>Festland-Motorradroute Spanien - Suedfrankreich mit Camargue</name>
    <description><![CDATA[
Grobe Orientierungsroute fuer die suedlichere Frankreich-Variante mit Camargue:
Bellikon - Grenoble/Chambery - Sisteron/Digne-les-Bains - Lourmarin - Arles - Saintes-Maries-de-la-Mer - Aigues-Mortes - Nimes - Carcassonne - Barcelona - Priorat/Falset - Albarracin - Valencia - Altea - Granada - Ronda - Ubeda/Baeza - Cuenca - Zaragoza - Barcelona - Faehre Genua - Bellikon.

Hinweis: Diese KML ist eine Verlaufslinie mit nummerierten Stopps, keine turn-by-turn Navigation. Marseille/Toulon und die komplette Cote d'Azur werden bewusst ausgelassen. In der Camargue nur asphaltierte Haupt- und Regionalstrassen verwenden; kleine Pisten, Schutzgebietswege, Privatwege und Sackgassen vermeiden.
]]></description>

    <Style id="routeLine">
      <LineStyle>
        <color>ff1f6feb</color>
        <width>4</width>
      </LineStyle>
    </Style>

    <Style id="camargueLine">
      <LineStyle>
        <color>ff1aa184</color>
        <width>4</width>
      </LineStyle>
    </Style>

    <Style id="ferryLine">
      <LineStyle>
        <color>ff8a63d2</color>
        <width>4</width>
      </LineStyle>
    </Style>

    <Style id="stopMarker">
      <IconStyle>
        <scale>1.0</scale>
        <Icon>
          <href>http://maps.google.com/mapfiles/kml/paddle/red-circle.png</href>
        </Icon>
      </IconStyle>
      <LabelStyle>
        <scale>0.82</scale>
      </LabelStyle>
    </Style>

    <Folder>
      <name>Nummerierte Stopps</name>
      <Placemark>
        <name>01 Bellikon</name>
        <description>Start/Ziel. Grober Routenknoten, nicht als exakte Hoteladresse gedacht.</description>
        <styleUrl>#stopMarker</styleUrl>
        <Point><coordinates>8.3430,47.3890,0</coordinates></Point>
      </Placemark>
      <Placemark>
        <name>02 Grenoble / Chambery</name>
        <description>Erste suedliche Zwischenstation. Je nach Wetter Grenoble oder Chambery waehlen.</description>
        <styleUrl>#stopMarker</styleUrl>
        <Point><coordinates>5.7245,45.1885,0</coordinates></Point>
      </Placemark>
      <Placemark>
        <name>03 Sisteron / Digne-les-Bains</name>
        <description>Voralpen und Provence-Uebergang; Route Napoleon oder groessere Regionalstrassen als Orientierung.</description>
        <styleUrl>#stopMarker</styleUrl>
        <Point><coordinates>5.9462,44.1984,0</coordinates></Point>
      </Placemark>
      <Placemark>
        <name>04 Aix / Luberon</name>
        <description>Aix-en-Provence als urbanere Basis oder Luberon fuer Landschaft und Doerfer.</description>
        <styleUrl>#stopMarker</styleUrl>
        <Point><coordinates>5.4474,43.5297,0</coordinates></Point>
      </Placemark>
      <Placemark>
        <name>05 Arles</name>
        <description>Gute Basis fuer Camargue und Stadtfotografie; Motorrad am Stadttag sicher abstellen.</description>
        <styleUrl>#stopMarker</styleUrl>
        <Point><coordinates>4.6278,43.6766,0</coordinates></Point>
      </Placemark>
      <Placemark>
        <name>06 Saintes-Maries-de-la-Mer</name>
        <description>Camargue-/Meer-Stopp. Asphaltierte Zufahrt verwenden, keine Pisten in Schutzgebiete einplanen.</description>
        <styleUrl>#stopMarker</styleUrl>
        <Point><coordinates>4.4290,43.4523,0</coordinates></Point>
      </Placemark>
      <Placemark>
        <name>07 Aigues-Mortes</name>
        <description>Sehr guter Fotostopp mit Stadtmauer, Salinen und flacher Camargue-Landschaft.</description>
        <styleUrl>#stopMarker</styleUrl>
        <Point><coordinates>4.1906,43.5669,0</coordinates></Point>
      </Placemark>
      <Placemark>
        <name>08 Nimes</name>
        <description>Stadtbasis Nimes oder kleinerer Standort Uzes; Pont du Gard als einfacher Ausflug.</description>
        <styleUrl>#stopMarker</styleUrl>
        <Point><coordinates>4.3601,43.8367,0</coordinates></Point>
      </Placemark>
      <Placemark>
        <name>09 Carcassonne</name>
        <description>Zwischenstopp vor Barcelona.</description>
        <styleUrl>#stopMarker</styleUrl>
        <Point><coordinates>2.3510,43.2130,0</coordinates></Point>
      </Placemark>
      <Placemark>
        <name>10 Barcelona</name>
        <description>Stadtstopp; Motorrad nicht fuer Innenstadtfahrten einplanen.</description>
        <styleUrl>#stopMarker</styleUrl>
        <Point><coordinates>2.1686,41.3874,0</coordinates></Point>
      </Placemark>
      <Placemark>
        <name>11 Priorat / Falset</name>
        <description>Weinregion und geschlossene Rundrouten; Siurana nur als bewusst gewaehlte Stichstrasse.</description>
        <styleUrl>#stopMarker</styleUrl>
        <Point><coordinates>0.8200,41.1460,0</coordinates></Point>
      </Placemark>
      <Placemark>
        <name>12 Albarracin</name>
        <description>Hoch gelegener Fotostopp; bei Navigation auf asphaltierte A-, N- und TE-Strassen achten.</description>
        <styleUrl>#stopMarker</styleUrl>
        <Point><coordinates>-1.4440,40.4070,0</coordinates></Point>
      </Placemark>
      <Placemark>
        <name>13 Valencia</name>
        <description>Stadt- und Fotostopp; Albufera als moeglicher Abend-Ausflug.</description>
        <styleUrl>#stopMarker</styleUrl>
        <Point><coordinates>-0.3763,39.4699,0</coordinates></Point>
      </Placemark>
      <Placemark>
        <name>14 Altea</name>
        <description>Basis fuer Costa Blanca und Hinterland, ohne Alicante als Stadtverkehrsschwerpunkt.</description>
        <styleUrl>#stopMarker</styleUrl>
        <Point><coordinates>-0.0450,38.6029,0</coordinates></Point>
      </Placemark>
      <Placemark>
        <name>15 Granada</name>
        <description>Stadt- und Fotostopp; Alpujarras nur auf den Hauptverbindungen planen.</description>
        <styleUrl>#stopMarker</styleUrl>
        <Point><coordinates>-3.5990,37.1770,0</coordinates></Point>
      </Placemark>
      <Placemark>
        <name>16 Ronda</name>
        <description>Basis fuer Grazalema-Runde und Fototag in Ronda.</description>
        <styleUrl>#stopMarker</styleUrl>
        <Point><coordinates>-5.1610,36.7460,0</coordinates></Point>
      </Placemark>
      <Placemark>
        <name>17 Ubeda / Baeza</name>
        <description>Renaissance-Staedte und logischer Rueckweg durch Jaen.</description>
        <styleUrl>#stopMarker</styleUrl>
        <Point><coordinates>-3.3710,38.0110,0</coordinates></Point>
      </Placemark>
      <Placemark>
        <name>18 Cuenca</name>
        <description>Kompakter Zwischenstopp auf dem Rueckweg nach Nordosten.</description>
        <styleUrl>#stopMarker</styleUrl>
        <Point><coordinates>-2.1370,40.0700,0</coordinates></Point>
      </Placemark>
      <Placemark>
        <name>19 Zaragoza</name>
        <description>Entlastet die lange Rueckfahrt von Cuenca nach Barcelona.</description>
        <styleUrl>#stopMarker</styleUrl>
        <Point><coordinates>-0.8891,41.6488,0</coordinates></Point>
      </Placemark>
      <Placemark>
        <name>20 Barcelona vor Faehre</name>
        <description>Rueckkehr nach Barcelona; Puffer fuer Faehre nach Genua.</description>
        <styleUrl>#stopMarker</styleUrl>
        <Point><coordinates>2.1686,41.3874,0</coordinates></Point>
      </Placemark>
      <Placemark>
        <name>21 Genua</name>
        <description>Faehre Barcelona-Genua; Fahrplan und Kabine vor Buchung pruefen.</description>
        <styleUrl>#stopMarker</styleUrl>
        <Point><coordinates>8.9463,44.4056,0</coordinates></Point>
      </Placemark>
      <Placemark>
        <name>22 Bellikon</name>
        <description>Heimfahrt ab Genua.</description>
        <styleUrl>#stopMarker</styleUrl>
        <Point><coordinates>8.3430,47.3890,0</coordinates></Point>
      </Placemark>
    </Folder>

    <Folder>
      <name>Grobe Verlaufslinien</name>
      <Placemark>
        <name>Landroute Bellikon bis Aix/Luberon</name>
        <styleUrl>#routeLine</styleUrl>
        <LineString>
          <tessellate>1</tessellate>
          <coordinates>
            8.3430,47.3890,0
            5.7245,45.1885,0
            5.9462,44.1984,0
            5.4474,43.5297,0
          </coordinates>
        </LineString>
      </Placemark>
      <Placemark>
        <name>Camargue-Abstecher</name>
        <description>Grobe Camargue-Schleife ueber Arles, Saintes-Maries-de-la-Mer und Aigues-Mortes. Nur asphaltierte Strassen nutzen.</description>
        <styleUrl>#camargueLine</styleUrl>
        <LineString>
          <tessellate>1</tessellate>
          <coordinates>
            5.4474,43.5297,0
            4.6278,43.6766,0
            4.4290,43.4523,0
            4.1906,43.5669,0
            4.3601,43.8367,0
          </coordinates>
        </LineString>
      </Placemark>
      <Placemark>
        <name>Landroute Nimes bis Barcelona und Spanienrunde</name>
        <styleUrl>#routeLine</styleUrl>
        <LineString>
          <tessellate>1</tessellate>
          <coordinates>
            4.3601,43.8367,0
            2.3510,43.2130,0
            2.1686,41.3874,0
            0.8200,41.1460,0
            -1.4440,40.4070,0
            -0.3763,39.4699,0
            -0.0450,38.6029,0
            -3.5990,37.1770,0
            -5.1610,36.7460,0
            -3.3710,38.0110,0
            -2.1370,40.0700,0
            -0.8891,41.6488,0
            2.1686,41.3874,0
          </coordinates>
        </LineString>
      </Placemark>
      <Placemark>
        <name>Faehre Barcelona - Genua</name>
        <description>Nur symbolische Faehrlinie, keine Strassenroute.</description>
        <styleUrl>#ferryLine</styleUrl>
        <LineString>
          <tessellate>1</tessellate>
          <coordinates>
            2.1686,41.3874,0
            8.9463,44.4056,0
          </coordinates>
        </LineString>
      </Placemark>
      <Placemark>
        <name>Heimfahrt Genua - Bellikon</name>
        <styleUrl>#routeLine</styleUrl>
        <LineString>
          <tessellate>1</tessellate>
          <coordinates>
            8.9463,44.4056,0
            8.3430,47.3890,0
          </coordinates>
        </LineString>
      </Placemark>
    </Folder>
  </Document>
</kml>
