<?xml version="1.0" encoding="UTF-8"?>
<gpx version="1.1" creator="Motorrad-Roadbook" xmlns="http://www.topografix.com/GPX/1/1"><metadata><name>Spanien 2026</name></metadata><trk><name>01 Berikon - Grenoble Autobahnkorridor</name><trkseg><trkpt lat="47.350746" lon="8.372114"></trkpt><trkpt lat="47.346168" lon="8.374687"></trkpt><trkpt lat="47.346741" lon="8.36412"></trkpt><trkpt lat="47.360758" lon="8.338562"></trkpt><trkpt lat="47.355767" lon="8.325492"></trkpt><trkpt lat="47.358024" lon="8.315211"></trkpt><trkpt lat="47.346923" lon="8.29394"></trkpt><trkpt lat="47.351958" lon="8.277456"></trkpt><trkpt lat="47.348441" lon="8.259691"></trkpt><trkpt lat="47.387735" lon="8.209238"></trkpt><trkpt lat="47.38984" lon="8.19551"></trkpt><trkpt lat="47.398805" lon="8.187978"></trkpt><trkpt lat="47.388895" lon="8.119602"></trkpt><trkpt lat="47.371767" lon="8.098585"></trkpt><trkpt lat="47.361499" lon="8.068808"></trkpt><trkpt lat="47.322344" lon="8.017924"></trkpt><trkpt lat="47.323804" lon="7.98145"></trkpt><trkpt lat="47.320776" lon="7.960188"></trkpt><trkpt lat="47.30453" lon="7.920872"></trkpt><trkpt lat="47.313157" lon="7.889007"></trkpt><trkpt lat="47.309437" lon="7.837648"></trkpt><trkpt lat="47.311748" lon="7.803104"></trkpt><trkpt lat="47.287913" lon="7.732192"></trkpt><trkpt lat="47.280784" lon="7.720883"></trkpt><trkpt lat="47.260724" lon="7.706078"></trkpt><trkpt lat="47.246766" lon="7.657478"></trkpt><trkpt lat="47.219024" lon="7.604654"></trkpt><trkpt lat="47.17172" lon="7.58938"></trkpt><trkpt lat="47.148438" lon="7.591565"></trkpt><trkpt lat="47.114196" lon="7.578203"></trkpt><trkpt lat="47.080732" lon="7.572682"></trkpt><trkpt lat="47.062516" lon="7.558443"></trkpt><trkpt lat="47.047945" lon="7.532115"></trkpt><trkpt lat="47.028724" lon="7.524888"></trkpt><trkpt lat="47.017616" lon="7.497866"></trkpt><trkpt lat="47.002094" lon="7.491117"></trkpt><trkpt lat="46.984391" lon="7.467246"></trkpt><trkpt lat="46.97201" lon="7.470939"></trkpt><trkpt lat="46.948715" lon="7.460426"></trkpt><trkpt lat="46.947996" lon="7.448143"></trkpt><trkpt lat="46.948545" lon="7.452267"></trkpt><trkpt lat="46.953585" lon="7.439242"></trkpt><trkpt lat="46.962234" lon="7.440985"></trkpt><trkpt lat="46.96657" lon="7.43218"></trkpt><trkpt lat="46.951496" lon="7.407114"></trkpt><trkpt lat="46.939825" lon="7.405079"></trkpt><trkpt lat="46.919286" lon="7.364976"></trkpt><trkpt lat="46.890738" lon="7.346108"></trkpt><trkpt lat="46.888395" lon="7.299621"></trkpt><trkpt lat="46.875959" lon="7.275872"></trkpt><trkpt lat="46.865316" lon="7.209604"></trkpt><trkpt lat="46.845053" lon="7.168265"></trkpt><trkpt lat="46.820512" lon="7.13851"></trkpt><trkpt lat="46.808646" lon="7.136535"></trkpt><trkpt lat="46.800591" lon="7.11206"></trkpt><trkpt lat="46.785645" lon="7.091857"></trkpt><trkpt lat="46.726002" lon="7.085561"></trkpt><trkpt lat="46.714473" lon="7.092645"></trkpt><trkpt lat="46.702928" lon="7.087525"></trkpt><trkpt lat="46.68693" lon="7.092157"></trkpt><trkpt lat="46.67816" lon="7.078509"></trkpt><trkpt lat="46.651238" lon="7.067005"></trkpt><trkpt lat="46.627802" lon="7.039363"></trkpt><trkpt lat="46.613818" lon="6.968351"></trkpt><trkpt lat="46.589565" lon="6.93247"></trkpt><trkpt lat="46.564955" lon="6.917108"></trkpt><trkpt lat="46.519966" lon="6.911533"></trkpt><trkpt lat="46.479351" lon="6.88405"></trkpt><trkpt lat="46.482365" lon="6.871966"></trkpt><trkpt lat="46.476021" lon="6.8614"></trkpt><trkpt lat="46.47424" lon="6.839883"></trkpt><trkpt lat="46.47679" lon="6.799133"></trkpt><trkpt lat="46.499591" lon="6.736423"></trkpt><trkpt lat="46.499707" lon="6.718922"></trkpt><trkpt lat="46.514782" lon="6.699307"></trkpt><trkpt lat="46.519644" lon="6.6846"></trkpt><trkpt lat="46.533683" lon="6.675431"></trkpt><trkpt lat="46.541351" lon="6.656281"></trkpt><trkpt lat="46.533166" lon="6.645715"></trkpt><trkpt lat="46.521771" lon="6.640769"></trkpt><trkpt lat="46.519656" lon="6.632248"></trkpt><trkpt lat="46.52363" lon="6.625098"></trkpt><trkpt lat="46.516873" lon="6.615839"></trkpt><trkpt lat="46.51785" lon="6.599638"></trkpt><trkpt lat="46.529713" lon="6.574959"></trkpt><trkpt lat="46.539997" lon="6.56813"></trkpt><trkpt lat="46.540663" lon="6.561083"></trkpt><trkpt lat="46.514289" lon="6.49753"></trkpt><trkpt lat="46.478592" lon="6.428352"></trkpt><trkpt lat="46.473739" lon="6.365556"></trkpt><trkpt lat="46.464412" lon="6.331177"></trkpt><trkpt lat="46.409419" lon="6.225311"></trkpt><trkpt lat="46.393808" lon="6.208399"></trkpt><trkpt lat="46.369598" lon="6.196603"></trkpt><trkpt lat="46.352298" lon="6.173631"></trkpt><trkpt lat="46.315898" lon="6.145044"></trkpt><trkpt lat="46.286846" lon="6.145439"></trkpt><trkpt lat="46.261546" lon="6.132466"></trkpt><trkpt lat="46.244503" lon="6.151562"></trkpt><trkpt lat="46.225367" lon="6.147904"></trkpt><trkpt lat="46.21155" lon="6.152733"></trkpt><trkpt lat="46.206941" lon="6.147704"></trkpt><trkpt lat="46.20322" lon="6.154002"></trkpt><trkpt lat="46.20386" lon="6.143352"></trkpt><trkpt lat="46.200553" lon="6.152521"></trkpt><trkpt lat="46.196577" lon="6.147016"></trkpt><trkpt lat="46.198157" lon="6.142137"></trkpt><trkpt lat="46.193497" lon="6.139771"></trkpt><trkpt lat="46.1877" lon="6.127904"></trkpt><trkpt lat="46.173885" lon="6.128967"></trkpt><trkpt lat="46.165601" lon="6.126744"></trkpt><trkpt lat="46.161363" lon="6.115246"></trkpt><trkpt lat="46.16303" lon="6.100539"></trkpt><trkpt lat="46.15808" lon="6.101215"></trkpt><trkpt lat="46.147324" lon="6.095305"></trkpt><trkpt lat="46.133639" lon="6.100331"></trkpt><trkpt lat="46.120516" lon="6.08709"></trkpt><trkpt lat="46.106846" lon="6.094549"></trkpt><trkpt lat="46.062022" lon="6.07897"></trkpt><trkpt lat="46.046589" lon="6.081784"></trkpt><trkpt lat="46.019122" lon="6.099949"></trkpt><trkpt lat="46.016508" lon="6.105066"></trkpt><trkpt lat="46.016203" lon="6.1192"></trkpt><trkpt lat="46.007174" lon="6.125758"></trkpt><trkpt lat="45.992774" lon="6.126684"></trkpt><trkpt lat="45.975239" lon="6.131707"></trkpt><trkpt lat="45.958615" lon="6.130583"></trkpt><trkpt lat="45.953049" lon="6.125648"></trkpt><trkpt lat="45.950249" lon="6.113846"></trkpt><trkpt lat="45.94633" lon="6.111632"></trkpt><trkpt lat="45.939799" lon="6.11297"></trkpt><trkpt lat="45.94012" lon="6.116663"></trkpt><trkpt lat="45.935922" lon="6.117167"></trkpt><trkpt lat="45.935232" lon="6.119835"></trkpt><trkpt lat="45.930591" lon="6.119308"></trkpt><trkpt lat="45.92611" lon="6.127081"></trkpt><trkpt lat="45.919472" lon="6.125617"></trkpt><trkpt lat="45.911951" lon="6.131512"></trkpt><trkpt lat="45.906155" lon="6.130663"></trkpt><trkpt lat="45.902843" lon="6.13369"></trkpt><trkpt lat="45.901207" lon="6.127541"></trkpt><trkpt lat="45.899543" lon="6.128952"></trkpt><trkpt lat="45.894015" lon="6.129853"></trkpt><trkpt lat="45.898912" lon="6.118207"></trkpt><trkpt lat="45.896016" lon="6.111329"></trkpt><trkpt lat="45.900388" lon="6.100786"></trkpt><trkpt lat="45.897876" lon="6.086567"></trkpt><trkpt lat="45.885832" lon="6.081677"></trkpt><trkpt lat="45.863903" lon="6.057921"></trkpt><trkpt lat="45.837244" lon="6.052868"></trkpt><trkpt lat="45.806416" lon="5.981638"></trkpt><trkpt lat="45.762154" lon="5.954526"></trkpt><trkpt lat="45.741866" lon="5.92601"></trkpt><trkpt lat="45.71289" lon="5.923684"></trkpt><trkpt lat="45.68657" lon="5.932506"></trkpt><trkpt lat="45.668198" lon="5.925295"></trkpt><trkpt lat="45.655057" lon="5.926209"></trkpt><trkpt lat="45.635788" lon="5.918359"></trkpt><trkpt lat="45.628288" lon="5.90195"></trkpt><trkpt lat="45.610988" lon="5.894151"></trkpt><trkpt lat="45.604718" lon="5.882239"></trkpt><trkpt lat="45.602189" lon="5.891408"></trkpt><trkpt lat="45.59369" lon="5.89531"></trkpt><trkpt lat="45.583903" lon="5.909254"></trkpt><trkpt lat="45.574096" lon="5.905943"></trkpt><trkpt lat="45.564822" lon="5.917885"></trkpt><trkpt lat="45.562357" lon="5.926823"></trkpt><trkpt lat="45.56705" lon="5.929711"></trkpt><trkpt lat="45.566686" lon="5.945535"></trkpt><trkpt lat="45.522889" lon="5.977733"></trkpt><trkpt lat="45.508209" lon="6.011075"></trkpt><trkpt lat="45.491076" lon="6.02307"></trkpt><trkpt lat="45.450448" lon="6.003623"></trkpt><trkpt lat="45.408101" lon="5.998398"></trkpt><trkpt lat="45.370197" lon="5.974765"></trkpt><trkpt lat="45.338703" lon="5.963231"></trkpt><trkpt lat="45.251434" lon="5.876034"></trkpt><trkpt lat="45.235607" lon="5.837479"></trkpt><trkpt lat="45.209817" lon="5.804813"></trkpt><trkpt lat="45.200886" lon="5.758584"></trkpt><trkpt lat="45.18541" lon="5.732043"></trkpt><trkpt lat="45.184843" lon="5.725531"></trkpt><trkpt lat="45.188404" lon="5.724324"></trkpt></trkseg></trk><trk><name>02 Grenoble - Sisteron N85</name><trkseg><trkpt lat="45.188404" lon="5.724324"></trkpt><trkpt lat="45.158836" lon="5.70912"></trkpt><trkpt lat="45.158738" lon="5.700515"></trkpt><trkpt lat="45.126793" lon="5.690539"></trkpt><trkpt lat="45.091172" lon="5.724546"></trkpt><trkpt lat="45.078776" lon="5.772444"></trkpt><trkpt lat="45.082613" lon="5.765699"></trkpt><trkpt lat="45.061641" lon="5.751893"></trkpt><trkpt lat="45.024405" lon="5.777167"></trkpt><trkpt lat="44.976363" lon="5.769555"></trkpt><trkpt lat="44.957937" lon="5.78103"></trkpt><trkpt lat="44.902993" lon="5.78679"></trkpt><trkpt lat="44.89729" lon="5.80798"></trkpt><trkpt lat="44.90207" lon="5.81695"></trkpt><trkpt lat="44.87909" lon="5.826865"></trkpt><trkpt lat="44.8642" lon="5.864388"></trkpt><trkpt lat="44.84551" lon="5.862048"></trkpt><trkpt lat="44.832393" lon="5.89079"></trkpt><trkpt lat="44.834978" lon="5.914127"></trkpt><trkpt lat="44.823079" lon="5.952474"></trkpt><trkpt lat="44.8176" lon="5.947337"></trkpt><trkpt lat="44.803891" lon="5.956985"></trkpt><trkpt lat="44.797738" lon="5.977291"></trkpt><trkpt lat="44.777876" lon="5.985902"></trkpt><trkpt lat="44.772088" lon="6.02438"></trkpt><trkpt lat="44.757312" lon="6.006811"></trkpt><trkpt lat="44.732233" lon="6.004655"></trkpt><trkpt lat="44.698958" lon="6.057175"></trkpt><trkpt lat="44.664759" lon="6.082321"></trkpt><trkpt lat="44.560045" lon="6.07964"></trkpt><trkpt lat="44.531837" lon="6.048288"></trkpt><trkpt lat="44.438026" lon="6.028932"></trkpt><trkpt lat="44.422775" lon="6.006636"></trkpt><trkpt lat="44.417" lon="5.970183"></trkpt><trkpt lat="44.40118" lon="5.949671"></trkpt><trkpt lat="44.325548" lon="5.893087"></trkpt><trkpt lat="44.224862" lon="5.913309"></trkpt><trkpt lat="44.198375" lon="5.945487"></trkpt></trkseg></trk><trk><name>03 Sisteron - Luberon</name><trkseg><trkpt lat="44.198375" lon="5.945487"></trkpt><trkpt lat="44.155309" lon="5.951743"></trkpt><trkpt lat="44.099679" lon="6.010306"></trkpt><trkpt lat="44.096584" lon="6.004923"></trkpt><trkpt lat="44.093166" lon="6.009251"></trkpt><trkpt lat="44.072643" lon="6.022134"></trkpt><trkpt lat="44.055097" lon="6.019724"></trkpt><trkpt lat="44.045162" lon="6.03004"></trkpt><trkpt lat="44.045489" lon="6.013349"></trkpt><trkpt lat="44.030019" lon="5.974023"></trkpt><trkpt lat="44.037558" lon="5.962177"></trkpt><trkpt lat="44.040453" lon="5.964486"></trkpt><trkpt lat="43.989592" lon="5.914856"></trkpt><trkpt lat="43.941346" lon="5.891685"></trkpt><trkpt lat="43.921984" lon="5.893239"></trkpt><trkpt lat="43.92579" lon="5.892648"></trkpt><trkpt lat="43.921557" lon="5.889423"></trkpt><trkpt lat="43.928251" lon="5.890664"></trkpt><trkpt lat="43.935559" lon="5.868213"></trkpt><trkpt lat="43.932522" lon="5.860412"></trkpt><trkpt lat="43.940745" lon="5.816765"></trkpt><trkpt lat="43.958783" lon="5.791863"></trkpt><trkpt lat="43.959544" lon="5.779658"></trkpt><trkpt lat="43.95237" lon="5.770798"></trkpt><trkpt lat="43.945648" lon="5.773404"></trkpt><trkpt lat="43.92828" lon="5.757489"></trkpt><trkpt lat="43.90584" lon="5.747977"></trkpt><trkpt lat="43.889467" lon="5.726832"></trkpt><trkpt lat="43.890733" lon="5.721483"></trkpt><trkpt lat="43.880632" lon="5.710079"></trkpt><trkpt lat="43.879823" lon="5.703045"></trkpt><trkpt lat="43.875547" lon="5.706434"></trkpt><trkpt lat="43.863248" lon="5.677917"></trkpt><trkpt lat="43.86277" lon="5.658612"></trkpt><trkpt lat="43.857881" lon="5.64507"></trkpt><trkpt lat="43.860173" lon="5.625822"></trkpt><trkpt lat="43.856807" lon="5.586064"></trkpt><trkpt lat="43.860322" lon="5.573555"></trkpt><trkpt lat="43.851792" lon="5.536437"></trkpt><trkpt lat="43.850618" lon="5.480947"></trkpt><trkpt lat="43.879806" lon="5.44279"></trkpt><trkpt lat="43.876835" lon="5.397361"></trkpt><trkpt lat="43.875526" lon="5.376066"></trkpt><trkpt lat="43.867196" lon="5.373788"></trkpt><trkpt lat="43.86812" lon="5.369644"></trkpt><trkpt lat="43.850918" lon="5.350028"></trkpt><trkpt lat="43.850432" lon="5.341372"></trkpt><trkpt lat="43.840586" lon="5.337281"></trkpt><trkpt lat="43.823253" lon="5.307616"></trkpt><trkpt lat="43.822892" lon="5.3159"></trkpt><trkpt lat="43.817452" lon="5.319695"></trkpt><trkpt lat="43.815161" lon="5.32956"></trkpt><trkpt lat="43.813249" lon="5.325947"></trkpt><trkpt lat="43.810768" lon="5.343271"></trkpt><trkpt lat="43.798293" lon="5.341443"></trkpt><trkpt lat="43.776319" lon="5.34957"></trkpt><trkpt lat="43.763399" lon="5.364397"></trkpt></trkseg></trk><trk><name>04 Camargue</name><trkseg><trkpt lat="43.763399" lon="5.364397"></trkpt><trkpt lat="43.757791" lon="5.355826"></trkpt><trkpt lat="43.746421" lon="5.313421"></trkpt><trkpt lat="43.749374" lon="5.309556"></trkpt><trkpt lat="43.745857" lon="5.307005"></trkpt><trkpt lat="43.755119" lon="5.233659"></trkpt><trkpt lat="43.751849" lon="5.209635"></trkpt><trkpt lat="43.754327" lon="5.181123"></trkpt><trkpt lat="43.73426" lon="5.171851"></trkpt><trkpt lat="43.727376" lon="5.159866"></trkpt><trkpt lat="43.739309" lon="5.122027"></trkpt><trkpt lat="43.740189" lon="5.092945"></trkpt><trkpt lat="43.744731" lon="5.085087"></trkpt><trkpt lat="43.702848" lon="5.098574"></trkpt><trkpt lat="43.668161" lon="5.096683"></trkpt><trkpt lat="43.629378" lon="5.125472"></trkpt><trkpt lat="43.626538" lon="5.119529"></trkpt><trkpt lat="43.624673" lon="5.077329"></trkpt><trkpt lat="43.639912" lon="5.014778"></trkpt><trkpt lat="43.638325" lon="4.840859"></trkpt><trkpt lat="43.629863" lon="4.810591"></trkpt><trkpt lat="43.633892" lon="4.778867"></trkpt><trkpt lat="43.629542" lon="4.75508"></trkpt><trkpt lat="43.656123" lon="4.653004"></trkpt><trkpt lat="43.669037" lon="4.626277"></trkpt><trkpt lat="43.674813" lon="4.623433"></trkpt><trkpt lat="43.673955" lon="4.620788"></trkpt><trkpt lat="43.679034" lon="4.60706"></trkpt><trkpt lat="43.670618" lon="4.604232"></trkpt><trkpt lat="43.665473" lon="4.588953"></trkpt><trkpt lat="43.644006" lon="4.567936"></trkpt><trkpt lat="43.624371" lon="4.523387"></trkpt><trkpt lat="43.618626" lon="4.489249"></trkpt><trkpt lat="43.613464" lon="4.480028"></trkpt><trkpt lat="43.594462" lon="4.469882"></trkpt><trkpt lat="43.585892" lon="4.458184"></trkpt><trkpt lat="43.573191" lon="4.421191"></trkpt><trkpt lat="43.559615" lon="4.418605"></trkpt><trkpt lat="43.547592" lon="4.401242"></trkpt><trkpt lat="43.51632" lon="4.398298"></trkpt><trkpt lat="43.518969" lon="4.396926"></trkpt><trkpt lat="43.525259" lon="4.377915"></trkpt><trkpt lat="43.545229" lon="4.362843"></trkpt><trkpt lat="43.544446" lon="4.353554"></trkpt><trkpt lat="43.55568" lon="4.321975"></trkpt><trkpt lat="43.572738" lon="4.307325"></trkpt><trkpt lat="43.587749" lon="4.214553"></trkpt><trkpt lat="43.56683" lon="4.190775"></trkpt><trkpt lat="43.565336" lon="4.187308"></trkpt><trkpt lat="43.579601" lon="4.202251"></trkpt><trkpt lat="43.579928" lon="4.198041"></trkpt><trkpt lat="43.634023" lon="4.189908"></trkpt><trkpt lat="43.666486" lon="4.21187"></trkpt><trkpt lat="43.677212" lon="4.210493"></trkpt><trkpt lat="43.68575" lon="4.215899"></trkpt><trkpt lat="43.701152" lon="4.194763"></trkpt><trkpt lat="43.725167" lon="4.181049"></trkpt><trkpt lat="43.749174" lon="4.208464"></trkpt><trkpt lat="43.74826" lon="4.245239"></trkpt><trkpt lat="43.751251" lon="4.255027"></trkpt><trkpt lat="43.800039" lon="4.310793"></trkpt><trkpt lat="43.809847" lon="4.349665"></trkpt><trkpt lat="43.815576" lon="4.341477"></trkpt><trkpt lat="43.81903" lon="4.352627"></trkpt><trkpt lat="43.823605" lon="4.352257"></trkpt><trkpt lat="43.83307" lon="4.367917"></trkpt><trkpt lat="43.836315" lon="4.36157"></trkpt></trkseg></trk><trk><name>05 Nimes - Carcassonne</name><trkseg><trkpt lat="43.836315" lon="4.36157"></trkpt><trkpt lat="43.835142" lon="4.369015"></trkpt><trkpt lat="43.815781" lon="4.340454"></trkpt><trkpt lat="43.810622" lon="4.34384"></trkpt><trkpt lat="43.799796" lon="4.310141"></trkpt><trkpt lat="43.750603" lon="4.253621"></trkpt><trkpt lat="43.749309" lon="4.208425"></trkpt><trkpt lat="43.729032" lon="4.187777"></trkpt><trkpt lat="43.722197" lon="4.147392"></trkpt><trkpt lat="43.702093" lon="4.117984"></trkpt><trkpt lat="43.703597" lon="4.121586"></trkpt><trkpt lat="43.671349" lon="4.013557"></trkpt><trkpt lat="43.602817" lon="3.939801"></trkpt><trkpt lat="43.572251" lon="3.875561"></trkpt><trkpt lat="43.548747" lon="3.798557"></trkpt><trkpt lat="43.489042" lon="3.712954"></trkpt><trkpt lat="43.478373" lon="3.65768"></trkpt><trkpt lat="43.448877" lon="3.580959"></trkpt><trkpt lat="43.425499" lon="3.554126"></trkpt><trkpt lat="43.405019" lon="3.48359"></trkpt><trkpt lat="43.378722" lon="3.442683"></trkpt><trkpt lat="43.377881" lon="3.414495"></trkpt><trkpt lat="43.372104" lon="3.418921"></trkpt><trkpt lat="43.403797" lon="3.410305"></trkpt><trkpt lat="43.443411" lon="3.416884"></trkpt><trkpt lat="43.452651" lon="3.432069"></trkpt><trkpt lat="43.459512" lon="3.423241"></trkpt><trkpt lat="43.448128" lon="3.426639"></trkpt><trkpt lat="43.441898" lon="3.396718"></trkpt><trkpt lat="43.414313" lon="3.379579"></trkpt><trkpt lat="43.395026" lon="3.327226"></trkpt><trkpt lat="43.358506" lon="3.272222"></trkpt><trkpt lat="43.363013" lon="3.255943"></trkpt><trkpt lat="43.34415" lon="3.215655"></trkpt><trkpt lat="43.322691" lon="3.089784"></trkpt><trkpt lat="43.326295" lon="3.043528"></trkpt><trkpt lat="43.240252" lon="2.999208"></trkpt><trkpt lat="43.200264" lon="3.011841"></trkpt><trkpt lat="43.1969" lon="3.026141"></trkpt><trkpt lat="43.181224" lon="3.036167"></trkpt><trkpt lat="43.151483" lon="2.981671"></trkpt><trkpt lat="43.160529" lon="2.941755"></trkpt><trkpt lat="43.151932" lon="2.873677"></trkpt><trkpt lat="43.171148" lon="2.803114"></trkpt><trkpt lat="43.170185" lon="2.612235"></trkpt><trkpt lat="43.179013" lon="2.588126"></trkpt><trkpt lat="43.182263" lon="2.519819"></trkpt><trkpt lat="43.17757" lon="2.494898"></trkpt><trkpt lat="43.195551" lon="2.420341"></trkpt><trkpt lat="43.2059" lon="2.416166"></trkpt><trkpt lat="43.213012" lon="2.351278"></trkpt></trkseg></trk><trk><name>06 Carcassonne - Castelldefels</name><trkseg><trkpt lat="43.213012" lon="2.351278"></trkpt><trkpt lat="43.177416" lon="2.494788"></trkpt><trkpt lat="43.171068" lon="2.802582"></trkpt><trkpt lat="43.151826" lon="2.873651"></trkpt><trkpt lat="43.150389" lon="2.981325"></trkpt><trkpt lat="43.079085" lon="2.935856"></trkpt><trkpt lat="42.884133" lon="2.992509"></trkpt><trkpt lat="42.840399" lon="2.91128"></trkpt><trkpt lat="42.665354" lon="2.859237"></trkpt><trkpt lat="42.682034" lon="2.876782"></trkpt><trkpt lat="42.664217" lon="2.919852"></trkpt><trkpt lat="42.61788" lon="2.954648"></trkpt><trkpt lat="42.613486" lon="2.984147"></trkpt><trkpt lat="42.544697" lon="3.00905"></trkpt><trkpt lat="42.52515" lon="3.083062"></trkpt><trkpt lat="42.558012" lon="2.961721"></trkpt><trkpt lat="42.516906" lon="2.834232"></trkpt><trkpt lat="42.524545" lon="2.818063"></trkpt><trkpt lat="42.500007" lon="2.819679"></trkpt><trkpt lat="42.470498" lon="2.863788"></trkpt><trkpt lat="42.405813" lon="2.872973"></trkpt><trkpt lat="42.319812" lon="2.941971"></trkpt><trkpt lat="42.265499" lon="2.95808"></trkpt><trkpt lat="42.240602" lon="2.970841"></trkpt><trkpt lat="42.226829" lon="2.936839"></trkpt><trkpt lat="42.059545" lon="2.884033"></trkpt><trkpt lat="41.994528" lon="2.792883"></trkpt><trkpt lat="41.979345" lon="2.82135"></trkpt><trkpt lat="41.958773" lon="2.782308"></trkpt><trkpt lat="41.768029" lon="2.734876"></trkpt><trkpt lat="41.711382" lon="2.53706"></trkpt><trkpt lat="41.555899" lon="2.240762"></trkpt><trkpt lat="41.48695" lon="2.184398"></trkpt><trkpt lat="41.447584" lon="2.193551"></trkpt><trkpt lat="41.436569" lon="2.149113"></trkpt><trkpt lat="41.401501" lon="2.114286"></trkpt><trkpt lat="41.339605" lon="2.087603"></trkpt><trkpt lat="41.278496" lon="1.979652"></trkpt></trkseg></trk><trk><name>08 Castelldefels - Falset</name><trkseg><trkpt lat="41.278496" lon="1.979652"></trkpt><trkpt lat="41.278855" lon="1.987041"></trkpt><trkpt lat="41.26822" lon="1.963378"></trkpt><trkpt lat="41.258918" lon="1.903366"></trkpt><trkpt lat="41.249774" lon="1.889371"></trkpt><trkpt lat="41.250072" lon="1.868177"></trkpt><trkpt lat="41.243986" lon="1.857676"></trkpt><trkpt lat="41.246465" lon="1.814885"></trkpt><trkpt lat="41.246467" lon="1.815746"></trkpt><trkpt lat="41.252463" lon="1.797431"></trkpt><trkpt lat="41.252259" lon="1.787307"></trkpt><trkpt lat="41.24199" lon="1.765918"></trkpt><trkpt lat="41.25619" lon="1.741304"></trkpt><trkpt lat="41.257223" lon="1.731926"></trkpt><trkpt lat="41.241885" lon="1.685012"></trkpt><trkpt lat="41.218857" lon="1.674098"></trkpt><trkpt lat="41.208556" lon="1.657236"></trkpt><trkpt lat="41.214753" lon="1.630374"></trkpt><trkpt lat="41.207515" lon="1.560769"></trkpt><trkpt lat="41.193427" lon="1.53225"></trkpt><trkpt lat="41.203429" lon="1.508406"></trkpt><trkpt lat="41.18252" lon="1.475328"></trkpt><trkpt lat="41.181417" lon="1.434205"></trkpt><trkpt lat="41.16478" lon="1.413236"></trkpt><trkpt lat="41.155888" lon="1.368788"></trkpt><trkpt lat="41.137712" lon="1.340363"></trkpt><trkpt lat="41.150552" lon="1.303648"></trkpt><trkpt lat="41.143157" lon="1.258187"></trkpt><trkpt lat="41.146506" lon="1.233452"></trkpt><trkpt lat="41.118919" lon="1.24448"></trkpt><trkpt lat="41.117182" lon="1.233297"></trkpt><trkpt lat="41.138428" lon="1.164038"></trkpt><trkpt lat="41.130346" lon="1.1107"></trkpt><trkpt lat="41.13948" lon="1.099236"></trkpt><trkpt lat="41.139933" lon="1.098954"></trkpt><trkpt lat="41.16627" lon="1.055186"></trkpt><trkpt lat="41.163755" lon="0.992798"></trkpt><trkpt lat="41.175662" lon="0.911955"></trkpt><trkpt lat="41.172835" lon="0.89377"></trkpt><trkpt lat="41.145739" lon="0.852087"></trkpt><trkpt lat="41.14608" lon="0.835342"></trkpt><trkpt lat="41.139349" lon="0.827673"></trkpt><trkpt lat="41.146" lon="0.820018"></trkpt></trkseg></trk><trk><name>09 Priorat-Runde</name><trkseg><trkpt lat="41.146" lon="0.820018"></trkpt><trkpt lat="41.146813" lon="0.819484"></trkpt><trkpt lat="41.14685" lon="0.820565"></trkpt><trkpt lat="41.150675" lon="0.817729"></trkpt><trkpt lat="41.153313" lon="0.817948"></trkpt><trkpt lat="41.156845" lon="0.814643"></trkpt><trkpt lat="41.158917" lon="0.814463"></trkpt><trkpt lat="41.161934" lon="0.815331"></trkpt><trkpt lat="41.166555" lon="0.820122"></trkpt><trkpt lat="41.16619" lon="0.817066"></trkpt><trkpt lat="41.168525" lon="0.810954"></trkpt><trkpt lat="41.167581" lon="0.806994"></trkpt><trkpt lat="41.169155" lon="0.806568"></trkpt><trkpt lat="41.171287" lon="0.7986"></trkpt><trkpt lat="41.173496" lon="0.798049"></trkpt><trkpt lat="41.173839" lon="0.796385"></trkpt><trkpt lat="41.175942" lon="0.796493"></trkpt><trkpt lat="41.175595" lon="0.791889"></trkpt><trkpt lat="41.179112" lon="0.791402"></trkpt><trkpt lat="41.180309" lon="0.792515"></trkpt><trkpt lat="41.179641" lon="0.788803"></trkpt><trkpt lat="41.180528" lon="0.786807"></trkpt><trkpt lat="41.18321" lon="0.785288"></trkpt><trkpt lat="41.184937" lon="0.787441"></trkpt><trkpt lat="41.185383" lon="0.786026"></trkpt><trkpt lat="41.189492" lon="0.784268"></trkpt><trkpt lat="41.192047" lon="0.774823"></trkpt><trkpt lat="41.193317" lon="0.774715"></trkpt><trkpt lat="41.199324" lon="0.781798"></trkpt><trkpt lat="41.203673" lon="0.781183"></trkpt><trkpt lat="41.205557" lon="0.77887"></trkpt><trkpt lat="41.205698" lon="0.775244"></trkpt><trkpt lat="41.209368" lon="0.775769"></trkpt><trkpt lat="41.208525" lon="0.772721"></trkpt><trkpt lat="41.211595" lon="0.772513"></trkpt><trkpt lat="41.21185" lon="0.770702"></trkpt><trkpt lat="41.215744" lon="0.767642"></trkpt><trkpt lat="41.215953" lon="0.765709"></trkpt><trkpt lat="41.220618" lon="0.763412"></trkpt><trkpt lat="41.221591" lon="0.762985"></trkpt><trkpt lat="41.222769" lon="0.767793"></trkpt><trkpt lat="41.220435" lon="0.772687"></trkpt><trkpt lat="41.22123" lon="0.775336"></trkpt><trkpt lat="41.229204" lon="0.780511"></trkpt><trkpt lat="41.235177" lon="0.781301"></trkpt><trkpt lat="41.236648" lon="0.784933"></trkpt><trkpt lat="41.237771" lon="0.784759"></trkpt><trkpt lat="41.242737" lon="0.790754"></trkpt><trkpt lat="41.24348" lon="0.792297"></trkpt><trkpt lat="41.242878" lon="0.794716"></trkpt><trkpt lat="41.245876" lon="0.800304"></trkpt><trkpt lat="41.244273" lon="0.804429"></trkpt><trkpt lat="41.244976" lon="0.810152"></trkpt><trkpt lat="41.247273" lon="0.811951"></trkpt><trkpt lat="41.250019" lon="0.810684"></trkpt><trkpt lat="41.25222" lon="0.812325"></trkpt><trkpt lat="41.254889" lon="0.811261"></trkpt><trkpt lat="41.257836" lon="0.808932"></trkpt><trkpt lat="41.259256" lon="0.810625"></trkpt><trkpt lat="41.257179" lon="0.809078"></trkpt><trkpt lat="41.252273" lon="0.812331"></trkpt><trkpt lat="41.250084" lon="0.810688"></trkpt><trkpt lat="41.247273" lon="0.811951"></trkpt><trkpt lat="41.244868" lon="0.810264"></trkpt><trkpt lat="41.242516" lon="0.812084"></trkpt><trkpt lat="41.241204" lon="0.811519"></trkpt><trkpt lat="41.238801" lon="0.813975"></trkpt><trkpt lat="41.238612" lon="0.815963"></trkpt><trkpt lat="41.239981" lon="0.817872"></trkpt><trkpt lat="41.242874" lon="0.817424"></trkpt><trkpt lat="41.24187" lon="0.820745"></trkpt><trkpt lat="41.242849" lon="0.823893"></trkpt><trkpt lat="41.241023" lon="0.828628"></trkpt><trkpt lat="41.238854" lon="0.82819"></trkpt><trkpt lat="41.236795" lon="0.829951"></trkpt><trkpt lat="41.236579" lon="0.834912"></trkpt><trkpt lat="41.233586" lon="0.837909"></trkpt><trkpt lat="41.235967" lon="0.840746"></trkpt><trkpt lat="41.235013" lon="0.841648"></trkpt><trkpt lat="41.234691" lon="0.845152"></trkpt><trkpt lat="41.237122" lon="0.847251"></trkpt><trkpt lat="41.239062" lon="0.852822"></trkpt><trkpt lat="41.236766" lon="0.853076"></trkpt><trkpt lat="41.236077" lon="0.855265"></trkpt><trkpt lat="41.238271" lon="0.862963"></trkpt><trkpt lat="41.238007" lon="0.866297"></trkpt><trkpt lat="41.235494" lon="0.866682"></trkpt><trkpt lat="41.234957" lon="0.868677"></trkpt><trkpt lat="41.235542" lon="0.873545"></trkpt><trkpt lat="41.234249" lon="0.878915"></trkpt><trkpt lat="41.23779" lon="0.886675"></trkpt><trkpt lat="41.235356" lon="0.894722"></trkpt><trkpt lat="41.238906" lon="0.898583"></trkpt><trkpt lat="41.241461" lon="0.898235"></trkpt><trkpt lat="41.246008" lon="0.900668"></trkpt><trkpt lat="41.255777" lon="0.900076"></trkpt><trkpt lat="41.2601" lon="0.904946"></trkpt><trkpt lat="41.262517" lon="0.90361"></trkpt><trkpt lat="41.2652" lon="0.905634"></trkpt><trkpt lat="41.262517" lon="0.90361"></trkpt><trkpt lat="41.2601" lon="0.904946"></trkpt><trkpt lat="41.255777" lon="0.900076"></trkpt><trkpt lat="41.246008" lon="0.900668"></trkpt><trkpt lat="41.241461" lon="0.898235"></trkpt><trkpt lat="41.238819" lon="0.898537"></trkpt><trkpt lat="41.234932" lon="0.894123"></trkpt><trkpt lat="41.232193" lon="0.893356"></trkpt><trkpt lat="41.232782" lon="0.890062"></trkpt><trkpt lat="41.234519" lon="0.888133"></trkpt><trkpt lat="41.23104" lon="0.883637"></trkpt><trkpt lat="41.230735" lon="0.880435"></trkpt><trkpt lat="41.225733" lon="0.875774"></trkpt><trkpt lat="41.223243" lon="0.875079"></trkpt><trkpt lat="41.221954" lon="0.872128"></trkpt><trkpt lat="41.215701" lon="0.872419"></trkpt><trkpt lat="41.213589" lon="0.874145"></trkpt><trkpt lat="41.213423" lon="0.870686"></trkpt><trkpt lat="41.208171" lon="0.86667"></trkpt><trkpt lat="41.204885" lon="0.86127"></trkpt><trkpt lat="41.201831" lon="0.861544"></trkpt><trkpt lat="41.201158" lon="0.858102"></trkpt><trkpt lat="41.197956" lon="0.859843"></trkpt><trkpt lat="41.198668" lon="0.856767"></trkpt><trkpt lat="41.19737" lon="0.858014"></trkpt><trkpt lat="41.192946" lon="0.856679"></trkpt><trkpt lat="41.189413" lon="0.857886"></trkpt><trkpt lat="41.188022" lon="0.856529"></trkpt><trkpt lat="41.186156" lon="0.855862"></trkpt><trkpt lat="41.185595" lon="0.854195"></trkpt><trkpt lat="41.183367" lon="0.85581"></trkpt><trkpt lat="41.180844" lon="0.853468"></trkpt><trkpt lat="41.179199" lon="0.854142"></trkpt><trkpt lat="41.179791" lon="0.852524"></trkpt><trkpt lat="41.177972" lon="0.852138"></trkpt><trkpt lat="41.176887" lon="0.853417"></trkpt><trkpt lat="41.17654" lon="0.852264"></trkpt><trkpt lat="41.174907" lon="0.853511"></trkpt><trkpt lat="41.174692" lon="0.852683"></trkpt><trkpt lat="41.166628" lon="0.855992"></trkpt><trkpt lat="41.168204" lon="0.853573"></trkpt><trkpt lat="41.167327" lon="0.85251"></trkpt><trkpt lat="41.169551" lon="0.851371"></trkpt><trkpt lat="41.168607" lon="0.847764"></trkpt><trkpt lat="41.171001" lon="0.847493"></trkpt><trkpt lat="41.168431" lon="0.844543"></trkpt><trkpt lat="41.162596" lon="0.843946"></trkpt><trkpt lat="41.159713" lon="0.840629"></trkpt><trkpt lat="41.159235" lon="0.842363"></trkpt><trkpt lat="41.158131" lon="0.840169"></trkpt><trkpt lat="41.157404" lon="0.840594"></trkpt><trkpt lat="41.155069" lon="0.832547"></trkpt><trkpt lat="41.154249" lon="0.822946"></trkpt><trkpt lat="41.151799" lon="0.817853"></trkpt><trkpt lat="41.147469" lon="0.81939"></trkpt><trkpt lat="41.146353" lon="0.821258"></trkpt><trkpt lat="41.144847" lon="0.820727"></trkpt><trkpt lat="41.146" lon="0.820018"></trkpt></trkseg></trk><trk><name>10 Falset - Albarracin</name><trkseg><trkpt lat="41.146" lon="0.820018"></trkpt><trkpt lat="41.116694" lon="0.758289"></trkpt><trkpt lat="41.118418" lon="0.713717"></trkpt><trkpt lat="41.104322" lon="0.663436"></trkpt><trkpt lat="41.080525" lon="0.641039"></trkpt><trkpt lat="41.08547" lon="0.577206"></trkpt><trkpt lat="41.110306" lon="0.532478"></trkpt><trkpt lat="41.086769" lon="0.510465"></trkpt><trkpt lat="41.068687" lon="0.450694"></trkpt><trkpt lat="41.053244" lon="0.438682"></trkpt><trkpt lat="41.055416" lon="0.396686"></trkpt><trkpt lat="41.043868" lon="0.34858"></trkpt><trkpt lat="41.053881" lon="0.288528"></trkpt><trkpt lat="41.04534" lon="0.247958"></trkpt><trkpt lat="41.022836" lon="0.220236"></trkpt><trkpt lat="41.002574" lon="0.170528"></trkpt><trkpt lat="41.000264" lon="0.11834"></trkpt><trkpt lat="40.985094" lon="0.105502"></trkpt><trkpt lat="40.981711" lon="-0.0119"></trkpt><trkpt lat="40.97178" lon="-0.026248"></trkpt><trkpt lat="41.035811" lon="-0.126124"></trkpt><trkpt lat="41.050022" lon="-0.133228"></trkpt><trkpt lat="41.05151" lon="-0.165591"></trkpt><trkpt lat="41.028858" lon="-0.195547"></trkpt><trkpt lat="40.999314" lon="-0.219191"></trkpt><trkpt lat="40.940697" lon="-0.235666"></trkpt><trkpt lat="40.9393" lon="-0.32035"></trkpt><trkpt lat="40.906007" lon="-0.357711"></trkpt><trkpt lat="40.901365" lon="-0.394869"></trkpt><trkpt lat="40.881672" lon="-0.420905"></trkpt><trkpt lat="40.877986" lon="-0.459137"></trkpt><trkpt lat="40.887612" lon="-0.477596"></trkpt><trkpt lat="40.867572" lon="-0.498707"></trkpt><trkpt lat="40.864344" lon="-0.522735"></trkpt><trkpt lat="40.840463" lon="-0.554134"></trkpt><trkpt lat="40.836917" lon="-0.582594"></trkpt><trkpt lat="40.82299" lon="-0.591346"></trkpt><trkpt lat="40.802715" lon="-0.633601"></trkpt><trkpt lat="40.804295" lon="-0.698728"></trkpt><trkpt lat="40.785106" lon="-0.713546"></trkpt><trkpt lat="40.775662" lon="-0.741113"></trkpt><trkpt lat="40.776374" lon="-0.76296"></trkpt><trkpt lat="40.796469" lon="-0.808128"></trkpt><trkpt lat="40.778268" lon="-0.825316"></trkpt><trkpt lat="40.779081" lon="-0.859325"></trkpt><trkpt lat="40.754399" lon="-0.839993"></trkpt><trkpt lat="40.744841" lon="-0.849439"></trkpt><trkpt lat="40.722801" lon="-0.847969"></trkpt><trkpt lat="40.716397" lon="-0.900756"></trkpt><trkpt lat="40.653514" lon="-0.990647"></trkpt><trkpt lat="40.571235" lon="-1.010498"></trkpt><trkpt lat="40.552681" lon="-1.032616"></trkpt><trkpt lat="40.517636" lon="-1.020119"></trkpt><trkpt lat="40.490877" lon="-1.024872"></trkpt><trkpt lat="40.428748" lon="-1.075552"></trkpt><trkpt lat="40.345615" lon="-1.106504"></trkpt><trkpt lat="40.339406" lon="-1.107465"></trkpt><trkpt lat="40.346855" lon="-1.123323"></trkpt><trkpt lat="40.388431" lon="-1.181992"></trkpt><trkpt lat="40.418824" lon="-1.30218"></trkpt><trkpt lat="40.41035" lon="-1.356232"></trkpt><trkpt lat="40.426074" lon="-1.37287"></trkpt><trkpt lat="40.433415" lon="-1.428311"></trkpt><trkpt lat="40.406882" lon="-1.443752"></trkpt></trkseg></trk><trk><name>11 Albarracin-Runde</name><trkseg><trkpt lat="40.406882" lon="-1.443752"></trkpt><trkpt lat="40.407706" lon="-1.442722"></trkpt><trkpt lat="40.408399" lon="-1.446503"></trkpt><trkpt lat="40.404506" lon="-1.450018"></trkpt><trkpt lat="40.404314" lon="-1.452222"></trkpt><trkpt lat="40.402303" lon="-1.44986"></trkpt><trkpt lat="40.39976" lon="-1.450942"></trkpt><trkpt lat="40.40083" lon="-1.452711"></trkpt><trkpt lat="40.399963" lon="-1.454332"></trkpt><trkpt lat="40.400976" lon="-1.457817"></trkpt><trkpt lat="40.394664" lon="-1.469786"></trkpt><trkpt lat="40.394157" lon="-1.476458"></trkpt><trkpt lat="40.397843" lon="-1.478305"></trkpt><trkpt lat="40.398463" lon="-1.480057"></trkpt><trkpt lat="40.397662" lon="-1.485075"></trkpt><trkpt lat="40.396215" lon="-1.486989"></trkpt><trkpt lat="40.395477" lon="-1.493365"></trkpt><trkpt lat="40.397001" lon="-1.496781"></trkpt><trkpt lat="40.400938" lon="-1.497377"></trkpt><trkpt lat="40.402715" lon="-1.495637"></trkpt><trkpt lat="40.406729" lon="-1.497786"></trkpt><trkpt lat="40.410449" lon="-1.497714"></trkpt><trkpt lat="40.411459" lon="-1.500459"></trkpt><trkpt lat="40.411296" lon="-1.50716"></trkpt><trkpt lat="40.415714" lon="-1.509961"></trkpt><trkpt lat="40.42366" lon="-1.520264"></trkpt><trkpt lat="40.426166" lon="-1.528097"></trkpt><trkpt lat="40.426678" lon="-1.537479"></trkpt><trkpt lat="40.429227" lon="-1.549241"></trkpt><trkpt lat="40.430514" lon="-1.567318"></trkpt><trkpt lat="40.432511" lon="-1.569266"></trkpt><trkpt lat="40.431115" lon="-1.572303"></trkpt><trkpt lat="40.433452" lon="-1.576678"></trkpt><trkpt lat="40.433202" lon="-1.58042"></trkpt><trkpt lat="40.4312" lon="-1.580057"></trkpt><trkpt lat="40.436389" lon="-1.590224"></trkpt><trkpt lat="40.440778" lon="-1.588828"></trkpt><trkpt lat="40.443286" lon="-1.591897"></trkpt><trkpt lat="40.446611" lon="-1.59024"></trkpt><trkpt lat="40.453151" lon="-1.591475"></trkpt><trkpt lat="40.456453" lon="-1.592597"></trkpt><trkpt lat="40.458615" lon="-1.595233"></trkpt><trkpt lat="40.457196" lon="-1.588575"></trkpt><trkpt lat="40.460431" lon="-1.586575"></trkpt><trkpt lat="40.460476" lon="-1.58287"></trkpt><trkpt lat="40.461727" lon="-1.580074"></trkpt><trkpt lat="40.468945" lon="-1.577875"></trkpt><trkpt lat="40.483077" lon="-1.578559"></trkpt><trkpt lat="40.486988" lon="-1.575945"></trkpt><trkpt lat="40.494771" lon="-1.58149"></trkpt><trkpt lat="40.495273" lon="-1.584054"></trkpt><trkpt lat="40.494116" lon="-1.586761"></trkpt><trkpt lat="40.498786" lon="-1.59018"></trkpt><trkpt lat="40.50121" lon="-1.587146"></trkpt><trkpt lat="40.503511" lon="-1.58652"></trkpt><trkpt lat="40.506621" lon="-1.588953"></trkpt><trkpt lat="40.508962" lon="-1.584718"></trkpt><trkpt lat="40.511755" lon="-1.584265"></trkpt><trkpt lat="40.519677" lon="-1.579305"></trkpt><trkpt lat="40.538506" lon="-1.603407"></trkpt><trkpt lat="40.549654" lon="-1.626673"></trkpt><trkpt lat="40.551813" lon="-1.633421"></trkpt><trkpt lat="40.551004" lon="-1.647088"></trkpt><trkpt lat="40.549443" lon="-1.649528"></trkpt><trkpt lat="40.549634" lon="-1.655463"></trkpt><trkpt lat="40.550562" lon="-1.654079"></trkpt><trkpt lat="40.549749" lon="-1.649611"></trkpt><trkpt lat="40.551115" lon="-1.647027"></trkpt><trkpt lat="40.551768" lon="-1.633101"></trkpt><trkpt lat="40.549508" lon="-1.626326"></trkpt><trkpt lat="40.538506" lon="-1.603407"></trkpt><trkpt lat="40.519686" lon="-1.579541"></trkpt><trkpt lat="40.507936" lon="-1.58568"></trkpt><trkpt lat="40.509592" lon="-1.588856"></trkpt><trkpt lat="40.510846" lon="-1.588699"></trkpt><trkpt lat="40.50815" lon="-1.590656"></trkpt><trkpt lat="40.503511" lon="-1.58652"></trkpt><trkpt lat="40.50121" lon="-1.587146"></trkpt><trkpt lat="40.498889" lon="-1.590147"></trkpt><trkpt lat="40.497166" lon="-1.589527"></trkpt><trkpt lat="40.494074" lon="-1.586638"></trkpt><trkpt lat="40.495273" lon="-1.584054"></trkpt><trkpt lat="40.494771" lon="-1.58149"></trkpt><trkpt lat="40.486639" lon="-1.57597"></trkpt><trkpt lat="40.483077" lon="-1.578559"></trkpt><trkpt lat="40.474364" lon="-1.57863"></trkpt><trkpt lat="40.473411" lon="-1.591321"></trkpt><trkpt lat="40.468386" lon="-1.594034"></trkpt><trkpt lat="40.46709" lon="-1.596246"></trkpt><trkpt lat="40.462579" lon="-1.597266"></trkpt><trkpt lat="40.453151" lon="-1.591475"></trkpt><trkpt lat="40.446611" lon="-1.59024"></trkpt><trkpt lat="40.443286" lon="-1.591897"></trkpt><trkpt lat="40.440778" lon="-1.588828"></trkpt><trkpt lat="40.436575" lon="-1.590445"></trkpt><trkpt lat="40.435305" lon="-1.586629"></trkpt><trkpt lat="40.431473" lon="-1.581317"></trkpt><trkpt lat="40.431354" lon="-1.579525"></trkpt><trkpt lat="40.433329" lon="-1.580179"></trkpt><trkpt lat="40.433468" lon="-1.576865"></trkpt><trkpt lat="40.431115" lon="-1.572303"></trkpt><trkpt lat="40.43249" lon="-1.569149"></trkpt><trkpt lat="40.430531" lon="-1.567564"></trkpt><trkpt lat="40.429227" lon="-1.549241"></trkpt><trkpt lat="40.426678" lon="-1.537479"></trkpt><trkpt lat="40.426166" lon="-1.528097"></trkpt><trkpt lat="40.42348" lon="-1.519871"></trkpt><trkpt lat="40.415714" lon="-1.509961"></trkpt><trkpt lat="40.411296" lon="-1.50716"></trkpt><trkpt lat="40.411459" lon="-1.500459"></trkpt><trkpt lat="40.410449" lon="-1.497714"></trkpt><trkpt lat="40.406729" lon="-1.497786"></trkpt><trkpt lat="40.402715" lon="-1.495637"></trkpt><trkpt lat="40.400938" lon="-1.497377"></trkpt><trkpt lat="40.397001" lon="-1.496781"></trkpt><trkpt lat="40.395477" lon="-1.493365"></trkpt><trkpt lat="40.396215" lon="-1.486989"></trkpt><trkpt lat="40.397662" lon="-1.485075"></trkpt><trkpt lat="40.398463" lon="-1.480057"></trkpt><trkpt lat="40.397843" lon="-1.478305"></trkpt><trkpt lat="40.394157" lon="-1.476458"></trkpt><trkpt lat="40.394664" lon="-1.469786"></trkpt><trkpt lat="40.400976" lon="-1.457817"></trkpt><trkpt lat="40.399963" lon="-1.454332"></trkpt><trkpt lat="40.40083" lon="-1.452711"></trkpt><trkpt lat="40.39976" lon="-1.450942"></trkpt><trkpt lat="40.402303" lon="-1.44986"></trkpt><trkpt lat="40.404314" lon="-1.452222"></trkpt><trkpt lat="40.404506" lon="-1.450018"></trkpt><trkpt lat="40.408399" lon="-1.446503"></trkpt><trkpt lat="40.407706" lon="-1.442722"></trkpt><trkpt lat="40.406882" lon="-1.443752"></trkpt></trkseg></trk><trk><name>12 Albarracin - La Patacona</name><trkseg><trkpt lat="40.406882" lon="-1.443752"></trkpt><trkpt lat="40.433415" lon="-1.428311"></trkpt><trkpt lat="40.426074" lon="-1.37287"></trkpt><trkpt lat="40.41035" lon="-1.356232"></trkpt><trkpt lat="40.418824" lon="-1.30218"></trkpt><trkpt lat="40.388075" lon="-1.181959"></trkpt><trkpt lat="40.341696" lon="-1.11486"></trkpt><trkpt lat="40.345615" lon="-1.106504"></trkpt><trkpt lat="40.362889" lon="-1.106958"></trkpt><trkpt lat="40.366508" lon="-1.097642"></trkpt><trkpt lat="40.357886" lon="-1.084763"></trkpt><trkpt lat="40.359736" lon="-1.055698"></trkpt><trkpt lat="40.340302" lon="-1.023045"></trkpt><trkpt lat="40.288447" lon="-0.995554"></trkpt><trkpt lat="40.201837" lon="-0.927622"></trkpt><trkpt lat="40.117803" lon="-0.735326"></trkpt><trkpt lat="40.042969" lon="-0.715217"></trkpt><trkpt lat="40.015852" lon="-0.691342"></trkpt><trkpt lat="39.990041" lon="-0.686869"></trkpt><trkpt lat="39.990429" lon="-0.665975"></trkpt><trkpt lat="39.974591" lon="-0.633525"></trkpt><trkpt lat="39.944406" lon="-0.619359"></trkpt><trkpt lat="39.916293" lon="-0.558654"></trkpt><trkpt lat="39.884988" lon="-0.542433"></trkpt><trkpt lat="39.849243" lon="-0.501706"></trkpt><trkpt lat="39.851836" lon="-0.488389"></trkpt><trkpt lat="39.831063" lon="-0.468869"></trkpt><trkpt lat="39.794209" lon="-0.402071"></trkpt><trkpt lat="39.76168" lon="-0.389761"></trkpt><trkpt lat="39.743426" lon="-0.368913"></trkpt><trkpt lat="39.71502" lon="-0.365166"></trkpt><trkpt lat="39.676104" lon="-0.318628"></trkpt><trkpt lat="39.662241" lon="-0.279514"></trkpt><trkpt lat="39.627873" lon="-0.300772"></trkpt><trkpt lat="39.547265" lon="-0.29869"></trkpt><trkpt lat="39.496151" lon="-0.32765"></trkpt><trkpt lat="39.482112" lon="-0.351132"></trkpt><trkpt lat="39.495278" lon="-0.352511"></trkpt></trkseg></trk><trk><name>14 La Patacona - Altea</name><trkseg><trkpt lat="39.495278" lon="-0.352511"></trkpt><trkpt lat="39.47975" lon="-0.345445"></trkpt><trkpt lat="39.458032" lon="-0.354455"></trkpt><trkpt lat="39.450249" lon="-0.371191"></trkpt><trkpt lat="39.428386" lon="-0.371556"></trkpt><trkpt lat="39.379543" lon="-0.400849"></trkpt><trkpt lat="39.37148" lon="-0.42607"></trkpt><trkpt lat="39.261839" lon="-0.459695"></trkpt><trkpt lat="39.248264" lon="-0.477017"></trkpt><trkpt lat="39.210806" lon="-0.498024"></trkpt><trkpt lat="39.193392" lon="-0.495451"></trkpt><trkpt lat="39.151649" lon="-0.530105"></trkpt><trkpt lat="39.101158" lon="-0.529675"></trkpt><trkpt lat="39.01859" lon="-0.557894"></trkpt><trkpt lat="39.01282" lon="-0.534954"></trkpt><trkpt lat="38.990201" lon="-0.517998"></trkpt><trkpt lat="38.968104" lon="-0.566512"></trkpt><trkpt lat="38.94761" lon="-0.558851"></trkpt><trkpt lat="38.928144" lon="-0.575569"></trkpt><trkpt lat="38.890684" lon="-0.578893"></trkpt><trkpt lat="38.833287" lon="-0.565206"></trkpt><trkpt lat="38.813255" lon="-0.608693"></trkpt><trkpt lat="38.798529" lon="-0.612074"></trkpt><trkpt lat="38.796257" lon="-0.595976"></trkpt><trkpt lat="38.784102" lon="-0.589322"></trkpt><trkpt lat="38.765891" lon="-0.609781"></trkpt><trkpt lat="38.77626" lon="-0.584993"></trkpt><trkpt lat="38.78076" lon="-0.522361"></trkpt><trkpt lat="38.793468" lon="-0.501941"></trkpt><trkpt lat="38.789652" lon="-0.462008"></trkpt><trkpt lat="38.782382" lon="-0.448342"></trkpt><trkpt lat="38.737909" lon="-0.43183"></trkpt><trkpt lat="38.702866" lon="-0.478332"></trkpt><trkpt lat="38.698582" lon="-0.473798"></trkpt><trkpt lat="38.684236" lon="-0.45673"></trkpt><trkpt lat="38.701884" lon="-0.428146"></trkpt><trkpt lat="38.687112" lon="-0.326223"></trkpt><trkpt lat="38.70082" lon="-0.292011"></trkpt><trkpt lat="38.68726" lon="-0.284004"></trkpt><trkpt lat="38.681583" lon="-0.263135"></trkpt><trkpt lat="38.687811" lon="-0.243266"></trkpt><trkpt lat="38.674977" lon="-0.230601"></trkpt><trkpt lat="38.675484" lon="-0.197408"></trkpt><trkpt lat="38.671746" lon="-0.205097"></trkpt><trkpt lat="38.660315" lon="-0.198571"></trkpt><trkpt lat="38.613826" lon="-0.124669"></trkpt><trkpt lat="38.617521" lon="-0.110324"></trkpt><trkpt lat="38.60704" lon="-0.089725"></trkpt><trkpt lat="38.602915" lon="-0.045006"></trkpt></trkseg></trk><trk><name>15 Altea - Monachil</name><trkseg><trkpt lat="38.602915" lon="-0.045006"></trkpt><trkpt lat="38.56383" lon="-0.094822"></trkpt><trkpt lat="38.526343" lon="-0.250171"></trkpt><trkpt lat="38.434504" lon="-0.409042"></trkpt><trkpt lat="38.381025" lon="-0.460667"></trkpt><trkpt lat="38.377587" lon="-0.521194"></trkpt><trkpt lat="38.309342" lon="-0.570099"></trkpt><trkpt lat="38.281098" lon="-0.740362"></trkpt><trkpt lat="38.167351" lon="-0.871227"></trkpt><trkpt lat="38.091032" lon="-1.071914"></trkpt><trkpt lat="38.004416" lon="-1.171092"></trkpt><trkpt lat="37.998983" lon="-1.232173"></trkpt><trkpt lat="37.935271" lon="-1.273978"></trkpt><trkpt lat="37.860743" lon="-1.397727"></trkpt><trkpt lat="37.756917" lon="-1.465584"></trkpt><trkpt lat="37.692719" lon="-1.666432"></trkpt><trkpt lat="37.69395" lon="-1.707018"></trkpt><trkpt lat="37.653772" lon="-1.71933"></trkpt><trkpt lat="37.568405" lon="-1.810126"></trkpt><trkpt lat="37.610753" lon="-1.905187"></trkpt><trkpt lat="37.64694" lon="-2.085067"></trkpt><trkpt lat="37.596909" lon="-2.236484"></trkpt><trkpt lat="37.585504" lon="-2.543345"></trkpt><trkpt lat="37.527155" lon="-2.659895"></trkpt><trkpt lat="37.505429" lon="-2.739172"></trkpt><trkpt lat="37.514339" lon="-2.800079"></trkpt><trkpt lat="37.402562" lon="-2.927746"></trkpt><trkpt lat="37.392045" lon="-3.040376"></trkpt><trkpt lat="37.32365" lon="-3.105253"></trkpt><trkpt lat="37.315474" lon="-3.398678"></trkpt><trkpt lat="37.295078" lon="-3.451687"></trkpt><trkpt lat="37.227611" lon="-3.505909"></trkpt><trkpt lat="37.241853" lon="-3.653063"></trkpt><trkpt lat="37.21724" lon="-3.624861"></trkpt><trkpt lat="37.189077" lon="-3.633462"></trkpt><trkpt lat="37.14175" lon="-3.610325"></trkpt><trkpt lat="37.132189" lon="-3.539807"></trkpt></trkseg></trk><trk><name>17 Alpujarras-Runde ab Monachil</name><trkseg><trkpt lat="37.132189" lon="-3.539807"></trkpt><trkpt lat="37.136798" lon="-3.56554"></trkpt><trkpt lat="37.142244" lon="-3.576658"></trkpt><trkpt lat="37.145589" lon="-3.579048"></trkpt><trkpt lat="37.147189" lon="-3.588642"></trkpt><trkpt lat="37.150448" lon="-3.592229"></trkpt><trkpt lat="37.142075" lon="-3.606157"></trkpt><trkpt lat="37.142661" lon="-3.609811"></trkpt><trkpt lat="37.134864" lon="-3.608868"></trkpt><trkpt lat="37.126136" lon="-3.613121"></trkpt><trkpt lat="37.095104" lon="-3.647041"></trkpt><trkpt lat="37.075897" lon="-3.648607"></trkpt><trkpt lat="37.059575" lon="-3.65519"></trkpt><trkpt lat="37.052104" lon="-3.655152"></trkpt><trkpt lat="37.037493" lon="-3.646567"></trkpt><trkpt lat="37.008325" lon="-3.639694"></trkpt><trkpt lat="36.992997" lon="-3.627067"></trkpt><trkpt lat="36.987067" lon="-3.592483"></trkpt><trkpt lat="36.977267" lon="-3.563347"></trkpt><trkpt lat="36.965691" lon="-3.555872"></trkpt><trkpt lat="36.959287" lon="-3.546667"></trkpt><trkpt lat="36.948781" lon="-3.544579"></trkpt><trkpt lat="36.936773" lon="-3.548252"></trkpt><trkpt lat="36.931757" lon="-3.536413"></trkpt><trkpt lat="36.923779" lon="-3.533969"></trkpt><trkpt lat="36.917848" lon="-3.515072"></trkpt><trkpt lat="36.913466" lon="-3.51393"></trkpt><trkpt lat="36.916944" lon="-3.510978"></trkpt><trkpt lat="36.913781" lon="-3.499901"></trkpt><trkpt lat="36.921127" lon="-3.492947"></trkpt><trkpt lat="36.917752" lon="-3.485825"></trkpt><trkpt lat="36.91851" lon="-3.481604"></trkpt><trkpt lat="36.921157" lon="-3.47091"></trkpt><trkpt lat="36.917548" lon="-3.470592"></trkpt><trkpt lat="36.912244" lon="-3.476466"></trkpt><trkpt lat="36.906576" lon="-3.466044"></trkpt><trkpt lat="36.908667" lon="-3.458243"></trkpt><trkpt lat="36.905876" lon="-3.454018"></trkpt><trkpt lat="36.906202" lon="-3.446838"></trkpt><trkpt lat="36.902277" lon="-3.443989"></trkpt><trkpt lat="36.90507" lon="-3.435309"></trkpt><trkpt lat="36.901046" lon="-3.429238"></trkpt><trkpt lat="36.902799" lon="-3.42349"></trkpt><trkpt lat="36.901096" lon="-3.428578"></trkpt><trkpt lat="36.906732" lon="-3.427742"></trkpt><trkpt lat="36.908974" lon="-3.43107"></trkpt><trkpt lat="36.912827" lon="-3.426747"></trkpt><trkpt lat="36.911617" lon="-3.433025"></trkpt><trkpt lat="36.919496" lon="-3.423255"></trkpt><trkpt lat="36.919646" lon="-3.419669"></trkpt><trkpt lat="36.921974" lon="-3.420288"></trkpt><trkpt lat="36.922557" lon="-3.416016"></trkpt><trkpt lat="36.926571" lon="-3.415374"></trkpt><trkpt lat="36.924211" lon="-3.409364"></trkpt><trkpt lat="36.925848" lon="-3.404025"></trkpt><trkpt lat="36.923218" lon="-3.397846"></trkpt><trkpt lat="36.924602" lon="-3.397523"></trkpt><trkpt lat="36.923242" lon="-3.389647"></trkpt><trkpt lat="36.921337" lon="-3.388322"></trkpt><trkpt lat="36.923734" lon="-3.385445"></trkpt><trkpt lat="36.922218" lon="-3.379597"></trkpt><trkpt lat="36.942383" lon="-3.364303"></trkpt><trkpt lat="36.937998" lon="-3.3636"></trkpt><trkpt lat="36.941907" lon="-3.361894"></trkpt><trkpt lat="36.938361" lon="-3.361615"></trkpt><trkpt lat="36.940559" lon="-3.35979"></trkpt><trkpt lat="36.938361" lon="-3.361615"></trkpt><trkpt lat="36.941907" lon="-3.361894"></trkpt><trkpt lat="36.937998" lon="-3.3636"></trkpt><trkpt lat="36.942383" lon="-3.364303"></trkpt><trkpt lat="36.922218" lon="-3.379597"></trkpt><trkpt lat="36.923734" lon="-3.385445"></trkpt><trkpt lat="36.921337" lon="-3.388322"></trkpt><trkpt lat="36.923242" lon="-3.389647"></trkpt><trkpt lat="36.924602" lon="-3.397523"></trkpt><trkpt lat="36.923187" lon="-3.397671"></trkpt><trkpt lat="36.925848" lon="-3.404025"></trkpt><trkpt lat="36.924211" lon="-3.409364"></trkpt><trkpt lat="36.926571" lon="-3.415374"></trkpt><trkpt lat="36.922557" lon="-3.416016"></trkpt><trkpt lat="36.921974" lon="-3.420288"></trkpt><trkpt lat="36.919646" lon="-3.419669"></trkpt><trkpt lat="36.919496" lon="-3.423255"></trkpt><trkpt lat="36.911617" lon="-3.433025"></trkpt><trkpt lat="36.912748" lon="-3.426699"></trkpt><trkpt lat="36.909008" lon="-3.431063"></trkpt><trkpt lat="36.906732" lon="-3.427742"></trkpt><trkpt lat="36.901043" lon="-3.42897"></trkpt><trkpt lat="36.901943" lon="-3.43272"></trkpt><trkpt lat="36.904987" lon="-3.433054"></trkpt><trkpt lat="36.902256" lon="-3.443709"></trkpt><trkpt lat="36.906202" lon="-3.446838"></trkpt><trkpt lat="36.905876" lon="-3.454018"></trkpt><trkpt lat="36.908476" lon="-3.45687"></trkpt><trkpt lat="36.906649" lon="-3.466235"></trkpt><trkpt lat="36.912244" lon="-3.476466"></trkpt><trkpt lat="36.917548" lon="-3.470592"></trkpt><trkpt lat="36.921311" lon="-3.471198"></trkpt><trkpt lat="36.916397" lon="-3.48542"></trkpt><trkpt lat="36.921127" lon="-3.492947"></trkpt><trkpt lat="36.913801" lon="-3.499847"></trkpt><trkpt lat="36.916944" lon="-3.510978"></trkpt><trkpt lat="36.913424" lon="-3.513827"></trkpt><trkpt lat="36.915844" lon="-3.5163"></trkpt><trkpt lat="36.917848" lon="-3.515072"></trkpt><trkpt lat="36.917585" lon="-3.518458"></trkpt><trkpt lat="36.923846" lon="-3.531171"></trkpt><trkpt lat="36.932158" lon="-3.536605"></trkpt><trkpt lat="36.936671" lon="-3.547939"></trkpt><trkpt lat="36.940131" lon="-3.548772"></trkpt><trkpt lat="36.94916" lon="-3.544354"></trkpt><trkpt lat="36.959777" lon="-3.546429"></trkpt><trkpt lat="36.965559" lon="-3.555487"></trkpt><trkpt lat="36.977467" lon="-3.563277"></trkpt><trkpt lat="36.987048" lon="-3.591608"></trkpt><trkpt lat="36.991438" lon="-3.623006"></trkpt><trkpt lat="36.994087" lon="-3.627929"></trkpt><trkpt lat="37.000517" lon="-3.631051"></trkpt><trkpt lat="37.008278" lon="-3.639414"></trkpt><trkpt lat="37.037553" lon="-3.646342"></trkpt><trkpt lat="37.053904" lon="-3.655322"></trkpt><trkpt lat="37.076265" lon="-3.648358"></trkpt><trkpt lat="37.096142" lon="-3.646302"></trkpt><trkpt lat="37.125448" lon="-3.613529"></trkpt><trkpt lat="37.141243" lon="-3.607738"></trkpt><trkpt lat="37.149614" lon="-3.592482"></trkpt><trkpt lat="37.145075" lon="-3.578241"></trkpt><trkpt lat="37.142244" lon="-3.576658"></trkpt><trkpt lat="37.136798" lon="-3.56554"></trkpt><trkpt lat="37.137177" lon="-3.559074"></trkpt><trkpt lat="37.132189" lon="-3.539807"></trkpt></trkseg></trk><trk><name>18 Monachil - Ronda Hauptlinie</name><trkseg><trkpt lat="37.132189" lon="-3.539807"></trkpt><trkpt lat="37.150448" lon="-3.592229"></trkpt><trkpt lat="37.142597" lon="-3.607945"></trkpt><trkpt lat="37.17275" lon="-3.611399"></trkpt><trkpt lat="37.198075" lon="-3.637075"></trkpt><trkpt lat="37.190113" lon="-3.734336"></trkpt><trkpt lat="37.195274" lon="-3.815417"></trkpt><trkpt lat="37.188988" lon="-3.831134"></trkpt><trkpt lat="37.19562" lon="-3.86496"></trkpt><trkpt lat="37.178594" lon="-3.904028"></trkpt><trkpt lat="37.195262" lon="-4.017839"></trkpt><trkpt lat="37.182571" lon="-4.037838"></trkpt><trkpt lat="37.180708" lon="-4.078297"></trkpt><trkpt lat="37.167171" lon="-4.087849"></trkpt><trkpt lat="37.162249" lon="-4.106286"></trkpt><trkpt lat="37.166667" lon="-4.178514"></trkpt><trkpt lat="37.128324" lon="-4.291678"></trkpt><trkpt lat="37.13012" lon="-4.358289"></trkpt><trkpt lat="37.088492" lon="-4.422672"></trkpt><trkpt lat="37.07165" lon="-4.531901"></trkpt><trkpt lat="37.044894" lon="-4.511249"></trkpt><trkpt lat="37.019735" lon="-4.561064"></trkpt><trkpt lat="37.026803" lon="-4.575401"></trkpt><trkpt lat="37.071156" lon="-4.601768"></trkpt><trkpt lat="37.051065" lon="-4.65209"></trkpt><trkpt lat="37.062932" lon="-4.702899"></trkpt><trkpt lat="37.048284" lon="-4.863247"></trkpt><trkpt lat="36.977862" lon="-4.834024"></trkpt><trkpt lat="36.961259" lon="-4.857127"></trkpt><trkpt lat="36.935579" lon="-4.868901"></trkpt><trkpt lat="36.949394" lon="-4.90523"></trkpt><trkpt lat="36.932158" lon="-4.923951"></trkpt><trkpt lat="36.928334" lon="-4.951436"></trkpt><trkpt lat="36.934454" lon="-4.960698"></trkpt><trkpt lat="36.912946" lon="-4.981357"></trkpt><trkpt lat="36.909361" lon="-4.997374"></trkpt><trkpt lat="36.897092" lon="-5.000652"></trkpt><trkpt lat="36.882883" lon="-5.041697"></trkpt><trkpt lat="36.858872" lon="-5.062256"></trkpt><trkpt lat="36.848342" lon="-5.055552"></trkpt><trkpt lat="36.833103" lon="-5.068013"></trkpt><trkpt lat="36.824104" lon="-5.095046"></trkpt><trkpt lat="36.793523" lon="-5.10572"></trkpt><trkpt lat="36.745988" lon="-5.161098"></trkpt></trkseg></trk><trk><name>19 Grazalema-Runde</name><trkseg><trkpt lat="36.745988" lon="-5.161098"></trkpt><trkpt lat="36.748627" lon="-5.168783"></trkpt><trkpt lat="36.755447" lon="-5.167695"></trkpt><trkpt lat="36.754766" lon="-5.177512"></trkpt><trkpt lat="36.751118" lon="-5.182078"></trkpt><trkpt lat="36.762486" lon="-5.17714"></trkpt><trkpt lat="36.765651" lon="-5.171199"></trkpt><trkpt lat="36.767676" lon="-5.17226"></trkpt><trkpt lat="36.763697" lon="-5.182352"></trkpt><trkpt lat="36.764649" lon="-5.197586"></trkpt><trkpt lat="36.761185" lon="-5.206658"></trkpt><trkpt lat="36.766543" lon="-5.225833"></trkpt><trkpt lat="36.772994" lon="-5.226848"></trkpt><trkpt lat="36.782975" lon="-5.23826"></trkpt><trkpt lat="36.783827" lon="-5.243417"></trkpt><trkpt lat="36.781231" lon="-5.252705"></trkpt><trkpt lat="36.789768" lon="-5.271713"></trkpt><trkpt lat="36.787932" lon="-5.274532"></trkpt><trkpt lat="36.789459" lon="-5.275374"></trkpt><trkpt lat="36.786284" lon="-5.276356"></trkpt><trkpt lat="36.775173" lon="-5.273257"></trkpt><trkpt lat="36.772819" lon="-5.278357"></trkpt><trkpt lat="36.772929" lon="-5.290439"></trkpt><trkpt lat="36.763909" lon="-5.321436"></trkpt><trkpt lat="36.765839" lon="-5.326086"></trkpt><trkpt lat="36.760642" lon="-5.330816"></trkpt><trkpt lat="36.758062" lon="-5.337947"></trkpt><trkpt lat="36.759477" lon="-5.342593"></trkpt><trkpt lat="36.749311" lon="-5.354959"></trkpt><trkpt lat="36.759605" lon="-5.362827"></trkpt><trkpt lat="36.763838" lon="-5.358067"></trkpt><trkpt lat="36.761548" lon="-5.367401"></trkpt><trkpt lat="36.758087" lon="-5.365561"></trkpt><trkpt lat="36.758175" lon="-5.363021"></trkpt><trkpt lat="36.757528" lon="-5.370098"></trkpt><trkpt lat="36.761868" lon="-5.378186"></trkpt><trkpt lat="36.760757" lon="-5.382223"></trkpt><trkpt lat="36.787406" lon="-5.376534"></trkpt><trkpt lat="36.789764" lon="-5.385356"></trkpt><trkpt lat="36.789202" lon="-5.379975"></trkpt><trkpt lat="36.791572" lon="-5.381576"></trkpt><trkpt lat="36.794606" lon="-5.377868"></trkpt><trkpt lat="36.793685" lon="-5.38259"></trkpt><trkpt lat="36.801488" lon="-5.381384"></trkpt><trkpt lat="36.800094" lon="-5.391633"></trkpt><trkpt lat="36.80422" lon="-5.389804"></trkpt><trkpt lat="36.817229" lon="-5.39215"></trkpt><trkpt lat="36.828213" lon="-5.388101"></trkpt><trkpt lat="36.840943" lon="-5.388209"></trkpt><trkpt lat="36.846385" lon="-5.397214"></trkpt><trkpt lat="36.846639" lon="-5.418308"></trkpt><trkpt lat="36.842738" lon="-5.423099"></trkpt><trkpt lat="36.841041" lon="-5.431266"></trkpt><trkpt lat="36.834371" lon="-5.435566"></trkpt><trkpt lat="36.841041" lon="-5.431266"></trkpt><trkpt lat="36.842738" lon="-5.423099"></trkpt><trkpt lat="36.846639" lon="-5.418308"></trkpt><trkpt lat="36.846385" lon="-5.397214"></trkpt><trkpt lat="36.839586" lon="-5.392973"></trkpt><trkpt lat="36.840315" lon="-5.391212"></trkpt><trkpt lat="36.842323" lon="-5.390432"></trkpt><trkpt lat="36.842391" lon="-5.393023"></trkpt><trkpt lat="36.843541" lon="-5.390936"></trkpt><trkpt lat="36.846385" lon="-5.397214"></trkpt><trkpt lat="36.846639" lon="-5.418308"></trkpt><trkpt lat="36.842236" lon="-5.426576"></trkpt><trkpt lat="36.848097" lon="-5.453204"></trkpt><trkpt lat="36.846123" lon="-5.470843"></trkpt><trkpt lat="36.840585" lon="-5.476749"></trkpt><trkpt lat="36.836296" lon="-5.492926"></trkpt><trkpt lat="36.822505" lon="-5.499383"></trkpt><trkpt lat="36.818402" lon="-5.50874"></trkpt><trkpt lat="36.814351" lon="-5.511514"></trkpt><trkpt lat="36.800367" lon="-5.533902"></trkpt><trkpt lat="36.79024" lon="-5.539099"></trkpt><trkpt lat="36.789146" lon="-5.523684"></trkpt><trkpt lat="36.772134" lon="-5.514378"></trkpt><trkpt lat="36.756696" lon="-5.513993"></trkpt><trkpt lat="36.758602" lon="-5.50657"></trkpt><trkpt lat="36.756889" lon="-5.514294"></trkpt><trkpt lat="36.748413" lon="-5.507905"></trkpt><trkpt lat="36.734471" lon="-5.509497"></trkpt><trkpt lat="36.727596" lon="-5.50677"></trkpt><trkpt lat="36.721475" lon="-5.482222"></trkpt><trkpt lat="36.705938" lon="-5.478134"></trkpt><trkpt lat="36.701341" lon="-5.460163"></trkpt><trkpt lat="36.694761" lon="-5.454859"></trkpt><trkpt lat="36.679193" lon="-5.452656"></trkpt><trkpt lat="36.677218" lon="-5.451336"></trkpt><trkpt lat="36.678826" lon="-5.450812"></trkpt><trkpt lat="36.677947" lon="-5.445956"></trkpt><trkpt lat="36.676821" lon="-5.444324"></trkpt><trkpt lat="36.679743" lon="-5.448467"></trkpt><trkpt lat="36.677218" lon="-5.451336"></trkpt><trkpt lat="36.679316" lon="-5.452681"></trkpt><trkpt lat="36.682886" lon="-5.45029"></trkpt><trkpt lat="36.687421" lon="-5.452602"></trkpt><trkpt lat="36.691667" lon="-5.446602"></trkpt><trkpt lat="36.69592" lon="-5.447967"></trkpt><trkpt lat="36.694353" lon="-5.442695"></trkpt><trkpt lat="36.698154" lon="-5.441578"></trkpt><trkpt lat="36.696878" lon="-5.435954"></trkpt><trkpt lat="36.701915" lon="-5.430238"></trkpt><trkpt lat="36.703104" lon="-5.424843"></trkpt><trkpt lat="36.698263" lon="-5.421795"></trkpt><trkpt lat="36.690742" lon="-5.425941"></trkpt><trkpt lat="36.683604" lon="-5.424794"></trkpt><trkpt lat="36.697115" lon="-5.379608"></trkpt><trkpt lat="36.707046" lon="-5.370366"></trkpt><trkpt lat="36.714128" lon="-5.367251"></trkpt><trkpt lat="36.727089" lon="-5.352384"></trkpt><trkpt lat="36.73502" lon="-5.352317"></trkpt><trkpt lat="36.743115" lon="-5.340288"></trkpt><trkpt lat="36.752721" lon="-5.349682"></trkpt><trkpt lat="36.759067" lon="-5.343165"></trkpt><trkpt lat="36.758062" lon="-5.337947"></trkpt><trkpt lat="36.760642" lon="-5.330816"></trkpt><trkpt lat="36.765839" lon="-5.326086"></trkpt><trkpt lat="36.763909" lon="-5.321436"></trkpt><trkpt lat="36.772855" lon="-5.290779"></trkpt><trkpt lat="36.774369" lon="-5.273911"></trkpt><trkpt lat="36.789492" lon="-5.275292"></trkpt><trkpt lat="36.786527" lon="-5.26178"></trkpt><trkpt lat="36.78118" lon="-5.252449"></trkpt><trkpt lat="36.783827" lon="-5.243417"></trkpt><trkpt lat="36.782975" lon="-5.23826"></trkpt><trkpt lat="36.772994" lon="-5.226848"></trkpt><trkpt lat="36.766543" lon="-5.225833"></trkpt><trkpt lat="36.761185" lon="-5.206658"></trkpt><trkpt lat="36.764585" lon="-5.197559"></trkpt><trkpt lat="36.763697" lon="-5.182352"></trkpt><trkpt lat="36.767676" lon="-5.17226"></trkpt><trkpt lat="36.765651" lon="-5.171199"></trkpt><trkpt lat="36.762486" lon="-5.17714"></trkpt><trkpt lat="36.751118" lon="-5.182078"></trkpt><trkpt lat="36.754766" lon="-5.177512"></trkpt><trkpt lat="36.755447" lon="-5.167695"></trkpt><trkpt lat="36.751566" lon="-5.170186"></trkpt><trkpt lat="36.747331" lon="-5.16846"></trkpt><trkpt lat="36.746209" lon="-5.165318"></trkpt><trkpt lat="36.74802" lon="-5.161746"></trkpt><trkpt lat="36.745368" lon="-5.158707"></trkpt><trkpt lat="36.74403" lon="-5.160451"></trkpt><trkpt lat="36.745988" lon="-5.161098"></trkpt></trkseg></trk><trk><name>21 Ronda - Ubeda</name><trkseg><trkpt lat="36.745988" lon="-5.161098"></trkpt><trkpt lat="36.793116" lon="-5.105965"></trkpt><trkpt lat="36.824104" lon="-5.095046"></trkpt><trkpt lat="36.833103" lon="-5.068013"></trkpt><trkpt lat="36.848342" lon="-5.055552"></trkpt><trkpt lat="36.858872" lon="-5.062256"></trkpt><trkpt lat="36.882728" lon="-5.041936"></trkpt><trkpt lat="36.897092" lon="-5.000652"></trkpt><trkpt lat="36.909361" lon="-4.997374"></trkpt><trkpt lat="36.912946" lon="-4.981357"></trkpt><trkpt lat="36.934454" lon="-4.960698"></trkpt><trkpt lat="36.928334" lon="-4.951436"></trkpt><trkpt lat="36.932158" lon="-4.923951"></trkpt><trkpt lat="36.949327" lon="-4.905124"></trkpt><trkpt lat="36.935579" lon="-4.868901"></trkpt><trkpt lat="36.961259" lon="-4.857127"></trkpt><trkpt lat="36.977143" lon="-4.834027"></trkpt><trkpt lat="37.031133" lon="-4.85642"></trkpt><trkpt lat="37.048372" lon="-4.846177"></trkpt><trkpt lat="37.062932" lon="-4.702899"></trkpt><trkpt lat="37.051008" lon="-4.652731"></trkpt><trkpt lat="37.067881" lon="-4.600887"></trkpt><trkpt lat="37.027175" lon="-4.575896"></trkpt><trkpt lat="37.019735" lon="-4.561064"></trkpt><trkpt lat="37.110532" lon="-4.56711"></trkpt><trkpt lat="37.204458" lon="-4.535431"></trkpt><trkpt lat="37.232192" lon="-4.537165"></trkpt><trkpt lat="37.26465" lon="-4.521888"></trkpt><trkpt lat="37.298865" lon="-4.474017"></trkpt><trkpt lat="37.363644" lon="-4.492367"></trkpt><trkpt lat="37.394093" lon="-4.526718"></trkpt><trkpt lat="37.408563" lon="-4.530558"></trkpt><trkpt lat="37.407016" lon="-4.510151"></trkpt><trkpt lat="37.453695" lon="-4.456119"></trkpt><trkpt lat="37.475637" lon="-4.465711"></trkpt><trkpt lat="37.51582" lon="-4.4438"></trkpt><trkpt lat="37.5435" lon="-4.392943"></trkpt><trkpt lat="37.546828" lon="-4.346603"></trkpt><trkpt lat="37.576065" lon="-4.272313"></trkpt><trkpt lat="37.561213" lon="-4.197646"></trkpt><trkpt lat="37.579708" lon="-4.162678"></trkpt><trkpt lat="37.575877" lon="-4.153779"></trkpt><trkpt lat="37.587319" lon="-4.132069"></trkpt><trkpt lat="37.62337" lon="-4.123957"></trkpt><trkpt lat="37.70582" lon="-3.990941"></trkpt><trkpt lat="37.750711" lon="-3.959226"></trkpt><trkpt lat="37.763511" lon="-3.911753"></trkpt><trkpt lat="37.782688" lon="-3.891018"></trkpt><trkpt lat="37.779448" lon="-3.867285"></trkpt><trkpt lat="37.788742" lon="-3.838671"></trkpt><trkpt lat="37.778684" lon="-3.812855"></trkpt><trkpt lat="37.77954" lon="-3.784974"></trkpt><trkpt lat="37.813861" lon="-3.773164"></trkpt><trkpt lat="37.821181" lon="-3.752622"></trkpt><trkpt lat="37.801676" lon="-3.723282"></trkpt><trkpt lat="37.812667" lon="-3.606321"></trkpt><trkpt lat="37.859653" lon="-3.608136"></trkpt><trkpt lat="37.892388" lon="-3.584763"></trkpt><trkpt lat="37.920223" lon="-3.552908"></trkpt><trkpt lat="37.947969" lon="-3.538048"></trkpt><trkpt lat="37.982714" lon="-3.482824"></trkpt><trkpt lat="37.998935" lon="-3.477754"></trkpt><trkpt lat="37.993957" lon="-3.468373"></trkpt><trkpt lat="38.013077" lon="-3.429886"></trkpt><trkpt lat="38.010965" lon="-3.37109"></trkpt></trkseg></trk><trk><name>23 Ubeda - Cuenca</name><trkseg><trkpt lat="38.010965" lon="-3.37109"></trkpt><trkpt lat="38.03001" lon="-3.366953"></trkpt><trkpt lat="38.050334" lon="-3.302505"></trkpt><trkpt lat="38.042877" lon="-3.255952"></trkpt><trkpt lat="38.073778" lon="-3.216255"></trkpt><trkpt lat="38.161424" lon="-2.993921"></trkpt><trkpt lat="38.278021" lon="-2.946691"></trkpt><trkpt lat="38.337373" lon="-2.873145"></trkpt><trkpt lat="38.351862" lon="-2.796664"></trkpt><trkpt lat="38.396576" lon="-2.7807"></trkpt><trkpt lat="38.420682" lon="-2.797987"></trkpt><trkpt lat="38.468926" lon="-2.759856"></trkpt><trkpt lat="38.618811" lon="-2.570313"></trkpt><trkpt lat="38.656731" lon="-2.556851"></trkpt><trkpt lat="38.672871" lon="-2.492687"></trkpt><trkpt lat="38.774787" lon="-2.449424"></trkpt><trkpt lat="38.77647" lon="-2.394381"></trkpt><trkpt lat="38.796707" lon="-2.371554"></trkpt><trkpt lat="38.830949" lon="-2.245722"></trkpt><trkpt lat="38.87887" lon="-2.199987"></trkpt><trkpt lat="38.878397" lon="-2.149053"></trkpt><trkpt lat="38.962229" lon="-1.935174"></trkpt><trkpt lat="38.998473" lon="-1.912236"></trkpt><trkpt lat="39.010702" lon="-1.87728"></trkpt><trkpt lat="38.99424" lon="-1.858202"></trkpt><trkpt lat="39.011055" lon="-1.864465"></trkpt><trkpt lat="39.208552" lon="-1.727425"></trkpt><trkpt lat="39.282418" lon="-1.514762"></trkpt><trkpt lat="39.275838" lon="-1.454503"></trkpt><trkpt lat="39.275838" lon="-1.454503"></trkpt><trkpt lat="39.367689" lon="-1.594108"></trkpt><trkpt lat="39.440085" lon="-1.659825"></trkpt><trkpt lat="39.471049" lon="-1.617223"></trkpt><trkpt lat="39.544142" lon="-1.600845"></trkpt><trkpt lat="39.605688" lon="-1.805533"></trkpt><trkpt lat="39.774046" lon="-1.924163"></trkpt><trkpt lat="39.833136" lon="-2.016957"></trkpt><trkpt lat="39.886526" lon="-2.024603"></trkpt><trkpt lat="39.954343" lon="-2.092701"></trkpt><trkpt lat="40.070184" lon="-2.136858"></trkpt></trkseg></trk><trk><name>25 Cuenca - Zaragoza</name><trkseg><trkpt lat="40.070184" lon="-2.136858"></trkpt><trkpt lat="40.083468" lon="-2.207123"></trkpt><trkpt lat="40.244724" lon="-2.302612"></trkpt><trkpt lat="40.382922" lon="-2.274457"></trkpt><trkpt lat="40.404659" lon="-2.218003"></trkpt><trkpt lat="40.449475" lon="-2.238727"></trkpt><trkpt lat="40.50379" lon="-2.214339"></trkpt><trkpt lat="40.52763" lon="-2.149774"></trkpt><trkpt lat="40.573587" lon="-2.104294"></trkpt><trkpt lat="40.577729" lon="-2.037487"></trkpt><trkpt lat="40.664396" lon="-2.026805"></trkpt><trkpt lat="40.673736" lon="-1.977459"></trkpt><trkpt lat="40.721451" lon="-1.928668"></trkpt><trkpt lat="40.744109" lon="-1.95082"></trkpt><trkpt lat="40.794275" lon="-1.93799"></trkpt><trkpt lat="40.843225" lon="-1.887077"></trkpt><trkpt lat="40.873816" lon="-1.861933"></trkpt><trkpt lat="40.998222" lon="-1.844287"></trkpt><trkpt lat="41.073086" lon="-1.874181"></trkpt><trkpt lat="41.190142" lon="-1.779654"></trkpt><trkpt lat="41.212278" lon="-1.789166"></trkpt><trkpt lat="41.215097" lon="-1.749932"></trkpt><trkpt lat="41.256152" lon="-1.688104"></trkpt><trkpt lat="41.353358" lon="-1.643415"></trkpt><trkpt lat="41.415287" lon="-1.499239"></trkpt><trkpt lat="41.488361" lon="-1.434726"></trkpt><trkpt lat="41.47869" lon="-1.40447"></trkpt><trkpt lat="41.493981" lon="-1.344137"></trkpt><trkpt lat="41.560084" lon="-1.184817"></trkpt><trkpt lat="41.543697" lon="-1.144579"></trkpt><trkpt lat="41.610563" lon="-1.070221"></trkpt><trkpt lat="41.63387" lon="-0.975352"></trkpt><trkpt lat="41.665353" lon="-0.936282"></trkpt><trkpt lat="41.648802" lon="-0.889102"></trkpt></trkseg></trk><trk><name>26 Zaragoza - Castelldefels</name><trkseg><trkpt lat="41.648802" lon="-0.889102"></trkpt><trkpt lat="41.67887" lon="-0.875995"></trkpt><trkpt lat="41.673928" lon="-0.826021"></trkpt><trkpt lat="41.615876" lon="-0.700462"></trkpt><trkpt lat="41.571353" lon="-0.653473"></trkpt><trkpt lat="41.522714" lon="-0.491498"></trkpt><trkpt lat="41.525884" lon="-0.190771"></trkpt><trkpt lat="41.509933" lon="0.022921"></trkpt><trkpt lat="41.525001" lon="0.064064"></trkpt><trkpt lat="41.496291" lon="0.120481"></trkpt><trkpt lat="41.464009" lon="0.277944"></trkpt><trkpt lat="41.513362" lon="0.4424"></trkpt><trkpt lat="41.541473" lon="0.486586"></trkpt><trkpt lat="41.549478" lon="0.621009"></trkpt><trkpt lat="41.617612" lon="0.620041"></trkpt><trkpt lat="41.544276" lon="0.631756"></trkpt><trkpt lat="41.541868" lon="0.696328"></trkpt><trkpt lat="41.506855" lon="0.76064"></trkpt><trkpt lat="41.510639" lon="0.83279"></trkpt><trkpt lat="41.430669" lon="0.931442"></trkpt><trkpt lat="41.402623" lon="1.147736"></trkpt><trkpt lat="41.375992" lon="1.161555"></trkpt><trkpt lat="41.392044" lon="1.163879"></trkpt><trkpt lat="41.393228" lon="1.273957"></trkpt><trkpt lat="41.294334" lon="1.353272"></trkpt><trkpt lat="41.267413" lon="1.540696"></trkpt><trkpt lat="41.207017" lon="1.508352"></trkpt><trkpt lat="41.193427" lon="1.529656"></trkpt><trkpt lat="41.208428" lon="1.657228"></trkpt><trkpt lat="41.241754" lon="1.685036"></trkpt><trkpt lat="41.25716" lon="1.73221"></trkpt><trkpt lat="41.241912" lon="1.765514"></trkpt><trkpt lat="41.25289" lon="1.791869"></trkpt><trkpt lat="41.243913" lon="1.857985"></trkpt><trkpt lat="41.278496" lon="1.979652"></trkpt></trkseg></trk><trk><name>28 Barcelona - Genua per Faehre</name><trkseg><trkpt lat="41.3523" lon="2.1677"></trkpt><trkpt lat="44.4056" lon="8.9463"></trkpt></trkseg></trk><trk><name>29 Genua - Aosta</name><trkseg><trkpt lat="44.405595" lon="8.946297"></trkpt><trkpt lat="44.406759" lon="8.934267"></trkpt><trkpt lat="44.427867" lon="8.883472"></trkpt><trkpt lat="44.430288" lon="8.756927"></trkpt><trkpt lat="44.445444" lon="8.715845"></trkpt><trkpt lat="44.454126" lon="8.744615"></trkpt><trkpt lat="44.490391" lon="8.733337"></trkpt><trkpt lat="44.575343" lon="8.659334"></trkpt><trkpt lat="44.724171" lon="8.666935"></trkpt><trkpt lat="44.87198" lon="8.574308"></trkpt><trkpt lat="44.91219" lon="8.616004"></trkpt><trkpt lat="44.93454" lon="8.626075"></trkpt><trkpt lat="44.93693" lon="8.571861"></trkpt><trkpt lat="44.985446" lon="8.537583"></trkpt><trkpt lat="45.028898" lon="8.537758"></trkpt><trkpt lat="45.108308" lon="8.490146"></trkpt><trkpt lat="45.185575" lon="8.497109"></trkpt><trkpt lat="45.244992" lon="8.468428"></trkpt><trkpt lat="45.294758" lon="8.378648"></trkpt><trkpt lat="45.308193" lon="8.29293"></trkpt><trkpt lat="45.413944" lon="7.998528"></trkpt><trkpt lat="45.426054" lon="7.847929"></trkpt><trkpt lat="45.556669" lon="7.818094"></trkpt><trkpt lat="45.665067" lon="7.68578"></trkpt><trkpt lat="45.738982" lon="7.651955"></trkpt><trkpt lat="45.737126" lon="7.320518"></trkpt></trkseg></trk><trk><name>30 Aosta - Berikon</name><trkseg><trkpt lat="45.737126" lon="7.320518"></trkpt><trkpt lat="45.790892" lon="7.29294"></trkpt><trkpt lat="45.82122" lon="7.23033"></trkpt><trkpt lat="45.819998" lon="7.14397"></trkpt><trkpt lat="45.832426" lon="7.180304"></trkpt><trkpt lat="45.850261" lon="7.16067"></trkpt><trkpt lat="45.904365" lon="7.200575"></trkpt><trkpt lat="45.970429" lon="7.208815"></trkpt><trkpt lat="46.023446" lon="7.146576"></trkpt><trkpt lat="46.079089" lon="7.153033"></trkpt><trkpt lat="46.073605" lon="7.053889"></trkpt><trkpt lat="46.102869" lon="7.072164"></trkpt><trkpt lat="46.115474" lon="7.080012"></trkpt><trkpt lat="46.146777" lon="7.034205"></trkpt><trkpt lat="46.232795" lon="7.00314"></trkpt><trkpt lat="46.338771" lon="6.931051"></trkpt><trkpt lat="46.429226" lon="6.928235"></trkpt><trkpt lat="46.475528" lon="6.860891"></trkpt><trkpt lat="46.499465" lon="6.719561"></trkpt><trkpt lat="46.541351" lon="6.656281"></trkpt><trkpt lat="46.519656" lon="6.632248"></trkpt><trkpt lat="46.548816" lon="6.625623"></trkpt><trkpt lat="46.476766" lon="6.798733"></trkpt><trkpt lat="46.479487" lon="6.884489"></trkpt><trkpt lat="46.589517" lon="6.932575"></trkpt><trkpt lat="46.61388" lon="6.968791"></trkpt><trkpt lat="46.627647" lon="7.039295"></trkpt><trkpt lat="46.68653" lon="7.092028"></trkpt><trkpt lat="46.785206" lon="7.091521"></trkpt><trkpt lat="46.847736" lon="7.172973"></trkpt><trkpt lat="46.890325" lon="7.34538"></trkpt><trkpt lat="46.950441" lon="7.407328"></trkpt><trkpt lat="46.970878" lon="7.470493"></trkpt><trkpt lat="47.081025" lon="7.573002"></trkpt><trkpt lat="47.218691" lon="7.604546"></trkpt><trkpt lat="47.260619" lon="7.706115"></trkpt><trkpt lat="47.286718" lon="7.729831"></trkpt><trkpt lat="47.311587" lon="7.802655"></trkpt><trkpt lat="47.304413" lon="7.920453"></trkpt><trkpt lat="47.32222" lon="8.017861"></trkpt><trkpt lat="47.388871" lon="8.119801"></trkpt><trkpt lat="47.397202" lon="8.186732"></trkpt><trkpt lat="47.348129" lon="8.260219"></trkpt><trkpt lat="47.360758" lon="8.338562"></trkpt><trkpt lat="47.350746" lon="8.372114"></trkpt></trkseg></trk></gpx>
