<?xml version="1.0" encoding="UTF-8"?>
<kml xmlns="http://www.opengis.net/kml/2.2"><Document><name>Spanien 2026 – Roadbook</name><Style id="route"><LineStyle><color>ff466b17</color><width>4</width></LineStyle></Style><Style id="ferry"><LineStyle><color>ff18619a</color><width>4</width></LineStyle></Style><Placemark><name>01 Berikon - Grenoble Autobahnkorridor</name><styleUrl>#route</styleUrl><LineString><tessellate>1</tessellate><coordinates>8.372114,47.350746,0 8.374687,47.346168,0 8.36412,47.346741,0 8.338562,47.360758,0 8.325492,47.355767,0 8.315211,47.358024,0 8.29394,47.346923,0 8.277456,47.351958,0 8.259691,47.348441,0 8.209238,47.387735,0 8.19551,47.38984,0 8.187978,47.398805,0 8.119602,47.388895,0 8.098585,47.371767,0 8.068808,47.361499,0 8.017924,47.322344,0 7.98145,47.323804,0 7.960188,47.320776,0 7.920872,47.30453,0 7.889007,47.313157,0 7.837648,47.309437,0 7.803104,47.311748,0 7.732192,47.287913,0 7.720883,47.280784,0 7.706078,47.260724,0 7.657478,47.246766,0 7.604654,47.219024,0 7.58938,47.17172,0 7.591565,47.148438,0 7.578203,47.114196,0 7.572682,47.080732,0 7.558443,47.062516,0 7.532115,47.047945,0 7.524888,47.028724,0 7.497866,47.017616,0 7.491117,47.002094,0 7.467246,46.984391,0 7.470939,46.97201,0 7.460426,46.948715,0 7.448143,46.947996,0 7.452267,46.948545,0 7.439242,46.953585,0 7.440985,46.962234,0 7.43218,46.96657,0 7.407114,46.951496,0 7.405079,46.939825,0 7.364976,46.919286,0 7.346108,46.890738,0 7.299621,46.888395,0 7.275872,46.875959,0 7.209604,46.865316,0 7.168265,46.845053,0 7.13851,46.820512,0 7.136535,46.808646,0 7.11206,46.800591,0 7.091857,46.785645,0 7.085561,46.726002,0 7.092645,46.714473,0 7.087525,46.702928,0 7.092157,46.68693,0 7.078509,46.67816,0 7.067005,46.651238,0 7.039363,46.627802,0 6.968351,46.613818,0 6.93247,46.589565,0 6.917108,46.564955,0 6.911533,46.519966,0 6.88405,46.479351,0 6.871966,46.482365,0 6.8614,46.476021,0 6.839883,46.47424,0 6.799133,46.47679,0 6.736423,46.499591,0 6.718922,46.499707,0 6.699307,46.514782,0 6.6846,46.519644,0 6.675431,46.533683,0 6.656281,46.541351,0 6.645715,46.533166,0 6.640769,46.521771,0 6.632248,46.519656,0 6.625098,46.52363,0 6.615839,46.516873,0 6.599638,46.51785,0 6.574959,46.529713,0 6.56813,46.539997,0 6.561083,46.540663,0 6.49753,46.514289,0 6.428352,46.478592,0 6.365556,46.473739,0 6.331177,46.464412,0 6.225311,46.409419,0 6.208399,46.393808,0 6.196603,46.369598,0 6.173631,46.352298,0 6.145044,46.315898,0 6.145439,46.286846,0 6.132466,46.261546,0 6.151562,46.244503,0 6.147904,46.225367,0 6.152733,46.21155,0 6.147704,46.206941,0 6.154002,46.20322,0 6.143352,46.20386,0 6.152521,46.200553,0 6.147016,46.196577,0 6.142137,46.198157,0 6.139771,46.193497,0 6.127904,46.1877,0 6.128967,46.173885,0 6.126744,46.165601,0 6.115246,46.161363,0 6.100539,46.16303,0 6.101215,46.15808,0 6.095305,46.147324,0 6.100331,46.133639,0 6.08709,46.120516,0 6.094549,46.106846,0 6.07897,46.062022,0 6.081784,46.046589,0 6.099949,46.019122,0 6.105066,46.016508,0 6.1192,46.016203,0 6.125758,46.007174,0 6.126684,45.992774,0 6.131707,45.975239,0 6.130583,45.958615,0 6.125648,45.953049,0 6.113846,45.950249,0 6.111632,45.94633,0 6.11297,45.939799,0 6.116663,45.94012,0 6.117167,45.935922,0 6.119835,45.935232,0 6.119308,45.930591,0 6.127081,45.92611,0 6.125617,45.919472,0 6.131512,45.911951,0 6.130663,45.906155,0 6.13369,45.902843,0 6.127541,45.901207,0 6.128952,45.899543,0 6.129853,45.894015,0 6.118207,45.898912,0 6.111329,45.896016,0 6.100786,45.900388,0 6.086567,45.897876,0 6.081677,45.885832,0 6.057921,45.863903,0 6.052868,45.837244,0 5.981638,45.806416,0 5.954526,45.762154,0 5.92601,45.741866,0 5.923684,45.71289,0 5.932506,45.68657,0 5.925295,45.668198,0 5.926209,45.655057,0 5.918359,45.635788,0 5.90195,45.628288,0 5.894151,45.610988,0 5.882239,45.604718,0 5.891408,45.602189,0 5.89531,45.59369,0 5.909254,45.583903,0 5.905943,45.574096,0 5.917885,45.564822,0 5.926823,45.562357,0 5.929711,45.56705,0 5.945535,45.566686,0 5.977733,45.522889,0 6.011075,45.508209,0 6.02307,45.491076,0 6.003623,45.450448,0 5.998398,45.408101,0 5.974765,45.370197,0 5.963231,45.338703,0 5.876034,45.251434,0 5.837479,45.235607,0 5.804813,45.209817,0 5.758584,45.200886,0 5.732043,45.18541,0 5.725531,45.184843,0 5.724324,45.188404,0</coordinates></LineString></Placemark><Placemark><name>02 Grenoble - Sisteron N85</name><styleUrl>#route</styleUrl><LineString><tessellate>1</tessellate><coordinates>5.724324,45.188404,0 5.70912,45.158836,0 5.700515,45.158738,0 5.690539,45.126793,0 5.724546,45.091172,0 5.772444,45.078776,0 5.765699,45.082613,0 5.751893,45.061641,0 5.777167,45.024405,0 5.769555,44.976363,0 5.78103,44.957937,0 5.78679,44.902993,0 5.80798,44.89729,0 5.81695,44.90207,0 5.826865,44.87909,0 5.864388,44.8642,0 5.862048,44.84551,0 5.89079,44.832393,0 5.914127,44.834978,0 5.952474,44.823079,0 5.947337,44.8176,0 5.956985,44.803891,0 5.977291,44.797738,0 5.985902,44.777876,0 6.02438,44.772088,0 6.006811,44.757312,0 6.004655,44.732233,0 6.057175,44.698958,0 6.082321,44.664759,0 6.07964,44.560045,0 6.048288,44.531837,0 6.028932,44.438026,0 6.006636,44.422775,0 5.970183,44.417,0 5.949671,44.40118,0 5.893087,44.325548,0 5.913309,44.224862,0 5.945487,44.198375,0</coordinates></LineString></Placemark><Placemark><name>03 Sisteron - Luberon</name><styleUrl>#route</styleUrl><LineString><tessellate>1</tessellate><coordinates>5.945487,44.198375,0 5.951743,44.155309,0 6.010306,44.099679,0 6.004923,44.096584,0 6.009251,44.093166,0 6.022134,44.072643,0 6.019724,44.055097,0 6.03004,44.045162,0 6.013349,44.045489,0 5.974023,44.030019,0 5.962177,44.037558,0 5.964486,44.040453,0 5.914856,43.989592,0 5.891685,43.941346,0 5.893239,43.921984,0 5.892648,43.92579,0 5.889423,43.921557,0 5.890664,43.928251,0 5.868213,43.935559,0 5.860412,43.932522,0 5.816765,43.940745,0 5.791863,43.958783,0 5.779658,43.959544,0 5.770798,43.95237,0 5.773404,43.945648,0 5.757489,43.92828,0 5.747977,43.90584,0 5.726832,43.889467,0 5.721483,43.890733,0 5.710079,43.880632,0 5.703045,43.879823,0 5.706434,43.875547,0 5.677917,43.863248,0 5.658612,43.86277,0 5.64507,43.857881,0 5.625822,43.860173,0 5.586064,43.856807,0 5.573555,43.860322,0 5.536437,43.851792,0 5.480947,43.850618,0 5.44279,43.879806,0 5.397361,43.876835,0 5.376066,43.875526,0 5.373788,43.867196,0 5.369644,43.86812,0 5.350028,43.850918,0 5.341372,43.850432,0 5.337281,43.840586,0 5.307616,43.823253,0 5.3159,43.822892,0 5.319695,43.817452,0 5.32956,43.815161,0 5.325947,43.813249,0 5.343271,43.810768,0 5.341443,43.798293,0 5.34957,43.776319,0 5.364397,43.763399,0</coordinates></LineString></Placemark><Placemark><name>04 Camargue</name><styleUrl>#route</styleUrl><LineString><tessellate>1</tessellate><coordinates>5.364397,43.763399,0 5.355826,43.757791,0 5.313421,43.746421,0 5.309556,43.749374,0 5.307005,43.745857,0 5.233659,43.755119,0 5.209635,43.751849,0 5.181123,43.754327,0 5.171851,43.73426,0 5.159866,43.727376,0 5.122027,43.739309,0 5.092945,43.740189,0 5.085087,43.744731,0 5.098574,43.702848,0 5.096683,43.668161,0 5.125472,43.629378,0 5.119529,43.626538,0 5.077329,43.624673,0 5.014778,43.639912,0 4.840859,43.638325,0 4.810591,43.629863,0 4.778867,43.633892,0 4.75508,43.629542,0 4.653004,43.656123,0 4.626277,43.669037,0 4.623433,43.674813,0 4.620788,43.673955,0 4.60706,43.679034,0 4.604232,43.670618,0 4.588953,43.665473,0 4.567936,43.644006,0 4.523387,43.624371,0 4.489249,43.618626,0 4.480028,43.613464,0 4.469882,43.594462,0 4.458184,43.585892,0 4.421191,43.573191,0 4.418605,43.559615,0 4.401242,43.547592,0 4.398298,43.51632,0 4.396926,43.518969,0 4.377915,43.525259,0 4.362843,43.545229,0 4.353554,43.544446,0 4.321975,43.55568,0 4.307325,43.572738,0 4.214553,43.587749,0 4.190775,43.56683,0 4.187308,43.565336,0 4.202251,43.579601,0 4.198041,43.579928,0 4.189908,43.634023,0 4.21187,43.666486,0 4.210493,43.677212,0 4.215899,43.68575,0 4.194763,43.701152,0 4.181049,43.725167,0 4.208464,43.749174,0 4.245239,43.74826,0 4.255027,43.751251,0 4.310793,43.800039,0 4.349665,43.809847,0 4.341477,43.815576,0 4.352627,43.81903,0 4.352257,43.823605,0 4.367917,43.83307,0 4.36157,43.836315,0</coordinates></LineString></Placemark><Placemark><name>05 Nimes - Carcassonne</name><styleUrl>#route</styleUrl><LineString><tessellate>1</tessellate><coordinates>4.36157,43.836315,0 4.369015,43.835142,0 4.340454,43.815781,0 4.34384,43.810622,0 4.310141,43.799796,0 4.253621,43.750603,0 4.208425,43.749309,0 4.187777,43.729032,0 4.147392,43.722197,0 4.117984,43.702093,0 4.121586,43.703597,0 4.013557,43.671349,0 3.939801,43.602817,0 3.875561,43.572251,0 3.798557,43.548747,0 3.712954,43.489042,0 3.65768,43.478373,0 3.580959,43.448877,0 3.554126,43.425499,0 3.48359,43.405019,0 3.442683,43.378722,0 3.414495,43.377881,0 3.418921,43.372104,0 3.410305,43.403797,0 3.416884,43.443411,0 3.432069,43.452651,0 3.423241,43.459512,0 3.426639,43.448128,0 3.396718,43.441898,0 3.379579,43.414313,0 3.327226,43.395026,0 3.272222,43.358506,0 3.255943,43.363013,0 3.215655,43.34415,0 3.089784,43.322691,0 3.043528,43.326295,0 2.999208,43.240252,0 3.011841,43.200264,0 3.026141,43.1969,0 3.036167,43.181224,0 2.981671,43.151483,0 2.941755,43.160529,0 2.873677,43.151932,0 2.803114,43.171148,0 2.612235,43.170185,0 2.588126,43.179013,0 2.519819,43.182263,0 2.494898,43.17757,0 2.420341,43.195551,0 2.416166,43.2059,0 2.351278,43.213012,0</coordinates></LineString></Placemark><Placemark><name>06 Carcassonne - Castelldefels</name><styleUrl>#route</styleUrl><LineString><tessellate>1</tessellate><coordinates>2.351278,43.213012,0 2.494788,43.177416,0 2.802582,43.171068,0 2.873651,43.151826,0 2.981325,43.150389,0 2.935856,43.079085,0 2.992509,42.884133,0 2.91128,42.840399,0 2.859237,42.665354,0 2.876782,42.682034,0 2.919852,42.664217,0 2.954648,42.61788,0 2.984147,42.613486,0 3.00905,42.544697,0 3.083062,42.52515,0 2.961721,42.558012,0 2.834232,42.516906,0 2.818063,42.524545,0 2.819679,42.500007,0 2.863788,42.470498,0 2.872973,42.405813,0 2.941971,42.319812,0 2.95808,42.265499,0 2.970841,42.240602,0 2.936839,42.226829,0 2.884033,42.059545,0 2.792883,41.994528,0 2.82135,41.979345,0 2.782308,41.958773,0 2.734876,41.768029,0 2.53706,41.711382,0 2.240762,41.555899,0 2.184398,41.48695,0 2.193551,41.447584,0 2.149113,41.436569,0 2.114286,41.401501,0 2.087603,41.339605,0 1.979652,41.278496,0</coordinates></LineString></Placemark><Placemark><name>08 Castelldefels - Priorat - Falset</name><styleUrl>#route</styleUrl><LineString><tessellate>1</tessellate><coordinates>1.979652,41.278496,0 1.987041,41.278855,0 1.963378,41.26822,0 1.903366,41.258918,0 1.889371,41.249774,0 1.868177,41.250072,0 1.857676,41.243986,0 1.814885,41.246465,0 1.815746,41.246467,0 1.797431,41.252463,0 1.787307,41.252259,0 1.765918,41.24199,0 1.741304,41.25619,0 1.731926,41.257223,0 1.685012,41.241885,0 1.674098,41.218857,0 1.657236,41.208556,0 1.630374,41.214753,0 1.560769,41.207515,0 1.53225,41.193427,0 1.508406,41.203429,0 1.475328,41.18252,0 1.434205,41.181417,0 1.413236,41.16478,0 1.368788,41.155888,0 1.340363,41.137712,0 1.303648,41.150552,0 1.258187,41.143157,0 1.233452,41.146506,0 1.24448,41.118919,0 1.233297,41.117182,0 1.164038,41.138428,0 1.1107,41.130346,0 1.099236,41.13948,0 1.098954,41.139933,0 1.055186,41.16627,0 0.992798,41.163755,0 0.919183,41.175028,0 0.898738,41.173385,0 0.896045,41.178108,0 0.87913,41.175232,0 0.856529,41.188022,0 0.841602,41.187565,0 0.836959,41.193114,0 0.821553,41.195509,0 0.821633,41.199674,0 0.809617,41.204313,0 0.808774,41.211625,0 0.813812,41.212709,0 0.809488,41.215804,0 0.788575,41.212007,0 0.774823,41.192047,0 0.784268,41.189492,0 0.786807,41.180528,0 0.792515,41.180309,0 0.7986,41.171287,0 0.820122,41.166555,0 0.814463,41.158917,0 0.820018,41.146,0</coordinates></LineString></Placemark><Placemark><name>09 Falset - Albarracin</name><styleUrl>#route</styleUrl><LineString><tessellate>1</tessellate><coordinates>0.820018,41.146,0 0.758289,41.116694,0 0.713717,41.118418,0 0.663436,41.104322,0 0.641039,41.080525,0 0.577206,41.08547,0 0.532478,41.110306,0 0.510465,41.086769,0 0.450694,41.068687,0 0.438682,41.053244,0 0.396686,41.055416,0 0.34858,41.043868,0 0.288528,41.053881,0 0.247958,41.04534,0 0.220236,41.022836,0 0.170528,41.002574,0 0.11834,41.000264,0 0.105502,40.985094,0 -0.0119,40.981711,0 -0.026248,40.97178,0 -0.126124,41.035811,0 -0.133228,41.050022,0 -0.165591,41.05151,0 -0.195547,41.028858,0 -0.219191,40.999314,0 -0.235666,40.940697,0 -0.32035,40.9393,0 -0.357711,40.906007,0 -0.394869,40.901365,0 -0.420905,40.881672,0 -0.459137,40.877986,0 -0.477596,40.887612,0 -0.498707,40.867572,0 -0.522735,40.864344,0 -0.554134,40.840463,0 -0.582594,40.836917,0 -0.591346,40.82299,0 -0.633601,40.802715,0 -0.698728,40.804295,0 -0.713546,40.785106,0 -0.741113,40.775662,0 -0.76296,40.776374,0 -0.808128,40.796469,0 -0.825316,40.778268,0 -0.859325,40.779081,0 -0.839993,40.754399,0 -0.849439,40.744841,0 -0.847969,40.722801,0 -0.900756,40.716397,0 -0.990647,40.653514,0 -1.010498,40.571235,0 -1.032616,40.552681,0 -1.020119,40.517636,0 -1.024872,40.490877,0 -1.075552,40.428748,0 -1.106504,40.345615,0 -1.107465,40.339406,0 -1.123323,40.346855,0 -1.181992,40.388431,0 -1.30218,40.418824,0 -1.356232,40.41035,0 -1.37287,40.426074,0 -1.428311,40.433415,0 -1.443752,40.406882,0</coordinates></LineString></Placemark><Placemark><name>10 Albarracin-Runde</name><styleUrl>#route</styleUrl><LineString><tessellate>1</tessellate><coordinates>-1.443752,40.406882,0 -1.442722,40.407706,0 -1.446503,40.408399,0 -1.450018,40.404506,0 -1.452222,40.404314,0 -1.44986,40.402303,0 -1.450942,40.39976,0 -1.452711,40.40083,0 -1.454332,40.399963,0 -1.457817,40.400976,0 -1.469786,40.394664,0 -1.476458,40.394157,0 -1.478305,40.397843,0 -1.480057,40.398463,0 -1.485075,40.397662,0 -1.486989,40.396215,0 -1.493365,40.395477,0 -1.496781,40.397001,0 -1.497377,40.400938,0 -1.495637,40.402715,0 -1.497786,40.406729,0 -1.497714,40.410449,0 -1.500459,40.411459,0 -1.50716,40.411296,0 -1.509961,40.415714,0 -1.520264,40.42366,0 -1.528097,40.426166,0 -1.537479,40.426678,0 -1.549241,40.429227,0 -1.567318,40.430514,0 -1.569266,40.432511,0 -1.572303,40.431115,0 -1.576678,40.433452,0 -1.58042,40.433202,0 -1.580057,40.4312,0 -1.590224,40.436389,0 -1.588828,40.440778,0 -1.591897,40.443286,0 -1.59024,40.446611,0 -1.591475,40.453151,0 -1.592597,40.456453,0 -1.595233,40.458615,0 -1.588575,40.457196,0 -1.586575,40.460431,0 -1.58287,40.460476,0 -1.580074,40.461727,0 -1.577875,40.468945,0 -1.578559,40.483077,0 -1.575945,40.486988,0 -1.58149,40.494771,0 -1.584054,40.495273,0 -1.586761,40.494116,0 -1.59018,40.498786,0 -1.587146,40.50121,0 -1.58652,40.503511,0 -1.588953,40.506621,0 -1.584718,40.508962,0 -1.584265,40.511755,0 -1.579305,40.519677,0 -1.603407,40.538506,0 -1.626673,40.549654,0 -1.633421,40.551813,0 -1.647088,40.551004,0 -1.649528,40.549443,0 -1.655463,40.549634,0 -1.654079,40.550562,0 -1.649611,40.549749,0 -1.647027,40.551115,0 -1.633101,40.551768,0 -1.626326,40.549508,0 -1.603407,40.538506,0 -1.579541,40.519686,0 -1.58568,40.507936,0 -1.588856,40.509592,0 -1.588699,40.510846,0 -1.590656,40.50815,0 -1.58652,40.503511,0 -1.587146,40.50121,0 -1.590147,40.498889,0 -1.589527,40.497166,0 -1.586638,40.494074,0 -1.584054,40.495273,0 -1.58149,40.494771,0 -1.57597,40.486639,0 -1.578559,40.483077,0 -1.57863,40.474364,0 -1.591321,40.473411,0 -1.594034,40.468386,0 -1.596246,40.46709,0 -1.597266,40.462579,0 -1.591475,40.453151,0 -1.59024,40.446611,0 -1.591897,40.443286,0 -1.588828,40.440778,0 -1.590445,40.436575,0 -1.586629,40.435305,0 -1.581317,40.431473,0 -1.579525,40.431354,0 -1.580179,40.433329,0 -1.576865,40.433468,0 -1.572303,40.431115,0 -1.569149,40.43249,0 -1.567564,40.430531,0 -1.549241,40.429227,0 -1.537479,40.426678,0 -1.528097,40.426166,0 -1.519871,40.42348,0 -1.509961,40.415714,0 -1.50716,40.411296,0 -1.500459,40.411459,0 -1.497714,40.410449,0 -1.497786,40.406729,0 -1.495637,40.402715,0 -1.497377,40.400938,0 -1.496781,40.397001,0 -1.493365,40.395477,0 -1.486989,40.396215,0 -1.485075,40.397662,0 -1.480057,40.398463,0 -1.478305,40.397843,0 -1.476458,40.394157,0 -1.469786,40.394664,0 -1.457817,40.400976,0 -1.454332,40.399963,0 -1.452711,40.40083,0 -1.450942,40.39976,0 -1.44986,40.402303,0 -1.452222,40.404314,0 -1.450018,40.404506,0 -1.446503,40.408399,0 -1.442722,40.407706,0 -1.443752,40.406882,0</coordinates></LineString></Placemark><Placemark><name>11 Albarracin - La Patacona</name><styleUrl>#route</styleUrl><LineString><tessellate>1</tessellate><coordinates>-1.443752,40.406882,0 -1.428311,40.433415,0 -1.37287,40.426074,0 -1.356232,40.41035,0 -1.30218,40.418824,0 -1.181959,40.388075,0 -1.11486,40.341696,0 -1.106504,40.345615,0 -1.106958,40.362889,0 -1.097642,40.366508,0 -1.084763,40.357886,0 -1.055698,40.359736,0 -1.023045,40.340302,0 -0.995554,40.288447,0 -0.927622,40.201837,0 -0.735326,40.117803,0 -0.715217,40.042969,0 -0.691342,40.015852,0 -0.686869,39.990041,0 -0.665975,39.990429,0 -0.633525,39.974591,0 -0.619359,39.944406,0 -0.558654,39.916293,0 -0.542433,39.884988,0 -0.501706,39.849243,0 -0.488389,39.851836,0 -0.468869,39.831063,0 -0.402071,39.794209,0 -0.389761,39.76168,0 -0.368913,39.743426,0 -0.365166,39.71502,0 -0.318628,39.676104,0 -0.279514,39.662241,0 -0.300772,39.627873,0 -0.29869,39.547265,0 -0.32765,39.496151,0 -0.351132,39.482112,0 -0.352511,39.495278,0</coordinates></LineString></Placemark><Placemark><name>13 La Patacona - Altea</name><styleUrl>#route</styleUrl><LineString><tessellate>1</tessellate><coordinates>-0.352511,39.495278,0 -0.345445,39.47975,0 -0.354455,39.458032,0 -0.371191,39.450249,0 -0.371556,39.428386,0 -0.400849,39.379543,0 -0.42607,39.37148,0 -0.459695,39.261839,0 -0.477017,39.248264,0 -0.498024,39.210806,0 -0.495451,39.193392,0 -0.530105,39.151649,0 -0.529675,39.101158,0 -0.557894,39.01859,0 -0.534954,39.01282,0 -0.517998,38.990201,0 -0.566512,38.968104,0 -0.558851,38.94761,0 -0.575569,38.928144,0 -0.578893,38.890684,0 -0.565206,38.833287,0 -0.608693,38.813255,0 -0.612074,38.798529,0 -0.595976,38.796257,0 -0.589322,38.784102,0 -0.609781,38.765891,0 -0.584993,38.77626,0 -0.522361,38.78076,0 -0.501941,38.793468,0 -0.462008,38.789652,0 -0.448342,38.782382,0 -0.43183,38.737909,0 -0.478332,38.702866,0 -0.473798,38.698582,0 -0.45673,38.684236,0 -0.428146,38.701884,0 -0.326223,38.687112,0 -0.292011,38.70082,0 -0.284004,38.68726,0 -0.263135,38.681583,0 -0.243266,38.687811,0 -0.230601,38.674977,0 -0.197408,38.675484,0 -0.205097,38.671746,0 -0.198571,38.660315,0 -0.124669,38.613826,0 -0.110324,38.617521,0 -0.089725,38.60704,0 -0.045006,38.602915,0</coordinates></LineString></Placemark><Placemark><name>14 Altea - Cartagena - Aguilas</name><styleUrl>#route</styleUrl><LineString><tessellate>1</tessellate><coordinates>-0.045006,38.602915,0 -0.094822,38.56383,0 -0.250171,38.526343,0 -0.295074,38.488701,0 -0.409042,38.434504,0 -0.447338,38.404388,0 -0.460667,38.381025,0 -0.521194,38.377587,0 -0.56978,38.309491,0 -0.66635,38.299426,0 -0.738756,38.281802,0 -0.792665,38.228394,0 -0.813813,38.219786,0 -0.80619,38.172559,0 -0.819945,38.149243,0 -0.780065,38.12483,0 -0.744675,38.060728,0 -0.74899,38.04508,0 -0.777819,38.034589,0 -0.786136,38.018605,0 -0.74364,37.967336,0 -0.739489,37.92534,0 -0.770964,37.891854,0 -0.78287,37.849618,0 -0.849894,37.81066,0 -0.839003,37.790247,0 -0.84451,37.769798,0 -0.872076,37.7404,0 -0.871271,37.684242,0 -0.982386,37.596018,0 -1.007711,37.612202,0 -1.08311,37.619149,0 -1.184071,37.576692,0 -1.170471,37.553731,0 -1.192499,37.579103,0 -1.238764,37.579965,0 -1.254908,37.562918,0 -1.296827,37.58863,0 -1.336399,37.597863,0 -1.335883,37.604572,0 -1.366245,37.59433,0 -1.425261,37.546205,0 -1.472639,37.534988,0 -1.552703,37.458732,0 -1.626511,37.436106,0 -1.600062,37.413061,0 -1.606296,37.395187,0 -1.5998,37.39709,0</coordinates></LineString></Placemark><Placemark><name>15 Aguilas - Monachil</name><styleUrl>#route</styleUrl><LineString><tessellate>1</tessellate><coordinates>-1.5998,37.39709,0 -1.599331,37.413175,0 -1.619973,37.426093,0 -1.634851,37.47111,0 -1.694297,37.514788,0 -1.732212,37.532721,0 -1.805112,37.543877,0 -1.810006,37.561978,0 -1.872772,37.599997,0 -2.028621,37.639594,0 -2.089233,37.646542,0 -2.12551,37.62806,0 -2.181931,37.61828,0 -2.237846,37.596727,0 -2.266678,37.604216,0 -2.289938,37.595286,0 -2.399158,37.598313,0 -2.541794,37.585784,0 -2.589583,37.570685,0 -2.659562,37.527263,0 -2.709792,37.520023,0 -2.736966,37.505809,0 -2.800079,37.514339,0 -2.817099,37.497183,0 -2.847723,37.488558,0 -2.927746,37.402562,0 -2.961772,37.393392,0 -2.988894,37.399079,0 -3.009667,37.389107,0 -3.040376,37.392045,0 -3.070286,37.374127,0 -3.105253,37.32365,0 -3.151129,37.319728,0 -3.221462,37.330878,0 -3.367274,37.307425,0 -3.398678,37.315474,0 -3.451687,37.295078,0 -3.470969,37.260422,0 -3.505909,37.227611,0 -3.558183,37.22629,0 -3.63186,37.244775,0 -3.653063,37.241853,0 -3.624861,37.21724,0 -3.633462,37.189077,0 -3.611477,37.17251,0 -3.610325,37.14175,0 -3.592311,37.149628,0 -3.539807,37.132189,0</coordinates></LineString></Placemark><Placemark><name>17 Alpujarras-Runde ab Monachil</name><styleUrl>#route</styleUrl><LineString><tessellate>1</tessellate><coordinates>-3.539807,37.132189,0 -3.56554,37.136798,0 -3.576658,37.142244,0 -3.579048,37.145589,0 -3.588642,37.147189,0 -3.592229,37.150448,0 -3.606157,37.142075,0 -3.609811,37.142661,0 -3.608868,37.134864,0 -3.613121,37.126136,0 -3.647041,37.095104,0 -3.648607,37.075897,0 -3.65519,37.059575,0 -3.655152,37.052104,0 -3.646567,37.037493,0 -3.639694,37.008325,0 -3.627067,36.992997,0 -3.592483,36.987067,0 -3.563347,36.977267,0 -3.555872,36.965691,0 -3.546667,36.959287,0 -3.544579,36.948781,0 -3.548252,36.936773,0 -3.536413,36.931757,0 -3.533969,36.923779,0 -3.515072,36.917848,0 -3.51393,36.913466,0 -3.510978,36.916944,0 -3.499901,36.913781,0 -3.492947,36.921127,0 -3.485825,36.917752,0 -3.481604,36.91851,0 -3.47091,36.921157,0 -3.470592,36.917548,0 -3.476466,36.912244,0 -3.466044,36.906576,0 -3.458243,36.908667,0 -3.454018,36.905876,0 -3.446838,36.906202,0 -3.443989,36.902277,0 -3.435309,36.90507,0 -3.429238,36.901046,0 -3.42349,36.902799,0 -3.428578,36.901096,0 -3.427742,36.906732,0 -3.43107,36.908974,0 -3.426747,36.912827,0 -3.433025,36.911617,0 -3.423255,36.919496,0 -3.419669,36.919646,0 -3.420288,36.921974,0 -3.416016,36.922557,0 -3.415374,36.926571,0 -3.409364,36.924211,0 -3.404025,36.925848,0 -3.397846,36.923218,0 -3.397523,36.924602,0 -3.389647,36.923242,0 -3.388322,36.921337,0 -3.385445,36.923734,0 -3.379597,36.922218,0 -3.364303,36.942383,0 -3.3636,36.937998,0 -3.361894,36.941907,0 -3.361615,36.938361,0 -3.35979,36.940559,0 -3.361615,36.938361,0 -3.361894,36.941907,0 -3.3636,36.937998,0 -3.364303,36.942383,0 -3.379597,36.922218,0 -3.385445,36.923734,0 -3.388322,36.921337,0 -3.389647,36.923242,0 -3.397523,36.924602,0 -3.397671,36.923187,0 -3.404025,36.925848,0 -3.409364,36.924211,0 -3.415374,36.926571,0 -3.416016,36.922557,0 -3.420288,36.921974,0 -3.419669,36.919646,0 -3.423255,36.919496,0 -3.433025,36.911617,0 -3.426699,36.912748,0 -3.431063,36.909008,0 -3.427742,36.906732,0 -3.42897,36.901043,0 -3.43272,36.901943,0 -3.433054,36.904987,0 -3.443709,36.902256,0 -3.446838,36.906202,0 -3.454018,36.905876,0 -3.45687,36.908476,0 -3.466235,36.906649,0 -3.476466,36.912244,0 -3.470592,36.917548,0 -3.471198,36.921311,0 -3.48542,36.916397,0 -3.492947,36.921127,0 -3.499847,36.913801,0 -3.510978,36.916944,0 -3.513827,36.913424,0 -3.5163,36.915844,0 -3.515072,36.917848,0 -3.518458,36.917585,0 -3.531171,36.923846,0 -3.536605,36.932158,0 -3.547939,36.936671,0 -3.548772,36.940131,0 -3.544354,36.94916,0 -3.546429,36.959777,0 -3.555487,36.965559,0 -3.563277,36.977467,0 -3.591608,36.987048,0 -3.623006,36.991438,0 -3.627929,36.994087,0 -3.631051,37.000517,0 -3.639414,37.008278,0 -3.646342,37.037553,0 -3.655322,37.053904,0 -3.648358,37.076265,0 -3.646302,37.096142,0 -3.613529,37.125448,0 -3.607738,37.141243,0 -3.592482,37.149614,0 -3.578241,37.145075,0 -3.576658,37.142244,0 -3.56554,37.136798,0 -3.559074,37.137177,0 -3.539807,37.132189,0</coordinates></LineString></Placemark><Placemark><name>18 Monachil - Ronda Hauptlinie</name><styleUrl>#route</styleUrl><LineString><tessellate>1</tessellate><coordinates>-3.539807,37.132189,0 -3.592229,37.150448,0 -3.607945,37.142597,0 -3.611399,37.17275,0 -3.637075,37.198075,0 -3.734336,37.190113,0 -3.815417,37.195274,0 -3.831134,37.188988,0 -3.86496,37.19562,0 -3.904028,37.178594,0 -4.017839,37.195262,0 -4.037838,37.182571,0 -4.078297,37.180708,0 -4.087849,37.167171,0 -4.106286,37.162249,0 -4.178514,37.166667,0 -4.291678,37.128324,0 -4.358289,37.13012,0 -4.422672,37.088492,0 -4.531901,37.07165,0 -4.511249,37.044894,0 -4.561064,37.019735,0 -4.575401,37.026803,0 -4.601768,37.071156,0 -4.65209,37.051065,0 -4.702899,37.062932,0 -4.863247,37.048284,0 -4.834024,36.977862,0 -4.857127,36.961259,0 -4.868901,36.935579,0 -4.90523,36.949394,0 -4.923951,36.932158,0 -4.951436,36.928334,0 -4.960698,36.934454,0 -4.981357,36.912946,0 -4.997374,36.909361,0 -5.000652,36.897092,0 -5.041697,36.882883,0 -5.062256,36.858872,0 -5.055552,36.848342,0 -5.068013,36.833103,0 -5.095046,36.824104,0 -5.10572,36.793523,0 -5.161098,36.745988,0</coordinates></LineString></Placemark><Placemark><name>19 Grazalema-Runde</name><styleUrl>#route</styleUrl><LineString><tessellate>1</tessellate><coordinates>-5.161098,36.745988,0 -5.168783,36.748627,0 -5.167695,36.755447,0 -5.177512,36.754766,0 -5.182078,36.751118,0 -5.17714,36.762486,0 -5.171199,36.765651,0 -5.17226,36.767676,0 -5.182352,36.763697,0 -5.197586,36.764649,0 -5.206658,36.761185,0 -5.225833,36.766543,0 -5.226848,36.772994,0 -5.23826,36.782975,0 -5.243417,36.783827,0 -5.252705,36.781231,0 -5.271713,36.789768,0 -5.274532,36.787932,0 -5.275374,36.789459,0 -5.276356,36.786284,0 -5.273257,36.775173,0 -5.278357,36.772819,0 -5.290439,36.772929,0 -5.321436,36.763909,0 -5.326086,36.765839,0 -5.330816,36.760642,0 -5.337947,36.758062,0 -5.342593,36.759477,0 -5.354959,36.749311,0 -5.362827,36.759605,0 -5.358067,36.763838,0 -5.367401,36.761548,0 -5.365561,36.758087,0 -5.363021,36.758175,0 -5.370098,36.757528,0 -5.378186,36.761868,0 -5.382223,36.760757,0 -5.376534,36.787406,0 -5.385356,36.789764,0 -5.379975,36.789202,0 -5.381576,36.791572,0 -5.377868,36.794606,0 -5.38259,36.793685,0 -5.381384,36.801488,0 -5.391633,36.800094,0 -5.389804,36.80422,0 -5.39215,36.817229,0 -5.388101,36.828213,0 -5.388209,36.840943,0 -5.397214,36.846385,0 -5.418308,36.846639,0 -5.423099,36.842738,0 -5.431266,36.841041,0 -5.435566,36.834371,0 -5.431266,36.841041,0 -5.423099,36.842738,0 -5.418308,36.846639,0 -5.397214,36.846385,0 -5.392973,36.839586,0 -5.391212,36.840315,0 -5.390432,36.842323,0 -5.393023,36.842391,0 -5.390936,36.843541,0 -5.397214,36.846385,0 -5.418308,36.846639,0 -5.426576,36.842236,0 -5.453204,36.848097,0 -5.470843,36.846123,0 -5.476749,36.840585,0 -5.492926,36.836296,0 -5.499383,36.822505,0 -5.50874,36.818402,0 -5.511514,36.814351,0 -5.533902,36.800367,0 -5.539099,36.79024,0 -5.523684,36.789146,0 -5.514378,36.772134,0 -5.513993,36.756696,0 -5.50657,36.758602,0 -5.514294,36.756889,0 -5.507905,36.748413,0 -5.509497,36.734471,0 -5.50677,36.727596,0 -5.482222,36.721475,0 -5.478134,36.705938,0 -5.460163,36.701341,0 -5.454859,36.694761,0 -5.452656,36.679193,0 -5.451336,36.677218,0 -5.450812,36.678826,0 -5.445956,36.677947,0 -5.444324,36.676821,0 -5.448467,36.679743,0 -5.451336,36.677218,0 -5.452681,36.679316,0 -5.45029,36.682886,0 -5.452602,36.687421,0 -5.446602,36.691667,0 -5.447967,36.69592,0 -5.442695,36.694353,0 -5.441578,36.698154,0 -5.435954,36.696878,0 -5.430238,36.701915,0 -5.424843,36.703104,0 -5.421795,36.698263,0 -5.425941,36.690742,0 -5.424794,36.683604,0 -5.379608,36.697115,0 -5.370366,36.707046,0 -5.367251,36.714128,0 -5.352384,36.727089,0 -5.352317,36.73502,0 -5.340288,36.743115,0 -5.349682,36.752721,0 -5.343165,36.759067,0 -5.337947,36.758062,0 -5.330816,36.760642,0 -5.326086,36.765839,0 -5.321436,36.763909,0 -5.290779,36.772855,0 -5.273911,36.774369,0 -5.275292,36.789492,0 -5.26178,36.786527,0 -5.252449,36.78118,0 -5.243417,36.783827,0 -5.23826,36.782975,0 -5.226848,36.772994,0 -5.225833,36.766543,0 -5.206658,36.761185,0 -5.197559,36.764585,0 -5.182352,36.763697,0 -5.17226,36.767676,0 -5.171199,36.765651,0 -5.17714,36.762486,0 -5.182078,36.751118,0 -5.177512,36.754766,0 -5.167695,36.755447,0 -5.170186,36.751566,0 -5.16846,36.747331,0 -5.165318,36.746209,0 -5.161746,36.74802,0 -5.158707,36.745368,0 -5.160451,36.74403,0 -5.161098,36.745988,0</coordinates></LineString></Placemark><Placemark><name>21 Ronda - Ubeda</name><styleUrl>#route</styleUrl><LineString><tessellate>1</tessellate><coordinates>-5.161098,36.745988,0 -5.105965,36.793116,0 -5.095046,36.824104,0 -5.068013,36.833103,0 -5.055552,36.848342,0 -5.062256,36.858872,0 -5.041936,36.882728,0 -5.000652,36.897092,0 -4.997374,36.909361,0 -4.981357,36.912946,0 -4.960698,36.934454,0 -4.951436,36.928334,0 -4.923951,36.932158,0 -4.905124,36.949327,0 -4.868901,36.935579,0 -4.857127,36.961259,0 -4.834027,36.977143,0 -4.85642,37.031133,0 -4.846177,37.048372,0 -4.702899,37.062932,0 -4.652731,37.051008,0 -4.600887,37.067881,0 -4.575896,37.027175,0 -4.561064,37.019735,0 -4.56711,37.110532,0 -4.535431,37.204458,0 -4.537165,37.232192,0 -4.521888,37.26465,0 -4.474017,37.298865,0 -4.492367,37.363644,0 -4.526718,37.394093,0 -4.530558,37.408563,0 -4.510151,37.407016,0 -4.456119,37.453695,0 -4.465711,37.475637,0 -4.4438,37.51582,0 -4.392943,37.5435,0 -4.346603,37.546828,0 -4.272313,37.576065,0 -4.197646,37.561213,0 -4.162678,37.579708,0 -4.153779,37.575877,0 -4.132069,37.587319,0 -4.123957,37.62337,0 -3.990941,37.70582,0 -3.959226,37.750711,0 -3.911753,37.763511,0 -3.891018,37.782688,0 -3.867285,37.779448,0 -3.838671,37.788742,0 -3.812855,37.778684,0 -3.784974,37.77954,0 -3.773164,37.813861,0 -3.752622,37.821181,0 -3.723282,37.801676,0 -3.606321,37.812667,0 -3.608136,37.859653,0 -3.584763,37.892388,0 -3.552908,37.920223,0 -3.538048,37.947969,0 -3.482824,37.982714,0 -3.477754,37.998935,0 -3.468373,37.993957,0 -3.429886,38.013077,0 -3.37109,38.010965,0</coordinates></LineString></Placemark><Placemark><name>23 Ubeda - Cuenca</name><styleUrl>#route</styleUrl><LineString><tessellate>1</tessellate><coordinates>-3.37109,38.010965,0 -3.366953,38.03001,0 -3.302505,38.050334,0 -3.255952,38.042877,0 -3.216255,38.073778,0 -2.993921,38.161424,0 -2.946691,38.278021,0 -2.873145,38.337373,0 -2.796664,38.351862,0 -2.7807,38.396576,0 -2.797987,38.420682,0 -2.759856,38.468926,0 -2.570313,38.618811,0 -2.556851,38.656731,0 -2.492687,38.672871,0 -2.449424,38.774787,0 -2.394381,38.77647,0 -2.371554,38.796707,0 -2.245722,38.830949,0 -2.199987,38.87887,0 -2.149053,38.878397,0 -1.935174,38.962229,0 -1.912236,38.998473,0 -1.87728,39.010702,0 -1.858202,38.99424,0 -1.864465,39.011055,0 -1.727425,39.208552,0 -1.514762,39.282418,0 -1.454503,39.275838,0 -1.454503,39.275838,0 -1.594108,39.367689,0 -1.659825,39.440085,0 -1.617223,39.471049,0 -1.600845,39.544142,0 -1.805533,39.605688,0 -1.924163,39.774046,0 -2.016957,39.833136,0 -2.024603,39.886526,0 -2.092701,39.954343,0 -2.136858,40.070184,0</coordinates></LineString></Placemark><Placemark><name>25 Cuenca - Zaragoza</name><styleUrl>#route</styleUrl><LineString><tessellate>1</tessellate><coordinates>-2.136858,40.070184,0 -2.207123,40.083468,0 -2.302612,40.244724,0 -2.274457,40.382922,0 -2.218003,40.404659,0 -2.238727,40.449475,0 -2.214339,40.50379,0 -2.149774,40.52763,0 -2.104294,40.573587,0 -2.037487,40.577729,0 -2.026805,40.664396,0 -1.977459,40.673736,0 -1.928668,40.721451,0 -1.95082,40.744109,0 -1.93799,40.794275,0 -1.887077,40.843225,0 -1.861933,40.873816,0 -1.844287,40.998222,0 -1.874181,41.073086,0 -1.779654,41.190142,0 -1.789166,41.212278,0 -1.749932,41.215097,0 -1.688104,41.256152,0 -1.643415,41.353358,0 -1.499239,41.415287,0 -1.434726,41.488361,0 -1.40447,41.47869,0 -1.344137,41.493981,0 -1.184817,41.560084,0 -1.144579,41.543697,0 -1.070221,41.610563,0 -0.975352,41.63387,0 -0.936282,41.665353,0 -0.889102,41.648802,0</coordinates></LineString></Placemark><Placemark><name>26 Zaragoza - Castelldefels</name><styleUrl>#route</styleUrl><LineString><tessellate>1</tessellate><coordinates>-0.889102,41.648802,0 -0.875995,41.67887,0 -0.826021,41.673928,0 -0.700462,41.615876,0 -0.653473,41.571353,0 -0.491498,41.522714,0 -0.190771,41.525884,0 0.022921,41.509933,0 0.064064,41.525001,0 0.120481,41.496291,0 0.277944,41.464009,0 0.4424,41.513362,0 0.486586,41.541473,0 0.621009,41.549478,0 0.620041,41.617612,0 0.631756,41.544276,0 0.696328,41.541868,0 0.76064,41.506855,0 0.83279,41.510639,0 0.931442,41.430669,0 1.147736,41.402623,0 1.161555,41.375992,0 1.163879,41.392044,0 1.273957,41.393228,0 1.353272,41.294334,0 1.540696,41.267413,0 1.508352,41.207017,0 1.529656,41.193427,0 1.657228,41.208428,0 1.685036,41.241754,0 1.73221,41.25716,0 1.765514,41.241912,0 1.791869,41.25289,0 1.857985,41.243913,0 1.979652,41.278496,0</coordinates></LineString></Placemark><Placemark><name>28 Barcelona - Genua per Faehre</name><styleUrl>#ferry</styleUrl><LineString><tessellate>1</tessellate><coordinates>2.1677,41.3523,0 8.9463,44.4056,0</coordinates></LineString></Placemark><Placemark><name>29 Genua - Aosta</name><styleUrl>#route</styleUrl><LineString><tessellate>1</tessellate><coordinates>8.946297,44.405595,0 8.934267,44.406759,0 8.883472,44.427867,0 8.756927,44.430288,0 8.715845,44.445444,0 8.744615,44.454126,0 8.733337,44.490391,0 8.659334,44.575343,0 8.666935,44.724171,0 8.574308,44.87198,0 8.616004,44.91219,0 8.626075,44.93454,0 8.571861,44.93693,0 8.537583,44.985446,0 8.537758,45.028898,0 8.490146,45.108308,0 8.497109,45.185575,0 8.468428,45.244992,0 8.378648,45.294758,0 8.29293,45.308193,0 7.998528,45.413944,0 7.847929,45.426054,0 7.818094,45.556669,0 7.68578,45.665067,0 7.651955,45.738982,0 7.320518,45.737126,0</coordinates></LineString></Placemark><Placemark><name>30 Aosta - Berikon</name><styleUrl>#route</styleUrl><LineString><tessellate>1</tessellate><coordinates>7.320518,45.737126,0 7.29294,45.790892,0 7.23033,45.82122,0 7.14397,45.819998,0 7.180304,45.832426,0 7.16067,45.850261,0 7.200575,45.904365,0 7.208815,45.970429,0 7.146576,46.023446,0 7.153033,46.079089,0 7.053889,46.073605,0 7.072164,46.102869,0 7.080012,46.115474,0 7.034205,46.146777,0 7.00314,46.232795,0 6.931051,46.338771,0 6.928235,46.429226,0 6.860891,46.475528,0 6.719561,46.499465,0 6.656281,46.541351,0 6.632248,46.519656,0 6.625623,46.548816,0 6.798733,46.476766,0 6.884489,46.479487,0 6.932575,46.589517,0 6.968791,46.61388,0 7.039295,46.627647,0 7.092028,46.68653,0 7.091521,46.785206,0 7.172973,46.847736,0 7.34538,46.890325,0 7.407328,46.950441,0 7.470493,46.970878,0 7.573002,47.081025,0 7.604546,47.218691,0 7.706115,47.260619,0 7.729831,47.286718,0 7.802655,47.311587,0 7.920453,47.304413,0 8.017861,47.32222,0 8.119801,47.388871,0 8.186732,47.397202,0 8.260219,47.348129,0 8.338562,47.360758,0 8.372114,47.350746,0</coordinates></LineString></Placemark></Document></kml>
