{"type":"FeatureCollection","name":"Adria & Balkan 2026 – strassenfolgende Roadbook-Routen","generatedAt":"2026-08-28T15:11:49.063Z","features":[{"type":"Feature","properties":{"name":"1 Berikon – Innsbruck","day":1,"variant":"original","ferry":false,"optional":false,"anchorCount":3,"distanceMeters":294593.8,"durationSeconds":13279.2,"source":"osrm-driving-via-roadbook-anchors"},"geometry":{"coordinates":[[8.372053,47.351048],[8.519635,47.343418],[8.580194,47.259955],[8.702231,47.19698],[8.98178,47.183282],[9.060779,47.130071],[9.174956,47.111826],[9.332319,47.114976],[9.38291,47.070513],[9.462531,47.03547],[9.4704,47.065182],[9.517779,47.096611],[9.484504,47.17906],[9.502379,47.224239],[9.518241,47.244577],[9.572196,47.253776],[9.597943,47.237983],[9.733373,47.178076],[9.781085,47.171419],[9.83089,47.137343],[9.897382,47.145976],[9.989396,47.12489],[10.260988,47.122154],[10.386679,47.150216],[10.495357,47.128793],[10.672663,47.208038],[10.811917,47.224121],[10.884696,47.263168],[11.107478,47.311593],[11.244255,47.261631],[11.39838,47.250783],[11.413914,47.253511],[11.40532,47.26905]],"type":"LineString"}},{"type":"Feature","properties":{"name":"2 Innsbruck – Villach","day":2,"variant":"original","ferry":false,"optional":false,"anchorCount":4,"distanceMeters":288330.7,"durationSeconds":15799.2,"source":"osrm-driving-via-roadbook-anchors"},"geometry":{"coordinates":[[11.40532,47.26905],[11.399792,47.251558],[11.388469,47.249558],[11.403862,47.205986],[11.397034,47.182657],[11.408921,47.18315],[11.442579,47.153592],[11.458871,47.086674],[11.480678,47.070738],[11.474036,47.036741],[11.50931,47.016096],[11.505862,47.004018],[11.454592,46.950938],[11.424653,46.890351],[11.505868,46.860531],[11.53936,46.816019],[11.603989,46.797502],[11.637178,46.763978],[11.666898,46.776156],[11.665256,46.791819],[11.686376,46.813054],[11.70734,46.81763],[11.835825,46.806186],[11.862578,46.816448],[11.904163,46.802211],[11.918266,46.807001],[11.921965,46.796767],[11.935992,46.796979],[11.950225,46.797857],[11.954064,46.788533],[11.995654,46.792098],[12.017205,46.776223],[12.043481,46.771494],[12.048215,46.761727],[12.091794,46.761101],[12.158954,46.73665],[12.249495,46.726461],[12.283746,46.736227],[12.31827,46.729357],[12.428192,46.751376],[12.493946,46.749665],[12.690902,46.78558],[12.731706,46.79489],[12.757367,46.827936],[12.779863,46.83174],[12.832398,46.825981],[12.8716,46.8022],[12.882999,46.784662],[12.967004,46.747936],[13.079653,46.736976],[13.108492,46.744151],[13.141594,46.739847],[13.173644,46.750483],[13.317596,46.758378],[13.337185,46.765878],[13.350667,46.785439],[13.358102,46.826141],[13.38975,46.832592],[13.462163,46.829617],[13.51863,46.807292],[13.519074,46.792578],[13.656312,46.687285],[13.745427,46.651722],[13.797403,46.642427],[13.793676,46.647197],[13.846056,46.628363],[13.847627,46.613312]],"type":"LineString"}},{"type":"Feature","properties":{"name":"3 Villach – Ljubljana – Rijeka – Senj","day":3,"variant":"original","ferry":false,"optional":false,"anchorCount":4,"distanceMeters":276993.8,"durationSeconds":15081.4,"source":"osrm-driving-via-roadbook-anchors"},"geometry":{"coordinates":[[13.847627,46.613312],[13.883352,46.596856],[13.905723,46.615319],[13.982387,46.590395],[14.030971,46.53206],[13.992559,46.451365],[14.124838,46.408636],[14.199708,46.33344],[14.276023,46.311548],[14.292518,46.281542],[14.381172,46.255594],[14.472106,46.195553],[14.482206,46.126803],[14.463513,46.097735],[14.505896,46.055758],[14.310775,45.978742],[14.255692,45.901422],[14.294097,45.838174],[14.285637,45.811727],[14.228389,45.791343],[14.186155,45.731913],[14.197355,45.682802],[14.250848,45.618861],[14.230034,45.586467],[14.246662,45.522761],[14.281426,45.48524],[14.268559,45.456901],[14.299585,45.421834],[14.301784,45.385913],[14.441628,45.326493],[14.545965,45.310055],[14.597786,45.27772],[14.597563,45.251751],[14.748813,45.140428],[14.814574,45.116063],[14.850872,45.1199],[14.904939,44.988943]],"type":"LineString"}},{"type":"Feature","properties":{"name":"4 Senj – Karlobag – Starigrad – Zadar","day":4,"variant":"original","ferry":false,"optional":false,"anchorCount":4,"distanceMeters":157156.6,"durationSeconds":11405.2,"source":"osrm-driving-via-roadbook-anchors"},"geometry":{"coordinates":[[14.904939,44.988943],[14.928237,44.9518],[14.914245,44.920453],[14.907062,44.821187],[14.897601,44.805891],[14.899305,44.763326],[14.918932,44.705272],[14.989898,44.595835],[15.073986,44.526994],[15.213845,44.427245],[15.278419,44.365519],[15.408933,44.319048],[15.439082,44.29595],[15.47943,44.274818],[15.525641,44.269326],[15.541686,44.258628],[15.543075,44.24391],[15.495079,44.217905],[15.454744,44.217452],[15.433305,44.188364],[15.398796,44.188468],[15.271852,44.118736],[15.245232,44.126232],[15.232204,44.119099]],"type":"LineString"}},{"type":"Feature","properties":{"name":"8 Zadar – Biograd – Vodice – Šibenik","day":8,"variant":"original","ferry":false,"optional":false,"anchorCount":4,"distanceMeters":77444.7,"durationSeconds":5697.1,"source":"osrm-driving-via-roadbook-anchors"},"geometry":{"coordinates":[[15.232204,44.119099],[15.246889,44.102914],[15.263308,44.10388],[15.27024,44.098742],[15.282762,44.086778],[15.297467,44.060128],[15.321597,44.040812],[15.343546,44.030622],[15.39577,43.978079],[15.446965,43.951241],[15.445735,43.938236],[15.456562,43.942916],[15.485761,43.931637],[15.551301,43.880267],[15.59289,43.862355],[15.610634,43.848967],[15.638991,43.840857],[15.642066,43.833316],[15.65257,43.82747],[15.7182,43.801137],[15.763486,43.775889],[15.781974,43.7608],[15.812055,43.764702],[15.829496,43.757977],[15.857782,43.762355],[15.879228,43.756113],[15.898873,43.731643],[15.895447,43.735308]],"type":"LineString"}},{"type":"Feature","properties":{"name":"11 Šibenik – Primošten – Trogir – Makarska","day":11,"variant":"original","ferry":false,"optional":false,"anchorCount":4,"distanceMeters":163712.2,"durationSeconds":10095.7,"source":"osrm-driving-via-roadbook-anchors"},"geometry":{"coordinates":[[15.895447,43.735308],[15.914075,43.713646],[15.904203,43.692425],[15.923579,43.67431],[15.947918,43.660487],[15.951177,43.646448],[15.975152,43.631861],[15.9623,43.629015],[15.918333,43.632206],[15.922713,43.623359],[15.917694,43.620131],[15.927436,43.612303],[15.921317,43.605218],[15.926599,43.597546],[15.923874,43.586392],[15.935579,43.586721],[15.948255,43.559503],[15.958321,43.556089],[15.969416,43.540812],[15.990766,43.540419],[16.089397,43.512676],[16.115017,43.513137],[16.118381,43.517714],[16.127387,43.51614],[16.131898,43.521421],[16.161338,43.512355],[16.193952,43.513697],[16.222242,43.521006],[16.25187,43.515975],[16.265144,43.51628],[16.264846,43.528064],[16.285299,43.536177],[16.29798,43.547691],[16.340917,43.559176],[16.387663,43.5573],[16.434438,43.550334],[16.485952,43.534229],[16.490581,43.526993],[16.508664,43.529161],[16.535267,43.546429],[16.538128,43.557883],[16.530791,43.564743],[16.534164,43.57308],[16.575393,43.592851],[16.568439,43.599705],[16.619467,43.602666],[16.6309,43.588281],[16.672818,43.576441],[16.731685,43.529072],[16.741115,43.514356],[16.763902,43.509116],[16.778189,43.495041],[16.795755,43.49126],[16.806048,43.480877],[16.82765,43.477776],[16.844272,43.464664],[16.887611,43.45222],[16.900746,43.444408],[16.917997,43.442511],[16.952022,43.427727],[17.001871,43.422781],[17.023233,43.41087],[17.029893,43.402207],[17.045006,43.397683],[17.041591,43.39328],[17.032261,43.39411],[17.030082,43.389146],[16.977387,43.360174],[16.964615,43.348995],[16.98322,43.327875],[16.987754,43.328895],[16.994815,43.318619],[17.004203,43.314693],[17.016799,43.295898]],"type":"LineString"}},{"type":"Feature","properties":{"name":"14 Makarska – Ploče – Pelješac-Brücke – Ston – Dubrovnik","day":14,"variant":"original","ferry":false,"optional":false,"anchorCount":5,"distanceMeters":208994.5,"durationSeconds":12394.1,"source":"osrm-driving-via-roadbook-anchors"},"geometry":{"coordinates":[[17.016799,43.295898],[16.965341,43.3491],[17.032261,43.39411],[17.043507,43.394084],[17.034569,43.402946],[17.112817,43.352709],[17.161111,43.332884],[17.211841,43.27922],[17.237909,43.225782],[17.285236,43.205925],[17.373632,43.191189],[17.476961,43.158805],[17.489975,43.146553],[17.478431,43.109604],[17.490599,43.096421],[17.495676,43.062104],[17.487364,43.0533],[17.462302,43.054757],[17.446308,43.044192],[17.431952,43.054959],[17.473176,43.053328],[17.48799,43.034728],[17.516293,43.044323],[17.548543,43.034943],[17.547259,42.98311],[17.534751,42.967771],[17.516016,42.970269],[17.543179,42.941659],[17.526509,42.921093],[17.537193,42.907215],[17.526472,42.920362],[17.534981,42.930582],[17.543421,42.941114],[17.531121,42.951928],[17.54336,42.940442],[17.528707,42.911907],[17.578476,42.889477],[17.564295,42.867539],[17.581703,42.853301],[17.680501,42.817744],[17.697041,42.838001],[17.707349,42.845097],[17.781799,42.814422],[17.846335,42.803631],[17.858731,42.786074],[17.893322,42.787698],[17.875425,42.767621],[17.885677,42.757487],[18.023212,42.692616],[18.037254,42.690619],[18.045264,42.702272],[18.056628,42.67845],[18.106866,42.645831],[18.093476,42.650906]],"type":"LineString"}},{"type":"Feature","properties":{"name":"17 Dubrovnik – Karasovići – Bucht von Kotor","day":17,"variant":"original","ferry":false,"optional":false,"anchorCount":5,"distanceMeters":99654.3,"durationSeconds":9464.1,"source":"osrm-driving-via-roadbook-anchors"},"geometry":{"coordinates":[[18.093476,42.650906],[18.089219,42.651522],[18.094551,42.647205],[18.094041,42.649049],[18.11787,42.644168],[18.127918,42.641128],[18.137374,42.63342],[18.170942,42.627167],[18.177956,42.622494],[18.19439,42.625233],[18.209812,42.624542],[18.215638,42.617303],[18.225901,42.613283],[18.232616,42.60675],[18.230027,42.589021],[18.245266,42.570217],[18.246241,42.564865],[18.275448,42.553113],[18.296175,42.548476],[18.35492,42.518074],[18.365114,42.517774],[18.398414,42.506484],[18.413766,42.503867],[18.436233,42.488036],[18.436421,42.492933],[18.438229,42.49712],[18.431611,42.501663],[18.431743,42.508498],[18.424315,42.511524],[18.429679,42.49838],[18.428752,42.49527],[18.438543,42.485915],[18.457003,42.481016],[18.47802,42.472091],[18.492431,42.456988],[18.505259,42.453751],[18.516843,42.459605],[18.531144,42.453069],[18.537236,42.449974],[18.5423,42.451569],[18.551153,42.45048],[18.558912,42.455204],[18.566452,42.455628],[18.585175,42.440676],[18.598312,42.437927],[18.608709,42.437287],[18.610647,42.439163],[18.637784,42.444228],[18.655877,42.455137],[18.675446,42.459805],[18.673378,42.466181],[18.68631,42.478973],[18.667241,42.486387],[18.652066,42.486979],[18.649018,42.489669],[18.651964,42.494536],[18.667857,42.504617],[18.676462,42.50541],[18.682904,42.515293],[18.687623,42.517171],[18.693356,42.515781],[18.696615,42.510031],[18.691011,42.495774],[18.692354,42.490807],[18.698832,42.485792],[18.733179,42.48347],[18.753759,42.490315],[18.763801,42.490002],[18.766906,42.486117],[18.763459,42.47813],[18.766801,42.455385],[18.76539,42.443852],[18.762772,42.441332],[18.769155,42.432848],[18.768352,42.425395],[18.770576,42.423674]],"type":"LineString"}},{"type":"Feature","properties":{"name":"21 Kotor – Dubrovnik – Ploče – Makarska","day":21,"variant":"original","ferry":false,"optional":false,"anchorCount":5,"distanceMeters":275650.5,"durationSeconds":18686.9,"source":"osrm-driving-via-roadbook-anchors"},"geometry":{"coordinates":[[18.770576,42.423674],[18.737784,42.392282],[18.689242,42.443288],[18.685017,42.46629],[18.636925,42.443931],[18.593651,42.438388],[18.566198,42.455677],[18.534015,42.453115],[18.512929,42.46227],[18.49755,42.455202],[18.436421,42.492933],[18.415831,42.526116],[18.383575,42.513979],[18.356424,42.517664],[18.246241,42.564865],[18.230027,42.589021],[18.232616,42.60675],[18.209812,42.624542],[18.177956,42.622494],[18.093476,42.650906],[18.08051,42.665306],[18.091307,42.669635],[18.081283,42.666205],[18.056628,42.67845],[18.045264,42.702272],[18.037254,42.690619],[18.023212,42.692616],[17.885677,42.757487],[17.875425,42.767621],[17.894606,42.785494],[17.886534,42.79056],[17.858305,42.786187],[17.846335,42.803631],[17.826921,42.801934],[17.755615,42.825757],[17.717428,42.829959],[17.686982,42.81581],[17.580869,42.853799],[17.564295,42.867539],[17.578476,42.889477],[17.528707,42.911907],[17.543365,42.941386],[17.516035,42.969472],[17.534751,42.967771],[17.547259,42.98311],[17.548892,43.0345],[17.516658,43.044324],[17.48799,43.034728],[17.473176,43.053328],[17.431952,43.054959],[17.446143,43.043998],[17.462069,43.054705],[17.487364,43.0533],[17.495676,43.062104],[17.490719,43.09646],[17.47877,43.109494],[17.49018,43.146515],[17.477134,43.158912],[17.373639,43.191295],[17.285351,43.206082],[17.23798,43.225877],[17.212405,43.278664],[17.181524,43.315238],[17.035088,43.402847],[17.043507,43.394084],[17.032261,43.39411],[16.964615,43.348995],[17.016799,43.295898]],"type":"LineString"}},{"type":"Feature","properties":{"name":"22 Makarska – A1 – Plitvice","day":22,"variant":"original","ferry":false,"optional":false,"anchorCount":4,"distanceMeters":335923,"durationSeconds":16635.5,"source":"osrm-driving-via-roadbook-anchors"},"geometry":{"coordinates":[[17.016799,43.295898],[16.965352,43.349166],[17.045019,43.397772],[16.914126,43.454276],[16.920105,43.442167],[16.780054,43.494158],[16.619564,43.602756],[16.454628,43.586517],[16.348788,43.595663],[16.246295,43.619637],[16.149484,43.677475],[16.053669,43.684432],[15.992685,43.709428],[15.882936,43.839653],[15.657526,43.964517],[15.421926,44.133104],[15.453054,44.216475],[15.547246,44.242013],[15.605803,44.239015],[15.590905,44.263968],[15.61403,44.249537],[15.65182,44.257919],[15.677774,44.313581],[15.630499,44.392674],[15.653669,44.360736],[15.633555,44.348898],[15.684912,44.304623],[15.701675,44.322072],[15.666304,44.372936],[15.682423,44.390163],[15.660084,44.427743],[15.672293,44.459933],[15.714452,44.467095],[15.746515,44.496542],[15.761115,44.553479],[15.717481,44.659632],[15.749637,44.702613],[15.692701,44.761153],[15.67347,44.833418],[15.617609,44.880402]],"type":"LineString"}},{"type":"Feature","properties":{"name":"24 Plitvice – Rijeka/Opatija – Rovinj","day":24,"variant":"original","ferry":false,"optional":false,"anchorCount":4,"distanceMeters":262984.2,"durationSeconds":14347.8,"source":"osrm-driving-via-roadbook-anchors"},"geometry":{"coordinates":[[15.617609,44.880402],[15.624766,44.880902],[15.606629,44.914323],[15.628103,44.938119],[15.599063,44.921371],[15.557355,44.928118],[15.52662,44.962679],[15.469584,44.985889],[15.467731,44.993294],[15.427715,44.994327],[15.412996,45.020058],[15.417404,45.044997],[15.408597,45.049377],[15.418287,45.057525],[15.362598,45.079921],[15.36638,45.086962],[15.352092,45.09547],[15.365545,45.117814],[15.352317,45.138231],[15.310041,45.173362],[15.287992,45.179176],[15.275172,45.225078],[15.262023,45.230289],[15.276502,45.253117],[15.269548,45.269866],[15.283907,45.319138],[15.253886,45.407565],[15.189468,45.385532],[15.100394,45.373795],[15.070046,45.358338],[15.049493,45.377172],[14.987295,45.373218],[14.896675,45.386412],[14.850071,45.380936],[14.819078,45.393817],[14.771331,45.367021],[14.736491,45.324139],[14.71901,45.316475],[14.654711,45.325971],[14.627093,45.322258],[14.598939,45.331816],[14.573194,45.361251],[14.554352,45.362299],[14.532509,45.377114],[14.494678,45.376632],[14.491145,45.346427],[14.466331,45.350199],[14.469556,45.337576],[14.441628,45.326493],[14.406524,45.344953],[14.365883,45.34885],[14.335796,45.36324],[14.30746,45.357169],[14.284809,45.326301],[14.262433,45.330131],[14.254284,45.314729],[14.225006,45.314959],[14.182867,45.312753],[14.114686,45.345396],[14.085821,45.349403],[14.074672,45.318734],[14.011324,45.26603],[13.976969,45.245157],[13.902551,45.223193],[13.873461,45.127069],[13.810828,45.111249],[13.715616,45.109828],[13.683615,45.10127],[13.662975,45.083912],[13.638188,45.080805]],"type":"LineString"}},{"type":"Feature","properties":{"name":"27 Rovinj – Triest – Verona","day":27,"variant":"original","ferry":false,"optional":false,"anchorCount":3,"distanceMeters":369905.5,"durationSeconds":16560.8,"source":"osrm-driving-via-roadbook-anchors"},"geometry":{"coordinates":[[13.638188,45.080805],[13.715983,45.109897],[13.817372,45.111931],[13.730472,45.15774],[13.707381,45.247473],[13.717298,45.292668],[13.694753,45.319194],[13.628699,45.3264],[13.611829,45.429273],[13.62092,45.453406],[13.657873,45.455906],[13.682658,45.502325],[13.718232,45.508992],[13.785742,45.558563],[13.81954,45.616485],[13.777349,45.649022],[13.729505,45.7198],[13.67007,45.759646],[13.601712,45.778634],[13.506284,45.841405],[13.286519,45.89705],[13.110916,45.833128],[12.785529,45.783846],[12.343574,45.574111],[12.26769,45.592789],[12.198112,45.587549],[12.152615,45.566813],[12.13709,45.489538],[12.088775,45.451049],[11.945742,45.419794],[11.58019,45.517174],[11.460638,45.504401],[11.376618,45.443793],[11.271643,45.409254],[11.131729,45.422054],[10.969601,45.397546],[10.992153,45.438246]],"type":"LineString"}},{"type":"Feature","properties":{"name":"29 Verona – Como","day":29,"variant":"original","ferry":false,"optional":false,"anchorCount":2,"distanceMeters":200130.8,"durationSeconds":8070.2,"source":"osrm-driving-via-roadbook-anchors"},"geometry":{"coordinates":[[10.992153,45.438246],[10.963604,45.397707],[10.891823,45.413197],[10.600225,45.434436],[10.386768,45.467924],[10.173247,45.522156],[10.088073,45.56184],[9.989578,45.580754],[9.920574,45.618651],[9.670143,45.669957],[9.582415,45.62322],[9.499053,45.595191],[9.199814,45.547848],[9.120781,45.516241],[9.011112,45.577751],[9.017037,45.688554],[9.031424,45.73873],[9.048985,45.769442],[9.077739,45.772591],[9.092933,45.794178],[9.085736,45.808226]],"type":"LineString"}},{"type":"Feature","properties":{"name":"30 Como – Gotthardtunnel – Berikon","day":30,"variant":"original","ferry":false,"optional":false,"anchorCount":3,"distanceMeters":234037,"durationSeconds":10918.5,"source":"osrm-driving-via-roadbook-anchors"},"geometry":{"coordinates":[[9.085736,45.808226],[8.972762,45.859111],[8.984712,45.917935],[8.96517,45.951835],[8.926711,45.964524],[8.915607,45.99914],[8.919555,46.132128],[8.989068,46.157183],[9.037078,46.215003],[8.977047,46.330619],[8.868736,46.400281],[8.808824,46.472334],[8.697449,46.513539],[8.600773,46.527546],[8.584635,46.546601],[8.564165,46.596195],[8.591319,46.685434],[8.669504,46.769224],[8.612192,46.928745],[8.62967,47.025903],[8.593324,47.047574],[8.518165,47.054782],[8.45289,47.101987],[8.432292,47.174411],[8.47109,47.212264],[8.423854,47.287146],[8.459818,47.338071],[8.372053,47.351048]],"type":"LineString"}}]}
