{"type":"FeatureCollection","name":"Spanien 2026 – straßenfolgende Roadbook-Routen","generatedAt":"2026-08-16T11:04:58.278Z","sourceKml":"reiseplanung-verfeinert-2026.kml","features":[{"type":"Feature","properties":{"name":"01 Berikon - Grenoble Autobahnkorridor","day":1,"variant":"original","ferry":false,"optional":false,"anchorCount":7,"distanceMeters":432277.99999999994,"durationSeconds":20901.6,"source":"osrm-driving-segmented-via-kml-anchors"},"geometry":{"type":"LineString","coordinates":[[8.372114,47.350746],[8.374687,47.346168],[8.36412,47.346741],[8.338562,47.360758],[8.325492,47.355767],[8.315211,47.358024],[8.29394,47.346923],[8.277456,47.351958],[8.259691,47.348441],[8.209238,47.387735],[8.19551,47.38984],[8.187978,47.398805],[8.119602,47.388895],[8.098585,47.371767],[8.068808,47.361499],[8.017924,47.322344],[7.98145,47.323804],[7.960188,47.320776],[7.920872,47.30453],[7.889007,47.313157],[7.837648,47.309437],[7.803104,47.311748],[7.732192,47.287913],[7.720883,47.280784],[7.706078,47.260724],[7.657478,47.246766],[7.604654,47.219024],[7.58938,47.17172],[7.591565,47.148438],[7.578203,47.114196],[7.572682,47.080732],[7.558443,47.062516],[7.532115,47.047945],[7.524888,47.028724],[7.497866,47.017616],[7.491117,47.002094],[7.467246,46.984391],[7.470939,46.97201],[7.460426,46.948715],[7.448143,46.947996],[7.452267,46.948545],[7.439242,46.953585],[7.440985,46.962234],[7.43218,46.96657],[7.407114,46.951496],[7.405079,46.939825],[7.364976,46.919286],[7.346108,46.890738],[7.299621,46.888395],[7.275872,46.875959],[7.209604,46.865316],[7.168265,46.845053],[7.13851,46.820512],[7.136535,46.808646],[7.11206,46.800591],[7.091857,46.785645],[7.085561,46.726002],[7.092645,46.714473],[7.087525,46.702928],[7.092157,46.68693],[7.078509,46.67816],[7.067005,46.651238],[7.039363,46.627802],[6.968351,46.613818],[6.93247,46.589565],[6.917108,46.564955],[6.911533,46.519966],[6.88405,46.479351],[6.871966,46.482365],[6.8614,46.476021],[6.839883,46.47424],[6.799133,46.47679],[6.736423,46.499591],[6.718922,46.499707],[6.699307,46.514782],[6.6846,46.519644],[6.675431,46.533683],[6.656281,46.541351],[6.645715,46.533166],[6.640769,46.521771],[6.632248,46.519656],[6.625098,46.52363],[6.615839,46.516873],[6.599638,46.51785],[6.574959,46.529713],[6.56813,46.539997],[6.561083,46.540663],[6.49753,46.514289],[6.428352,46.478592],[6.365556,46.473739],[6.331177,46.464412],[6.225311,46.409419],[6.208399,46.393808],[6.196603,46.369598],[6.173631,46.352298],[6.145044,46.315898],[6.145439,46.286846],[6.132466,46.261546],[6.151562,46.244503],[6.147904,46.225367],[6.152733,46.21155],[6.147704,46.206941],[6.154002,46.20322],[6.143352,46.20386],[6.152521,46.200553],[6.147016,46.196577],[6.142137,46.198157],[6.139771,46.193497],[6.127904,46.1877],[6.128967,46.173885],[6.126744,46.165601],[6.115246,46.161363],[6.100539,46.16303],[6.101215,46.15808],[6.095305,46.147324],[6.100331,46.133639],[6.08709,46.120516],[6.094549,46.106846],[6.07897,46.062022],[6.081784,46.046589],[6.099949,46.019122],[6.105066,46.016508],[6.1192,46.016203],[6.125758,46.007174],[6.126684,45.992774],[6.131707,45.975239],[6.130583,45.958615],[6.125648,45.953049],[6.113846,45.950249],[6.111632,45.94633],[6.11297,45.939799],[6.116663,45.94012],[6.117167,45.935922],[6.119835,45.935232],[6.119308,45.930591],[6.127081,45.92611],[6.125617,45.919472],[6.131512,45.911951],[6.130663,45.906155],[6.13369,45.902843],[6.127541,45.901207],[6.128952,45.899543],[6.129853,45.894015],[6.118207,45.898912],[6.111329,45.896016],[6.100786,45.900388],[6.086567,45.897876],[6.081677,45.885832],[6.057921,45.863903],[6.052868,45.837244],[5.981638,45.806416],[5.954526,45.762154],[5.92601,45.741866],[5.923684,45.71289],[5.932506,45.68657],[5.925295,45.668198],[5.926209,45.655057],[5.918359,45.635788],[5.90195,45.628288],[5.894151,45.610988],[5.882239,45.604718],[5.891408,45.602189],[5.89531,45.59369],[5.909254,45.583903],[5.905943,45.574096],[5.917885,45.564822],[5.926823,45.562357],[5.929711,45.56705],[5.945535,45.566686],[5.977733,45.522889],[6.011075,45.508209],[6.02307,45.491076],[6.003623,45.450448],[5.998398,45.408101],[5.974765,45.370197],[5.963231,45.338703],[5.876034,45.251434],[5.837479,45.235607],[5.804813,45.209817],[5.758584,45.200886],[5.732043,45.18541],[5.725531,45.184843],[5.724324,45.188404]]}},{"type":"Feature","properties":{"name":"01 Berikon - Grenoble Autobahnkorridor","day":1,"variant":"direct","ferry":false,"optional":false,"anchorCount":7,"distanceMeters":405068.8,"durationSeconds":16843.9,"source":"osrm-driving-direct"},"geometry":{"coordinates":[[8.372114,47.350746],[8.338562,47.360758],[8.259691,47.348441],[8.187978,47.398805],[8.119602,47.388895],[8.017644,47.322279],[7.921331,47.30456],[7.782861,47.306828],[7.605278,47.219725],[7.572865,47.081062],[7.46942,46.970459],[7.368327,46.944286],[7.179893,46.962407],[7.124848,46.91656],[6.981962,46.87258],[6.908218,46.827761],[6.856451,46.831723],[6.680066,46.75777],[6.643738,46.761982],[6.574581,46.733081],[6.553555,46.599766],[6.56759,46.543017],[6.428352,46.478592],[6.331177,46.464412],[6.22397,46.40853],[6.146809,46.319639],[6.138893,46.251109],[6.076038,46.20746],[6.101516,46.16031],[6.080961,46.049152],[6.123682,46.011588],[6.130454,45.958164],[6.05342,45.837803],[5.981638,45.806416],[5.926395,45.74244],[5.926209,45.655057],[5.882239,45.604718],[6.019895,45.498593],[5.99858,45.408594],[5.959466,45.332717],[5.885573,45.258417],[5.805561,45.210134],[5.724324,45.188404]],"type":"LineString"}},{"type":"Feature","properties":{"name":"02 Grenoble - Sisteron N85","day":2,"variant":"original","ferry":false,"optional":false,"anchorCount":7,"distanceMeters":155407.9,"durationSeconds":9993.7,"source":"osrm-driving-via-kml-anchors"},"geometry":{"coordinates":[[5.724324,45.188404],[5.70912,45.158836],[5.700515,45.158738],[5.690539,45.126793],[5.724546,45.091172],[5.772444,45.078776],[5.765699,45.082613],[5.751893,45.061641],[5.777167,45.024405],[5.769555,44.976363],[5.78103,44.957937],[5.78679,44.902993],[5.80798,44.89729],[5.81695,44.90207],[5.826865,44.87909],[5.864388,44.8642],[5.862048,44.84551],[5.89079,44.832393],[5.914127,44.834978],[5.952474,44.823079],[5.947337,44.8176],[5.956985,44.803891],[5.977291,44.797738],[5.985902,44.777876],[6.02438,44.772088],[6.006811,44.757312],[6.004655,44.732233],[6.057175,44.698958],[6.082321,44.664759],[6.07964,44.560045],[6.048288,44.531837],[6.028932,44.438026],[6.006636,44.422775],[5.970183,44.417],[5.949671,44.40118],[5.893087,44.325548],[5.913309,44.224862],[5.945487,44.198375]],"type":"LineString"}},{"type":"Feature","properties":{"name":"02 Grenoble - Sisteron N85","day":2,"variant":"direct","ferry":false,"optional":false,"anchorCount":7,"distanceMeters":140467.9,"durationSeconds":8152.3,"source":"osrm-driving-direct"},"geometry":{"coordinates":[[5.724324,45.188404],[5.669963,45.093823],[5.685872,45.05167],[5.663099,45.036278],[5.64332,44.969148],[5.655473,44.953657],[5.615178,44.900133],[5.624831,44.874358],[5.598592,44.865088],[5.620082,44.852566],[5.618075,44.842037],[5.597669,44.83235],[5.62954,44.817506],[5.63417,44.789441],[5.659983,44.776724],[5.659309,44.763547],[5.681385,44.744189],[5.67744,44.708504],[5.697972,44.675321],[5.696389,44.630961],[5.709715,44.596501],[5.738055,44.567138],[5.758447,44.565047],[5.777934,44.54883],[5.775046,44.534647],[5.730751,44.4994],[5.713123,44.431696],[5.77115,44.345804],[5.79338,44.325466],[5.83465,44.307827],[5.862939,44.260769],[5.945487,44.198375]],"type":"LineString"}},{"type":"Feature","properties":{"name":"02b Gorges de la Meouge optional","day":2,"variant":"original","ferry":false,"optional":true,"anchorCount":7,"distanceMeters":65200.5,"durationSeconds":4453.8,"source":"osrm-driving-via-kml-anchors"},"geometry":{"coordinates":[[5.945487,44.198375],[5.944854,44.194003],[5.94391,44.193893],[5.942654,44.196025],[5.944865,44.199452],[5.937076,44.202643],[5.914107,44.223973],[5.914092,44.225137],[5.912516,44.225393],[5.889312,44.245581],[5.886247,44.249806],[5.873303,44.254713],[5.862939,44.260769],[5.859798,44.266878],[5.853713,44.271577],[5.853831,44.274706],[5.848244,44.280345],[5.846779,44.284604],[5.844543,44.285644],[5.842291,44.289564],[5.84318,44.292021],[5.834871,44.307586],[5.827013,44.313736],[5.822098,44.313986],[5.821595,44.315025],[5.820682,44.314442],[5.822852,44.313621],[5.822821,44.311532],[5.820384,44.309078],[5.823004,44.30609],[5.823516,44.302071],[5.820988,44.295002],[5.822853,44.289203],[5.816862,44.277152],[5.810697,44.272206],[5.793352,44.277722],[5.792124,44.278635],[5.790203,44.278086],[5.789207,44.279657],[5.782678,44.279205],[5.781876,44.278309],[5.783926,44.274905],[5.782029,44.275478],[5.777393,44.272908],[5.774357,44.269961],[5.7755,44.26776],[5.772456,44.265919],[5.769647,44.267002],[5.76873,44.26457],[5.766659,44.266207],[5.763922,44.265664],[5.761913,44.268676],[5.758516,44.266997],[5.754174,44.266522],[5.746347,44.262793],[5.744253,44.26363],[5.733648,44.262891],[5.744253,44.26363],[5.746347,44.262793],[5.754174,44.266522],[5.758516,44.266997],[5.761913,44.268676],[5.763922,44.265664],[5.766659,44.266207],[5.76873,44.26457],[5.769647,44.267002],[5.772456,44.265919],[5.7755,44.26776],[5.774357,44.269961],[5.777393,44.272908],[5.782029,44.275478],[5.783926,44.274905],[5.781876,44.278309],[5.782678,44.279205],[5.789207,44.279657],[5.790203,44.278086],[5.792124,44.278635],[5.793352,44.277722],[5.810697,44.272206],[5.816862,44.277152],[5.822853,44.289203],[5.820988,44.295002],[5.823516,44.302071],[5.822996,44.306254],[5.820384,44.309078],[5.822821,44.311532],[5.821595,44.315025],[5.8226,44.314034],[5.827328,44.313409],[5.834871,44.307586],[5.84318,44.292021],[5.842291,44.289564],[5.844543,44.285644],[5.846779,44.284604],[5.848244,44.280345],[5.853808,44.274749],[5.853713,44.271577],[5.859798,44.266878],[5.862939,44.260769],[5.873303,44.254713],[5.886037,44.249969],[5.889312,44.245581],[5.937076,44.202643],[5.940029,44.20085],[5.944324,44.20044],[5.945487,44.198375]],"type":"LineString"}},{"type":"Feature","properties":{"name":"02b Gorges de la Meouge optional","day":2,"variant":"direct","ferry":false,"optional":true,"anchorCount":7,"distanceMeters":0,"durationSeconds":0,"source":"osrm-driving-direct"},"geometry":{"coordinates":[[5.945748,44.198167],[5.945748,44.198167]],"type":"LineString"}},{"type":"Feature","properties":{"name":"03 Sisteron - Luberon","day":3,"variant":"original","ferry":false,"optional":false,"anchorCount":8,"distanceMeters":126677,"durationSeconds":9271.1,"source":"osrm-driving-via-kml-anchors"},"geometry":{"coordinates":[[5.945487,44.198375],[5.951743,44.155309],[6.010306,44.099679],[6.004923,44.096584],[6.009251,44.093166],[6.022134,44.072643],[6.019724,44.055097],[6.03004,44.045162],[6.013349,44.045489],[5.974023,44.030019],[5.962177,44.037558],[5.964486,44.040453],[5.914856,43.989592],[5.891685,43.941346],[5.893239,43.921984],[5.892648,43.92579],[5.889423,43.921557],[5.890664,43.928251],[5.868213,43.935559],[5.860412,43.932522],[5.816765,43.940745],[5.791863,43.958783],[5.779658,43.959544],[5.770798,43.95237],[5.773404,43.945648],[5.757489,43.92828],[5.747977,43.90584],[5.726832,43.889467],[5.721483,43.890733],[5.710079,43.880632],[5.703045,43.879823],[5.706434,43.875547],[5.677917,43.863248],[5.658612,43.86277],[5.64507,43.857881],[5.625822,43.860173],[5.586064,43.856807],[5.573555,43.860322],[5.536437,43.851792],[5.480947,43.850618],[5.44279,43.879806],[5.397361,43.876835],[5.376066,43.875526],[5.373788,43.867196],[5.369644,43.86812],[5.350028,43.850918],[5.341372,43.850432],[5.337281,43.840586],[5.307616,43.823253],[5.3159,43.822892],[5.319695,43.817452],[5.32956,43.815161],[5.325947,43.813249],[5.343271,43.810768],[5.341443,43.798293],[5.34957,43.776319],[5.364397,43.763399]],"type":"LineString"}},{"type":"Feature","properties":{"name":"03 Sisteron - Luberon","day":3,"variant":"direct","ferry":false,"optional":false,"anchorCount":8,"distanceMeters":104504.7,"durationSeconds":4588.5,"source":"osrm-driving-direct"},"geometry":{"coordinates":[[5.945487,44.198375],[5.948187,44.173271],[5.95415,44.174613],[5.964215,44.149052],[5.980826,44.131447],[5.982084,44.119769],[5.994243,44.104008],[5.992767,44.094707],[5.978622,44.072897],[5.963376,44.061711],[5.96897,44.043386],[5.921248,43.999602],[5.911617,43.98384],[5.891685,43.941346],[5.895765,43.925711],[5.872834,43.87227],[5.840188,43.828311],[5.819869,43.812886],[5.800131,43.776259],[5.781777,43.765735],[5.739466,43.726211],[5.734788,43.709886],[5.720025,43.692258],[5.709515,43.689071],[5.678231,43.69117],[5.660779,43.68627],[5.646547,43.672429],[5.61067,43.656088],[5.527109,43.656849],[5.499626,43.66108],[5.479985,43.694113],[5.393087,43.71981],[5.381564,43.730684],[5.366873,43.736897],[5.364397,43.763399]],"type":"LineString"}},{"type":"Feature","properties":{"name":"04 Camargue","day":4,"variant":"original","ferry":false,"optional":false,"anchorCount":6,"distanceMeters":197803.7,"durationSeconds":11303.5,"source":"osrm-driving-via-kml-anchors"},"geometry":{"coordinates":[[5.364397,43.763399],[5.355826,43.757791],[5.313421,43.746421],[5.309556,43.749374],[5.307005,43.745857],[5.233659,43.755119],[5.209635,43.751849],[5.181123,43.754327],[5.171851,43.73426],[5.159866,43.727376],[5.122027,43.739309],[5.092945,43.740189],[5.085087,43.744731],[5.098574,43.702848],[5.096683,43.668161],[5.125472,43.629378],[5.119529,43.626538],[5.077329,43.624673],[5.014778,43.639912],[4.840859,43.638325],[4.810591,43.629863],[4.778867,43.633892],[4.75508,43.629542],[4.653004,43.656123],[4.626277,43.669037],[4.623433,43.674813],[4.620788,43.673955],[4.60706,43.679034],[4.604232,43.670618],[4.588953,43.665473],[4.567936,43.644006],[4.523387,43.624371],[4.489249,43.618626],[4.480028,43.613464],[4.469882,43.594462],[4.458184,43.585892],[4.421191,43.573191],[4.418605,43.559615],[4.401242,43.547592],[4.398298,43.51632],[4.396926,43.518969],[4.377915,43.525259],[4.362843,43.545229],[4.353554,43.544446],[4.321975,43.55568],[4.307325,43.572738],[4.214553,43.587749],[4.190775,43.56683],[4.187308,43.565336],[4.202251,43.579601],[4.198041,43.579928],[4.189908,43.634023],[4.21187,43.666486],[4.210493,43.677212],[4.215899,43.68575],[4.194763,43.701152],[4.181049,43.725167],[4.208464,43.749174],[4.245239,43.74826],[4.255027,43.751251],[4.310793,43.800039],[4.349665,43.809847],[4.341477,43.815576],[4.352627,43.81903],[4.352257,43.823605],[4.367917,43.83307],[4.36157,43.836315]],"type":"LineString"}},{"type":"Feature","properties":{"name":"04 Camargue","day":4,"variant":"direct","ferry":false,"optional":false,"anchorCount":6,"distanceMeters":114183.1,"durationSeconds":5401.1,"source":"osrm-driving-direct"},"geometry":{"coordinates":[[5.364397,43.763399],[5.355826,43.757791],[5.313421,43.746421],[5.309556,43.749374],[5.307005,43.745857],[5.233659,43.755119],[5.209635,43.751849],[5.181123,43.754327],[5.171851,43.73426],[5.159866,43.727376],[5.122027,43.739309],[5.092945,43.740189],[5.085087,43.744731],[5.098574,43.702848],[5.096683,43.668161],[5.125354,43.629585],[5.121034,43.626767],[5.077329,43.624673],[5.014778,43.639912],[4.840859,43.638325],[4.810591,43.629863],[4.778867,43.633892],[4.755987,43.629471],[4.654444,43.655614],[4.614296,43.677923],[4.591984,43.683152],[4.550791,43.684725],[4.499219,43.728505],[4.469745,43.733338],[4.435271,43.748229],[4.415056,43.778998],[4.371978,43.807684],[4.359948,43.828366],[4.367953,43.833159],[4.36157,43.836315]],"type":"LineString"}},{"type":"Feature","properties":{"name":"05 Nimes - Carcassonne","day":5,"variant":"original","ferry":false,"optional":false,"anchorCount":6,"distanceMeters":253196.9,"durationSeconds":12090,"source":"osrm-driving-via-kml-anchors"},"geometry":{"coordinates":[[4.36157,43.836315],[4.369015,43.835142],[4.340454,43.815781],[4.34384,43.810622],[4.310141,43.799796],[4.253621,43.750603],[4.208425,43.749309],[4.187777,43.729032],[4.147392,43.722197],[4.117984,43.702093],[4.121586,43.703597],[4.013557,43.671349],[3.939801,43.602817],[3.875561,43.572251],[3.798557,43.548747],[3.712954,43.489042],[3.65768,43.478373],[3.580959,43.448877],[3.554126,43.425499],[3.48359,43.405019],[3.442683,43.378722],[3.414495,43.377881],[3.418921,43.372104],[3.410305,43.403797],[3.416884,43.443411],[3.432069,43.452651],[3.423241,43.459512],[3.426639,43.448128],[3.396718,43.441898],[3.379579,43.414313],[3.327226,43.395026],[3.272222,43.358506],[3.255943,43.363013],[3.215655,43.34415],[3.089784,43.322691],[3.043528,43.326295],[2.999208,43.240252],[3.011841,43.200264],[3.026141,43.1969],[3.036167,43.181224],[2.981671,43.151483],[2.941755,43.160529],[2.873677,43.151932],[2.803114,43.171148],[2.612235,43.170185],[2.588126,43.179013],[2.519819,43.182263],[2.494898,43.17757],[2.420341,43.195551],[2.416166,43.2059],[2.351278,43.213012]],"type":"LineString"}},{"type":"Feature","properties":{"name":"05 Nimes - Carcassonne","day":5,"variant":"direct","ferry":false,"optional":false,"anchorCount":6,"distanceMeters":198630.3,"durationSeconds":7697.1,"source":"osrm-driving-direct"},"geometry":{"coordinates":[[4.36157,43.836315],[4.369015,43.835142],[4.340454,43.815781],[4.34384,43.810622],[4.310141,43.799796],[4.253621,43.750603],[4.209082,43.749539],[4.185819,43.728091],[4.148838,43.722689],[4.109302,43.698879],[4.015218,43.672191],[3.939801,43.602817],[3.875561,43.572251],[3.798557,43.548747],[3.712954,43.489042],[3.656058,43.477832],[3.580099,43.448507],[3.55331,43.425131],[3.481301,43.404006],[3.443544,43.379028],[3.346629,43.360597],[3.247819,43.309289],[3.203332,43.298014],[3.141845,43.237658],[3.10086,43.226345],[3.068253,43.191314],[2.997156,43.164996],[2.982682,43.15172],[2.941755,43.160529],[2.873677,43.151932],[2.803114,43.171148],[2.612235,43.170185],[2.588126,43.179013],[2.519819,43.182263],[2.494898,43.17757],[2.420341,43.195551],[2.416166,43.2059],[2.351278,43.213012]],"type":"LineString"}},{"type":"Feature","properties":{"name":"06 Carcassonne - Castelldefels","day":6,"variant":"original","ferry":false,"optional":false,"anchorCount":5,"distanceMeters":371719.5,"durationSeconds":17001,"source":"osrm-driving-via-kml-anchors"},"geometry":{"coordinates":[[2.351278,43.213012],[2.494788,43.177416],[2.802582,43.171068],[2.873651,43.151826],[2.981325,43.150389],[2.935856,43.079085],[2.992509,42.884133],[2.91128,42.840399],[2.859237,42.665354],[2.876782,42.682034],[2.919852,42.664217],[2.954648,42.61788],[2.984147,42.613486],[3.00905,42.544697],[3.083062,42.52515],[2.961721,42.558012],[2.834232,42.516906],[2.818063,42.524545],[2.819679,42.500007],[2.863788,42.470498],[2.872973,42.405813],[2.941971,42.319812],[2.95808,42.265499],[2.970841,42.240602],[2.936839,42.226829],[2.884033,42.059545],[2.792883,41.994528],[2.82135,41.979345],[2.782308,41.958773],[2.734876,41.768029],[2.53706,41.711382],[2.240762,41.555899],[2.184398,41.48695],[2.193551,41.447584],[2.149113,41.436569],[2.114286,41.401501],[2.087603,41.339605],[1.979652,41.278496]],"type":"LineString"}},{"type":"Feature","properties":{"name":"06 Carcassonne - Castelldefels","day":6,"variant":"direct","ferry":false,"optional":false,"anchorCount":5,"distanceMeters":321419.8,"durationSeconds":12760,"source":"osrm-driving-direct"},"geometry":{"coordinates":[[2.351278,43.213012],[2.494788,43.177416],[2.802582,43.171068],[2.873651,43.151826],[2.981792,43.149828],[2.935856,43.079085],[2.992509,42.884133],[2.910629,42.839197],[2.862579,42.696385],[2.849324,42.547844],[2.817908,42.506116],[2.863424,42.47109],[2.890892,42.367405],[2.944238,42.315422],[2.94017,42.213597],[2.884033,42.059545],[2.779857,41.979821],[2.788312,41.938651],[2.736233,41.769245],[2.53706,41.711382],[2.240762,41.555899],[2.184398,41.48695],[2.193551,41.447584],[2.149113,41.436569],[2.114286,41.401501],[2.087603,41.339605],[1.979652,41.278496]],"type":"LineString"}},{"type":"Feature","properties":{"name":"08 Castelldefels - Falset","day":8,"variant":"original","ferry":false,"optional":false,"anchorCount":5,"distanceMeters":125847.4,"durationSeconds":6544.7,"source":"osrm-driving-via-kml-anchors"},"geometry":{"coordinates":[[1.979652,41.278496],[1.987041,41.278855],[1.963378,41.26822],[1.903366,41.258918],[1.889371,41.249774],[1.868177,41.250072],[1.857676,41.243986],[1.814885,41.246465],[1.815746,41.246467],[1.797431,41.252463],[1.787307,41.252259],[1.765918,41.24199],[1.741304,41.25619],[1.731926,41.257223],[1.685012,41.241885],[1.674098,41.218857],[1.657236,41.208556],[1.630374,41.214753],[1.560769,41.207515],[1.53225,41.193427],[1.508406,41.203429],[1.475328,41.18252],[1.434205,41.181417],[1.413236,41.16478],[1.368788,41.155888],[1.340363,41.137712],[1.303648,41.150552],[1.258187,41.143157],[1.233452,41.146506],[1.24448,41.118919],[1.233297,41.117182],[1.164038,41.138428],[1.1107,41.130346],[1.099236,41.13948],[1.098954,41.139933],[1.055186,41.16627],[0.992798,41.163755],[0.911955,41.175662],[0.89377,41.172835],[0.852087,41.145739],[0.835342,41.14608],[0.827673,41.139349],[0.820018,41.146]],"type":"LineString"}},{"type":"Feature","properties":{"name":"08 Castelldefels - Falset","day":8,"variant":"direct","ferry":false,"optional":false,"anchorCount":5,"distanceMeters":113986.8,"durationSeconds":5273,"source":"osrm-driving-direct"},"geometry":{"coordinates":[[1.979652,41.278496],[1.987041,41.278855],[1.963378,41.26822],[1.9039,41.259066],[1.889371,41.249774],[1.868177,41.250072],[1.857877,41.244001],[1.815964,41.245403],[1.79185,41.253035],[1.765449,41.242033],[1.741304,41.25619],[1.731502,41.257135],[1.685012,41.241885],[1.674098,41.218857],[1.657236,41.208556],[1.630374,41.214753],[1.560769,41.207515],[1.53225,41.193427],[1.508406,41.203429],[1.475328,41.18252],[1.434205,41.181417],[1.413236,41.16478],[1.368788,41.155888],[1.338711,41.13745],[1.300807,41.1506],[1.258755,41.143191],[1.202708,41.144379],[1.174969,41.136206],[1.161289,41.138437],[1.113242,41.129944],[1.055597,41.166178],[0.992798,41.163755],[0.911955,41.175662],[0.89377,41.172835],[0.852087,41.145739],[0.835342,41.14608],[0.827673,41.139349],[0.820018,41.146]],"type":"LineString"}},{"type":"Feature","properties":{"name":"09 Priorat-Runde","day":9,"variant":"original","ferry":false,"optional":false,"anchorCount":7,"distanceMeters":62169.3,"durationSeconds":5661.2,"source":"osrm-driving-via-kml-anchors"},"geometry":{"coordinates":[[0.820018,41.146],[0.819484,41.146813],[0.820565,41.14685],[0.817729,41.150675],[0.817948,41.153313],[0.814643,41.156845],[0.814463,41.158917],[0.815331,41.161934],[0.820122,41.166555],[0.817066,41.16619],[0.810954,41.168525],[0.806994,41.167581],[0.806568,41.169155],[0.7986,41.171287],[0.798049,41.173496],[0.796385,41.173839],[0.796493,41.175942],[0.791889,41.175595],[0.791402,41.179112],[0.792515,41.180309],[0.788803,41.179641],[0.786807,41.180528],[0.785288,41.18321],[0.787441,41.184937],[0.786026,41.185383],[0.784268,41.189492],[0.774823,41.192047],[0.774715,41.193317],[0.781798,41.199324],[0.781183,41.203673],[0.77887,41.205557],[0.775244,41.205698],[0.775769,41.209368],[0.772721,41.208525],[0.772513,41.211595],[0.770702,41.21185],[0.767642,41.215744],[0.765709,41.215953],[0.763412,41.220618],[0.762985,41.221591],[0.767793,41.222769],[0.772687,41.220435],[0.775336,41.22123],[0.780511,41.229204],[0.781301,41.235177],[0.784933,41.236648],[0.784759,41.237771],[0.790754,41.242737],[0.792297,41.24348],[0.794716,41.242878],[0.800304,41.245876],[0.804429,41.244273],[0.810152,41.244976],[0.811951,41.247273],[0.810684,41.250019],[0.812325,41.25222],[0.811261,41.254889],[0.808932,41.257836],[0.810625,41.259256],[0.809078,41.257179],[0.812331,41.252273],[0.810688,41.250084],[0.811951,41.247273],[0.810264,41.244868],[0.812084,41.242516],[0.811519,41.241204],[0.813975,41.238801],[0.815963,41.238612],[0.817872,41.239981],[0.817424,41.242874],[0.820745,41.24187],[0.823893,41.242849],[0.828628,41.241023],[0.82819,41.238854],[0.829951,41.236795],[0.834912,41.236579],[0.837909,41.233586],[0.840746,41.235967],[0.841648,41.235013],[0.845152,41.234691],[0.847251,41.237122],[0.852822,41.239062],[0.853076,41.236766],[0.855265,41.236077],[0.862963,41.238271],[0.866297,41.238007],[0.866682,41.235494],[0.868677,41.234957],[0.873545,41.235542],[0.878915,41.234249],[0.886675,41.23779],[0.894722,41.235356],[0.898583,41.238906],[0.898235,41.241461],[0.900668,41.246008],[0.900076,41.255777],[0.904946,41.2601],[0.90361,41.262517],[0.905634,41.2652],[0.90361,41.262517],[0.904946,41.2601],[0.900076,41.255777],[0.900668,41.246008],[0.898235,41.241461],[0.898537,41.238819],[0.894123,41.234932],[0.893356,41.232193],[0.890062,41.232782],[0.888133,41.234519],[0.883637,41.23104],[0.880435,41.230735],[0.875774,41.225733],[0.875079,41.223243],[0.872128,41.221954],[0.872419,41.215701],[0.874145,41.213589],[0.870686,41.213423],[0.86667,41.208171],[0.86127,41.204885],[0.861544,41.201831],[0.858102,41.201158],[0.859843,41.197956],[0.856767,41.198668],[0.858014,41.19737],[0.856679,41.192946],[0.857886,41.189413],[0.856529,41.188022],[0.855862,41.186156],[0.854195,41.185595],[0.85581,41.183367],[0.853468,41.180844],[0.854142,41.179199],[0.852524,41.179791],[0.852138,41.177972],[0.853417,41.176887],[0.852264,41.17654],[0.853511,41.174907],[0.852683,41.174692],[0.855992,41.166628],[0.853573,41.168204],[0.85251,41.167327],[0.851371,41.169551],[0.847764,41.168607],[0.847493,41.171001],[0.844543,41.168431],[0.843946,41.162596],[0.840629,41.159713],[0.842363,41.159235],[0.840169,41.158131],[0.840594,41.157404],[0.832547,41.155069],[0.822946,41.154249],[0.817853,41.151799],[0.81939,41.147469],[0.821258,41.146353],[0.820727,41.144847],[0.820018,41.146]],"type":"LineString"}},{"type":"Feature","properties":{"name":"09 Priorat-Runde","day":9,"variant":"direct","ferry":false,"optional":false,"anchorCount":7,"distanceMeters":0,"durationSeconds":0,"source":"osrm-driving-direct"},"geometry":{"coordinates":[[0.820018,41.146],[0.820018,41.146]],"type":"LineString"}},{"type":"Feature","properties":{"name":"10 Falset - Albarracin","day":10,"variant":"original","ferry":false,"optional":false,"anchorCount":5,"distanceMeters":283425.4,"durationSeconds":14847,"source":"osrm-driving-via-kml-anchors"},"geometry":{"coordinates":[[0.820018,41.146],[0.758289,41.116694],[0.713717,41.118418],[0.663436,41.104322],[0.641039,41.080525],[0.577206,41.08547],[0.532478,41.110306],[0.510465,41.086769],[0.450694,41.068687],[0.438682,41.053244],[0.396686,41.055416],[0.34858,41.043868],[0.288528,41.053881],[0.247958,41.04534],[0.220236,41.022836],[0.170528,41.002574],[0.11834,41.000264],[0.105502,40.985094],[-0.0119,40.981711],[-0.026248,40.97178],[-0.126124,41.035811],[-0.133228,41.050022],[-0.165591,41.05151],[-0.195547,41.028858],[-0.219191,40.999314],[-0.235666,40.940697],[-0.32035,40.9393],[-0.357711,40.906007],[-0.394869,40.901365],[-0.420905,40.881672],[-0.459137,40.877986],[-0.477596,40.887612],[-0.498707,40.867572],[-0.522735,40.864344],[-0.554134,40.840463],[-0.582594,40.836917],[-0.591346,40.82299],[-0.633601,40.802715],[-0.698728,40.804295],[-0.713546,40.785106],[-0.741113,40.775662],[-0.76296,40.776374],[-0.808128,40.796469],[-0.825316,40.778268],[-0.859325,40.779081],[-0.839993,40.754399],[-0.849439,40.744841],[-0.847969,40.722801],[-0.900756,40.716397],[-0.990647,40.653514],[-1.010498,40.571235],[-1.032616,40.552681],[-1.020119,40.517636],[-1.024872,40.490877],[-1.075552,40.428748],[-1.106504,40.345615],[-1.107465,40.339406],[-1.123323,40.346855],[-1.181992,40.388431],[-1.30218,40.418824],[-1.356232,40.41035],[-1.37287,40.426074],[-1.428311,40.433415],[-1.443752,40.406882]],"type":"LineString"}},{"type":"Feature","properties":{"name":"10 Falset - Albarracin","day":10,"variant":"direct","ferry":false,"optional":false,"anchorCount":5,"distanceMeters":276908.3,"durationSeconds":14130.7,"source":"osrm-driving-direct"},"geometry":{"coordinates":[[0.820018,41.146],[0.758289,41.116694],[0.713717,41.118418],[0.663436,41.104322],[0.641039,41.080525],[0.577206,41.08547],[0.532683,41.110354],[0.510465,41.086769],[0.45112,41.068885],[0.438256,41.05404],[0.396686,41.055416],[0.348859,41.043868],[0.288528,41.053881],[0.247958,41.04534],[0.220236,41.022836],[0.171532,41.002893],[0.118964,41.000439],[0.105502,40.985094],[0.057743,40.97924],[-0.0119,40.981711],[-0.033614,40.973282],[-0.112448,41.030852],[-0.165506,41.051538],[-0.218923,40.999742],[-0.235666,40.940697],[-0.32035,40.9393],[-0.357711,40.906007],[-0.394869,40.901365],[-0.420905,40.881672],[-0.459137,40.877986],[-0.477596,40.887612],[-0.498707,40.867572],[-0.522735,40.864344],[-0.554134,40.840463],[-0.582594,40.836917],[-0.591346,40.82299],[-0.633601,40.802715],[-0.698728,40.804295],[-0.713546,40.785106],[-0.741113,40.775662],[-0.76296,40.776374],[-0.808128,40.796469],[-0.825316,40.778268],[-0.859325,40.779081],[-0.839993,40.754399],[-0.849439,40.744841],[-0.847969,40.722801],[-0.900756,40.716397],[-0.990647,40.653514],[-1.010498,40.571235],[-1.032616,40.552681],[-1.020119,40.517636],[-1.02493,40.490734],[-1.075495,40.428846],[-1.088326,40.381257],[-1.110391,40.376045],[-1.134167,40.356475],[-1.181992,40.388431],[-1.30218,40.418824],[-1.356232,40.41035],[-1.37287,40.426074],[-1.428311,40.433415],[-1.443752,40.406882]],"type":"LineString"}},{"type":"Feature","properties":{"name":"11 Albarracin-Runde","day":11,"variant":"original","ferry":false,"optional":false,"anchorCount":6,"distanceMeters":77356.7,"durationSeconds":6122.7,"source":"osrm-driving-via-kml-anchors"},"geometry":{"coordinates":[[-1.443752,40.406882],[-1.442722,40.407706],[-1.446503,40.408399],[-1.450018,40.404506],[-1.452222,40.404314],[-1.44986,40.402303],[-1.450942,40.39976],[-1.452711,40.40083],[-1.454332,40.399963],[-1.457817,40.400976],[-1.469786,40.394664],[-1.476458,40.394157],[-1.478305,40.397843],[-1.480057,40.398463],[-1.485075,40.397662],[-1.486989,40.396215],[-1.493365,40.395477],[-1.496781,40.397001],[-1.497377,40.400938],[-1.495637,40.402715],[-1.497786,40.406729],[-1.497714,40.410449],[-1.500459,40.411459],[-1.50716,40.411296],[-1.509961,40.415714],[-1.520264,40.42366],[-1.528097,40.426166],[-1.537479,40.426678],[-1.549241,40.429227],[-1.567318,40.430514],[-1.569266,40.432511],[-1.572303,40.431115],[-1.576678,40.433452],[-1.58042,40.433202],[-1.580057,40.4312],[-1.590224,40.436389],[-1.588828,40.440778],[-1.591897,40.443286],[-1.59024,40.446611],[-1.591475,40.453151],[-1.592597,40.456453],[-1.595233,40.458615],[-1.588575,40.457196],[-1.586575,40.460431],[-1.58287,40.460476],[-1.580074,40.461727],[-1.577875,40.468945],[-1.578559,40.483077],[-1.575945,40.486988],[-1.58149,40.494771],[-1.584054,40.495273],[-1.586761,40.494116],[-1.59018,40.498786],[-1.587146,40.50121],[-1.58652,40.503511],[-1.588953,40.506621],[-1.584718,40.508962],[-1.584265,40.511755],[-1.579305,40.519677],[-1.603407,40.538506],[-1.626673,40.549654],[-1.633421,40.551813],[-1.647088,40.551004],[-1.649528,40.549443],[-1.655463,40.549634],[-1.654079,40.550562],[-1.649611,40.549749],[-1.647027,40.551115],[-1.633101,40.551768],[-1.626326,40.549508],[-1.603407,40.538506],[-1.579541,40.519686],[-1.58568,40.507936],[-1.588856,40.509592],[-1.588699,40.510846],[-1.590656,40.50815],[-1.58652,40.503511],[-1.587146,40.50121],[-1.590147,40.498889],[-1.589527,40.497166],[-1.586638,40.494074],[-1.584054,40.495273],[-1.58149,40.494771],[-1.57597,40.486639],[-1.578559,40.483077],[-1.57863,40.474364],[-1.591321,40.473411],[-1.594034,40.468386],[-1.596246,40.46709],[-1.597266,40.462579],[-1.591475,40.453151],[-1.59024,40.446611],[-1.591897,40.443286],[-1.588828,40.440778],[-1.590445,40.436575],[-1.586629,40.435305],[-1.581317,40.431473],[-1.579525,40.431354],[-1.580179,40.433329],[-1.576865,40.433468],[-1.572303,40.431115],[-1.569149,40.43249],[-1.567564,40.430531],[-1.549241,40.429227],[-1.537479,40.426678],[-1.528097,40.426166],[-1.519871,40.42348],[-1.509961,40.415714],[-1.50716,40.411296],[-1.500459,40.411459],[-1.497714,40.410449],[-1.497786,40.406729],[-1.495637,40.402715],[-1.497377,40.400938],[-1.496781,40.397001],[-1.493365,40.395477],[-1.486989,40.396215],[-1.485075,40.397662],[-1.480057,40.398463],[-1.478305,40.397843],[-1.476458,40.394157],[-1.469786,40.394664],[-1.457817,40.400976],[-1.454332,40.399963],[-1.452711,40.40083],[-1.450942,40.39976],[-1.44986,40.402303],[-1.452222,40.404314],[-1.450018,40.404506],[-1.446503,40.408399],[-1.442722,40.407706],[-1.443752,40.406882]],"type":"LineString"}},{"type":"Feature","properties":{"name":"11 Albarracin-Runde","day":11,"variant":"direct","ferry":false,"optional":false,"anchorCount":6,"distanceMeters":0,"durationSeconds":0,"source":"osrm-driving-direct"},"geometry":{"coordinates":[[-1.4439,40.406977],[-1.4439,40.406977]],"type":"LineString"}},{"type":"Feature","properties":{"name":"12 Albarracin - La Patacona","day":12,"variant":"original","ferry":false,"optional":false,"anchorCount":4,"distanceMeters":182251.6,"durationSeconds":8628.9,"source":"osrm-driving-via-kml-anchors"},"geometry":{"coordinates":[[-1.443752,40.406882],[-1.428311,40.433415],[-1.37287,40.426074],[-1.356232,40.41035],[-1.30218,40.418824],[-1.181959,40.388075],[-1.11486,40.341696],[-1.106504,40.345615],[-1.106958,40.362889],[-1.097642,40.366508],[-1.084763,40.357886],[-1.055698,40.359736],[-1.023045,40.340302],[-0.995554,40.288447],[-0.927622,40.201837],[-0.735326,40.117803],[-0.715217,40.042969],[-0.691342,40.015852],[-0.686869,39.990041],[-0.665975,39.990429],[-0.633525,39.974591],[-0.619359,39.944406],[-0.558654,39.916293],[-0.542433,39.884988],[-0.501706,39.849243],[-0.488389,39.851836],[-0.468869,39.831063],[-0.402071,39.794209],[-0.389761,39.76168],[-0.368913,39.743426],[-0.365166,39.71502],[-0.318628,39.676104],[-0.279514,39.662241],[-0.300772,39.627873],[-0.29869,39.547265],[-0.32765,39.496151],[-0.351132,39.482112],[-0.352511,39.495278]],"type":"LineString"}},{"type":"Feature","properties":{"name":"12 Albarracin - La Patacona","day":12,"variant":"direct","ferry":false,"optional":false,"anchorCount":4,"distanceMeters":179136.3,"durationSeconds":8025.1,"source":"osrm-driving-direct"},"geometry":{"coordinates":[[-1.443752,40.406882],[-1.434582,40.431423],[-1.397895,40.432389],[-1.372323,40.425824],[-1.356437,40.410384],[-1.302471,40.418868],[-1.181959,40.388075],[-1.132966,40.353232],[-1.1105,40.374896],[-1.086494,40.358273],[-1.055011,40.359492],[-1.014402,40.333016],[-0.995554,40.288447],[-0.927622,40.201837],[-0.735326,40.117803],[-0.715217,40.042969],[-0.691342,40.015852],[-0.686869,39.990041],[-0.665975,39.990429],[-0.634047,39.974952],[-0.62086,39.945821],[-0.557951,39.915747],[-0.543075,39.885649],[-0.521479,39.874491],[-0.487468,39.83453],[-0.402568,39.794693],[-0.389761,39.76168],[-0.368913,39.743426],[-0.365947,39.715737],[-0.318628,39.676104],[-0.2796,39.662421],[-0.300772,39.627873],[-0.29869,39.547265],[-0.32765,39.496151],[-0.351132,39.482112],[-0.352511,39.495278]],"type":"LineString"}},{"type":"Feature","properties":{"name":"14 La Patacona - Altea","day":14,"variant":"original","ferry":false,"optional":false,"anchorCount":6,"distanceMeters":191309.4,"durationSeconds":10936.2,"source":"osrm-driving-via-kml-anchors"},"geometry":{"coordinates":[[-0.352511,39.495278],[-0.345445,39.47975],[-0.354455,39.458032],[-0.371191,39.450249],[-0.371556,39.428386],[-0.400849,39.379543],[-0.42607,39.37148],[-0.459695,39.261839],[-0.477017,39.248264],[-0.498024,39.210806],[-0.495451,39.193392],[-0.530105,39.151649],[-0.529675,39.101158],[-0.557894,39.01859],[-0.534954,39.01282],[-0.517998,38.990201],[-0.566512,38.968104],[-0.558851,38.94761],[-0.575569,38.928144],[-0.578893,38.890684],[-0.565206,38.833287],[-0.608693,38.813255],[-0.612074,38.798529],[-0.595976,38.796257],[-0.589322,38.784102],[-0.609781,38.765891],[-0.584993,38.77626],[-0.522361,38.78076],[-0.501941,38.793468],[-0.462008,38.789652],[-0.448342,38.782382],[-0.43183,38.737909],[-0.478332,38.702866],[-0.473798,38.698582],[-0.45673,38.684236],[-0.428146,38.701884],[-0.326223,38.687112],[-0.292011,38.70082],[-0.284004,38.68726],[-0.263135,38.681583],[-0.243266,38.687811],[-0.230601,38.674977],[-0.197408,38.675484],[-0.205097,38.671746],[-0.198571,38.660315],[-0.124669,38.613826],[-0.110324,38.617521],[-0.089725,38.60704],[-0.045006,38.602915]],"type":"LineString"}},{"type":"Feature","properties":{"name":"14 La Patacona - Altea","day":14,"variant":"direct","ferry":false,"optional":false,"anchorCount":6,"distanceMeters":135923.7,"durationSeconds":5986.4,"source":"osrm-driving-direct"},"geometry":{"coordinates":[[-0.352511,39.495278],[-0.345445,39.47975],[-0.354792,39.457532],[-0.371191,39.450249],[-0.379592,39.41178],[-0.401345,39.379048],[-0.426322,39.37074],[-0.429326,39.346722],[-0.40172,39.30179],[-0.413019,39.195901],[-0.323284,39.14847],[-0.246169,39.08447],[-0.219511,39.0257],[-0.225301,38.997766],[-0.199486,38.96271],[-0.198569,38.945301],[-0.164049,38.924663],[-0.141248,38.924262],[-0.120351,38.90271],[-0.077989,38.894528],[-0.016237,38.863916],[0.010392,38.821443],[0.070397,38.780819],[0.052161,38.757817],[0.051523,38.727166],[0.022369,38.703586],[0.003938,38.671615],[0.00382,38.637631],[-0.050164,38.621981],[-0.028026,38.621639],[-0.045006,38.602915]],"type":"LineString"}},{"type":"Feature","properties":{"name":"15 Altea - Monachil","day":15,"variant":"original","ferry":false,"optional":false,"anchorCount":2,"distanceMeters":423760.1,"durationSeconds":17529.8,"source":"osrm-driving-via-kml-anchors"},"geometry":{"coordinates":[[-0.045006,38.602915],[-0.094822,38.56383],[-0.250171,38.526343],[-0.409042,38.434504],[-0.460667,38.381025],[-0.521194,38.377587],[-0.570099,38.309342],[-0.740362,38.281098],[-0.871227,38.167351],[-1.071914,38.091032],[-1.171092,38.004416],[-1.232173,37.998983],[-1.273978,37.935271],[-1.397727,37.860743],[-1.465584,37.756917],[-1.666432,37.692719],[-1.707018,37.69395],[-1.71933,37.653772],[-1.810126,37.568405],[-1.905187,37.610753],[-2.085067,37.64694],[-2.236484,37.596909],[-2.543345,37.585504],[-2.659895,37.527155],[-2.739172,37.505429],[-2.800079,37.514339],[-2.927746,37.402562],[-3.040376,37.392045],[-3.105253,37.32365],[-3.398678,37.315474],[-3.451687,37.295078],[-3.505909,37.227611],[-3.653063,37.241853],[-3.624861,37.21724],[-3.633462,37.189077],[-3.610325,37.14175],[-3.539807,37.132189]],"type":"LineString"}},{"type":"Feature","properties":{"name":"15 Altea - Monachil","day":15,"variant":"direct","ferry":false,"optional":false,"anchorCount":2,"distanceMeters":423760.1,"durationSeconds":17529.8,"source":"osrm-driving-direct"},"geometry":{"coordinates":[[-0.045006,38.602915],[-0.094822,38.56383],[-0.250171,38.526343],[-0.409042,38.434504],[-0.460667,38.381025],[-0.521194,38.377587],[-0.570099,38.309342],[-0.740362,38.281098],[-0.871227,38.167351],[-1.071914,38.091032],[-1.171092,38.004416],[-1.232173,37.998983],[-1.273978,37.935271],[-1.397727,37.860743],[-1.465584,37.756917],[-1.666432,37.692719],[-1.707018,37.69395],[-1.71933,37.653772],[-1.810126,37.568405],[-1.905187,37.610753],[-2.085067,37.64694],[-2.236484,37.596909],[-2.543345,37.585504],[-2.659895,37.527155],[-2.739172,37.505429],[-2.800079,37.514339],[-2.927746,37.402562],[-3.040376,37.392045],[-3.105253,37.32365],[-3.398678,37.315474],[-3.451687,37.295078],[-3.505909,37.227611],[-3.653063,37.241853],[-3.624861,37.21724],[-3.633462,37.189077],[-3.610325,37.14175],[-3.539807,37.132189]],"type":"LineString"}},{"type":"Feature","properties":{"name":"17 Alpujarras-Runde ab Monachil","day":17,"variant":"original","ferry":false,"optional":false,"anchorCount":5,"distanceMeters":143864,"durationSeconds":9995,"source":"osrm-driving-via-kml-anchors"},"geometry":{"coordinates":[[-3.539807,37.132189],[-3.56554,37.136798],[-3.576658,37.142244],[-3.579048,37.145589],[-3.588642,37.147189],[-3.592229,37.150448],[-3.606157,37.142075],[-3.609811,37.142661],[-3.608868,37.134864],[-3.613121,37.126136],[-3.647041,37.095104],[-3.648607,37.075897],[-3.65519,37.059575],[-3.655152,37.052104],[-3.646567,37.037493],[-3.639694,37.008325],[-3.627067,36.992997],[-3.592483,36.987067],[-3.563347,36.977267],[-3.555872,36.965691],[-3.546667,36.959287],[-3.544579,36.948781],[-3.548252,36.936773],[-3.536413,36.931757],[-3.533969,36.923779],[-3.515072,36.917848],[-3.51393,36.913466],[-3.510978,36.916944],[-3.499901,36.913781],[-3.492947,36.921127],[-3.485825,36.917752],[-3.481604,36.91851],[-3.47091,36.921157],[-3.470592,36.917548],[-3.476466,36.912244],[-3.466044,36.906576],[-3.458243,36.908667],[-3.454018,36.905876],[-3.446838,36.906202],[-3.443989,36.902277],[-3.435309,36.90507],[-3.429238,36.901046],[-3.42349,36.902799],[-3.428578,36.901096],[-3.427742,36.906732],[-3.43107,36.908974],[-3.426747,36.912827],[-3.433025,36.911617],[-3.423255,36.919496],[-3.419669,36.919646],[-3.420288,36.921974],[-3.416016,36.922557],[-3.415374,36.926571],[-3.409364,36.924211],[-3.404025,36.925848],[-3.397846,36.923218],[-3.397523,36.924602],[-3.389647,36.923242],[-3.388322,36.921337],[-3.385445,36.923734],[-3.379597,36.922218],[-3.364303,36.942383],[-3.3636,36.937998],[-3.361894,36.941907],[-3.361615,36.938361],[-3.35979,36.940559],[-3.361615,36.938361],[-3.361894,36.941907],[-3.3636,36.937998],[-3.364303,36.942383],[-3.379597,36.922218],[-3.385445,36.923734],[-3.388322,36.921337],[-3.389647,36.923242],[-3.397523,36.924602],[-3.397671,36.923187],[-3.404025,36.925848],[-3.409364,36.924211],[-3.415374,36.926571],[-3.416016,36.922557],[-3.420288,36.921974],[-3.419669,36.919646],[-3.423255,36.919496],[-3.433025,36.911617],[-3.426699,36.912748],[-3.431063,36.909008],[-3.427742,36.906732],[-3.42897,36.901043],[-3.43272,36.901943],[-3.433054,36.904987],[-3.443709,36.902256],[-3.446838,36.906202],[-3.454018,36.905876],[-3.45687,36.908476],[-3.466235,36.906649],[-3.476466,36.912244],[-3.470592,36.917548],[-3.471198,36.921311],[-3.48542,36.916397],[-3.492947,36.921127],[-3.499847,36.913801],[-3.510978,36.916944],[-3.513827,36.913424],[-3.5163,36.915844],[-3.515072,36.917848],[-3.518458,36.917585],[-3.531171,36.923846],[-3.536605,36.932158],[-3.547939,36.936671],[-3.548772,36.940131],[-3.544354,36.94916],[-3.546429,36.959777],[-3.555487,36.965559],[-3.563277,36.977467],[-3.591608,36.987048],[-3.623006,36.991438],[-3.627929,36.994087],[-3.631051,37.000517],[-3.639414,37.008278],[-3.646342,37.037553],[-3.655322,37.053904],[-3.648358,37.076265],[-3.646302,37.096142],[-3.613529,37.125448],[-3.607738,37.141243],[-3.592482,37.149614],[-3.578241,37.145075],[-3.576658,37.142244],[-3.56554,37.136798],[-3.559074,37.137177],[-3.539807,37.132189]],"type":"LineString"}},{"type":"Feature","properties":{"name":"17 Alpujarras-Runde ab Monachil","day":17,"variant":"direct","ferry":false,"optional":false,"anchorCount":5,"distanceMeters":0,"durationSeconds":0,"source":"osrm-driving-direct"},"geometry":{"coordinates":[[-3.539807,37.132189],[-3.539807,37.132189]],"type":"LineString"}},{"type":"Feature","properties":{"name":"18 Monachil - Ronda Hauptlinie","day":18,"variant":"original","ferry":false,"optional":false,"anchorCount":4,"distanceMeters":202064.7,"durationSeconds":11302.3,"source":"osrm-driving-via-kml-anchors"},"geometry":{"coordinates":[[-3.539807,37.132189],[-3.592229,37.150448],[-3.607945,37.142597],[-3.611399,37.17275],[-3.637075,37.198075],[-3.734336,37.190113],[-3.815417,37.195274],[-3.831134,37.188988],[-3.86496,37.19562],[-3.904028,37.178594],[-4.017839,37.195262],[-4.037838,37.182571],[-4.078297,37.180708],[-4.087849,37.167171],[-4.106286,37.162249],[-4.178514,37.166667],[-4.291678,37.128324],[-4.358289,37.13012],[-4.422672,37.088492],[-4.531901,37.07165],[-4.511249,37.044894],[-4.561064,37.019735],[-4.575401,37.026803],[-4.601768,37.071156],[-4.65209,37.051065],[-4.702899,37.062932],[-4.863247,37.048284],[-4.834024,36.977862],[-4.857127,36.961259],[-4.868901,36.935579],[-4.90523,36.949394],[-4.923951,36.932158],[-4.951436,36.928334],[-4.960698,36.934454],[-4.981357,36.912946],[-4.997374,36.909361],[-5.000652,36.897092],[-5.041697,36.882883],[-5.062256,36.858872],[-5.055552,36.848342],[-5.068013,36.833103],[-5.095046,36.824104],[-5.10572,36.793523],[-5.161098,36.745988]],"type":"LineString"}},{"type":"Feature","properties":{"name":"18 Monachil - Ronda Hauptlinie","day":18,"variant":"direct","ferry":false,"optional":false,"anchorCount":4,"distanceMeters":189577.4,"durationSeconds":10080.6,"source":"osrm-driving-direct"},"geometry":{"coordinates":[[-3.539807,37.132189],[-3.592229,37.150448],[-3.607945,37.142597],[-3.611399,37.17275],[-3.637075,37.198075],[-3.734336,37.190113],[-3.815417,37.195274],[-3.831134,37.188988],[-3.86496,37.19562],[-3.904028,37.178594],[-4.017073,37.195321],[-4.037838,37.182571],[-4.078297,37.180708],[-4.087849,37.167171],[-4.106286,37.162249],[-4.178514,37.166667],[-4.291678,37.128324],[-4.358289,37.13012],[-4.386592,37.118855],[-4.412815,37.092151],[-4.47665,37.08508],[-4.508629,37.071322],[-4.596203,37.071731],[-4.652566,37.051027],[-4.702321,37.062938],[-4.845631,37.049434],[-4.85642,37.031133],[-4.834127,36.977004],[-4.857127,36.961259],[-4.868901,36.935579],[-4.90523,36.949394],[-4.923951,36.932158],[-4.951436,36.928334],[-4.960698,36.934454],[-4.981357,36.912946],[-4.997374,36.909361],[-5.000652,36.897092],[-5.041697,36.882883],[-5.062256,36.858872],[-5.055552,36.848342],[-5.068013,36.833103],[-5.095046,36.824104],[-5.10572,36.793523],[-5.161098,36.745988]],"type":"LineString"}},{"type":"Feature","properties":{"name":"19 Grazalema-Runde","day":19,"variant":"original","ferry":false,"optional":false,"anchorCount":7,"distanceMeters":150326.1,"durationSeconds":12257.3,"source":"osrm-driving-via-kml-anchors"},"geometry":{"coordinates":[[-5.161098,36.745988],[-5.168783,36.748627],[-5.167695,36.755447],[-5.177512,36.754766],[-5.182078,36.751118],[-5.17714,36.762486],[-5.171199,36.765651],[-5.17226,36.767676],[-5.182352,36.763697],[-5.197586,36.764649],[-5.206658,36.761185],[-5.225833,36.766543],[-5.226848,36.772994],[-5.23826,36.782975],[-5.243417,36.783827],[-5.252705,36.781231],[-5.271713,36.789768],[-5.274532,36.787932],[-5.275374,36.789459],[-5.276356,36.786284],[-5.273257,36.775173],[-5.278357,36.772819],[-5.290439,36.772929],[-5.321436,36.763909],[-5.326086,36.765839],[-5.330816,36.760642],[-5.337947,36.758062],[-5.342593,36.759477],[-5.354959,36.749311],[-5.362827,36.759605],[-5.358067,36.763838],[-5.367401,36.761548],[-5.365561,36.758087],[-5.363021,36.758175],[-5.370098,36.757528],[-5.378186,36.761868],[-5.382223,36.760757],[-5.376534,36.787406],[-5.385356,36.789764],[-5.379975,36.789202],[-5.381576,36.791572],[-5.377868,36.794606],[-5.38259,36.793685],[-5.381384,36.801488],[-5.391633,36.800094],[-5.389804,36.80422],[-5.39215,36.817229],[-5.388101,36.828213],[-5.388209,36.840943],[-5.397214,36.846385],[-5.418308,36.846639],[-5.423099,36.842738],[-5.431266,36.841041],[-5.435566,36.834371],[-5.431266,36.841041],[-5.423099,36.842738],[-5.418308,36.846639],[-5.397214,36.846385],[-5.392973,36.839586],[-5.391212,36.840315],[-5.390432,36.842323],[-5.393023,36.842391],[-5.390936,36.843541],[-5.397214,36.846385],[-5.418308,36.846639],[-5.426576,36.842236],[-5.453204,36.848097],[-5.470843,36.846123],[-5.476749,36.840585],[-5.492926,36.836296],[-5.499383,36.822505],[-5.50874,36.818402],[-5.511514,36.814351],[-5.533902,36.800367],[-5.539099,36.79024],[-5.523684,36.789146],[-5.514378,36.772134],[-5.513993,36.756696],[-5.50657,36.758602],[-5.514294,36.756889],[-5.507905,36.748413],[-5.509497,36.734471],[-5.50677,36.727596],[-5.482222,36.721475],[-5.478134,36.705938],[-5.460163,36.701341],[-5.454859,36.694761],[-5.452656,36.679193],[-5.451336,36.677218],[-5.450812,36.678826],[-5.445956,36.677947],[-5.444324,36.676821],[-5.448467,36.679743],[-5.451336,36.677218],[-5.452681,36.679316],[-5.45029,36.682886],[-5.452602,36.687421],[-5.446602,36.691667],[-5.447967,36.69592],[-5.442695,36.694353],[-5.441578,36.698154],[-5.435954,36.696878],[-5.430238,36.701915],[-5.424843,36.703104],[-5.421795,36.698263],[-5.425941,36.690742],[-5.424794,36.683604],[-5.379608,36.697115],[-5.370366,36.707046],[-5.367251,36.714128],[-5.352384,36.727089],[-5.352317,36.73502],[-5.340288,36.743115],[-5.349682,36.752721],[-5.343165,36.759067],[-5.337947,36.758062],[-5.330816,36.760642],[-5.326086,36.765839],[-5.321436,36.763909],[-5.290779,36.772855],[-5.273911,36.774369],[-5.275292,36.789492],[-5.26178,36.786527],[-5.252449,36.78118],[-5.243417,36.783827],[-5.23826,36.782975],[-5.226848,36.772994],[-5.225833,36.766543],[-5.206658,36.761185],[-5.197559,36.764585],[-5.182352,36.763697],[-5.17226,36.767676],[-5.171199,36.765651],[-5.17714,36.762486],[-5.182078,36.751118],[-5.177512,36.754766],[-5.167695,36.755447],[-5.170186,36.751566],[-5.16846,36.747331],[-5.165318,36.746209],[-5.161746,36.74802],[-5.158707,36.745368],[-5.160451,36.74403],[-5.161098,36.745988]],"type":"LineString"}},{"type":"Feature","properties":{"name":"19 Grazalema-Runde","day":19,"variant":"direct","ferry":false,"optional":false,"anchorCount":7,"distanceMeters":0,"durationSeconds":0,"source":"osrm-driving-direct"},"geometry":{"coordinates":[[-5.161098,36.745988],[-5.161098,36.745988]],"type":"LineString"}},{"type":"Feature","properties":{"name":"21 Ronda - Ubeda","day":21,"variant":"original","ferry":false,"optional":false,"anchorCount":5,"distanceMeters":287853.9,"durationSeconds":15376.9,"source":"osrm-driving-via-kml-anchors"},"geometry":{"coordinates":[[-5.161098,36.745988],[-5.105965,36.793116],[-5.095046,36.824104],[-5.068013,36.833103],[-5.055552,36.848342],[-5.062256,36.858872],[-5.041936,36.882728],[-5.000652,36.897092],[-4.997374,36.909361],[-4.981357,36.912946],[-4.960698,36.934454],[-4.951436,36.928334],[-4.923951,36.932158],[-4.905124,36.949327],[-4.868901,36.935579],[-4.857127,36.961259],[-4.834027,36.977143],[-4.85642,37.031133],[-4.846177,37.048372],[-4.702899,37.062932],[-4.652731,37.051008],[-4.600887,37.067881],[-4.575896,37.027175],[-4.561064,37.019735],[-4.56711,37.110532],[-4.535431,37.204458],[-4.537165,37.232192],[-4.521888,37.26465],[-4.474017,37.298865],[-4.492367,37.363644],[-4.526718,37.394093],[-4.530558,37.408563],[-4.510151,37.407016],[-4.456119,37.453695],[-4.465711,37.475637],[-4.4438,37.51582],[-4.392943,37.5435],[-4.346603,37.546828],[-4.272313,37.576065],[-4.197646,37.561213],[-4.162678,37.579708],[-4.153779,37.575877],[-4.132069,37.587319],[-4.123957,37.62337],[-3.990941,37.70582],[-3.959226,37.750711],[-3.911753,37.763511],[-3.891018,37.782688],[-3.867285,37.779448],[-3.838671,37.788742],[-3.812855,37.778684],[-3.784974,37.77954],[-3.773164,37.813861],[-3.752622,37.821181],[-3.723282,37.801676],[-3.606321,37.812667],[-3.608136,37.859653],[-3.584763,37.892388],[-3.552908,37.920223],[-3.538048,37.947969],[-3.482824,37.982714],[-3.477754,37.998935],[-3.468373,37.993957],[-3.429886,38.013077],[-3.37109,38.010965]],"type":"LineString"}},{"type":"Feature","properties":{"name":"21 Ronda - Ubeda","day":21,"variant":"direct","ferry":false,"optional":false,"anchorCount":5,"distanceMeters":274448.6,"durationSeconds":13741.3,"source":"osrm-driving-direct"},"geometry":{"coordinates":[[-5.161098,36.745988],[-5.105965,36.793116],[-5.095046,36.824104],[-5.068013,36.833103],[-5.055552,36.848342],[-5.062256,36.858872],[-5.041936,36.882728],[-5.000652,36.897092],[-4.997374,36.909361],[-4.981357,36.912946],[-4.960698,36.934454],[-4.951436,36.928334],[-4.923951,36.932158],[-4.905124,36.949327],[-4.868901,36.935579],[-4.857127,36.961259],[-4.834027,36.977143],[-4.85642,37.031133],[-4.846383,37.048266],[-4.702899,37.062932],[-4.652731,37.051008],[-4.599624,37.070268],[-4.565148,37.069933],[-4.56711,37.110532],[-4.535431,37.204458],[-4.536861,37.233094],[-4.52155,37.265005],[-4.47408,37.298089],[-4.492367,37.363644],[-4.526718,37.394093],[-4.530558,37.408563],[-4.510151,37.407016],[-4.456119,37.453695],[-4.465711,37.475637],[-4.44167,37.51747],[-4.392943,37.5435],[-4.346603,37.546828],[-4.272102,37.576109],[-4.197646,37.561213],[-4.162678,37.579708],[-4.153779,37.575877],[-4.132069,37.587319],[-4.123482,37.623769],[-3.990941,37.70582],[-3.959836,37.75033],[-3.911753,37.763511],[-3.89179,37.782466],[-3.828902,37.787857],[-3.817991,37.802886],[-3.786729,37.810809],[-3.777016,37.804202],[-3.772341,37.814627],[-3.751588,37.821343],[-3.723282,37.801676],[-3.607252,37.812144],[-3.607266,37.861983],[-3.537531,37.948405],[-3.49358,37.982514],[-3.433093,38.000087],[-3.427477,38.012446],[-3.37109,38.010965]],"type":"LineString"}},{"type":"Feature","properties":{"name":"23 Ubeda - Cuenca","day":23,"variant":"original","ferry":false,"optional":false,"anchorCount":4,"distanceMeters":406088,"durationSeconds":20583.5,"source":"osrm-driving-via-kml-anchors"},"geometry":{"coordinates":[[-3.37109,38.010965],[-3.366953,38.03001],[-3.302505,38.050334],[-3.255952,38.042877],[-3.216255,38.073778],[-2.993921,38.161424],[-2.946691,38.278021],[-2.873145,38.337373],[-2.796664,38.351862],[-2.7807,38.396576],[-2.797987,38.420682],[-2.759856,38.468926],[-2.570313,38.618811],[-2.556851,38.656731],[-2.492687,38.672871],[-2.449424,38.774787],[-2.394381,38.77647],[-2.371554,38.796707],[-2.245722,38.830949],[-2.199987,38.87887],[-2.149053,38.878397],[-1.935174,38.962229],[-1.912236,38.998473],[-1.87728,39.010702],[-1.858202,38.99424],[-1.864465,39.011055],[-1.727425,39.208552],[-1.514762,39.282418],[-1.454503,39.275838],[-1.454503,39.275838],[-1.594108,39.367689],[-1.659825,39.440085],[-1.617223,39.471049],[-1.600845,39.544142],[-1.805533,39.605688],[-1.924163,39.774046],[-2.016957,39.833136],[-2.024603,39.886526],[-2.092701,39.954343],[-2.136858,40.070184]],"type":"LineString"}},{"type":"Feature","properties":{"name":"23 Ubeda - Cuenca","day":23,"variant":"direct","ferry":false,"optional":false,"anchorCount":4,"distanceMeters":365213.6,"durationSeconds":15316,"source":"osrm-driving-direct"},"geometry":{"coordinates":[[-3.37109,38.010965],[-3.385975,38.02475],[-3.471271,38.025018],[-3.503475,38.052648],[-3.583058,38.076515],[-3.739962,38.099235],[-3.759079,38.120593],[-3.63005,38.226535],[-3.623095,38.262266],[-3.501901,38.389465],[-3.503393,38.497098],[-3.463421,38.619531],[-3.479439,38.647241],[-3.41942,38.70863],[-3.419929,38.750752],[-3.392073,38.785793],[-3.389672,38.996724],[-3.373399,39.028356],[-3.331849,39.017769],[-3.259857,39.066337],[-3.125277,39.120355],[-3.080558,39.12046],[-3.047728,39.145379],[-2.73729,39.183514],[-2.590548,39.251992],[-2.530405,39.303301],[-2.468905,39.318803],[-2.364432,39.440042],[-2.230847,39.514716],[-2.274985,39.559215],[-2.292223,39.61743],[-2.391239,39.685968],[-2.357118,39.730936],[-2.36281,39.844334],[-2.335905,39.868831],[-2.262502,39.887294],[-2.238203,39.925536],[-2.24649,39.990555],[-2.143054,40.0424],[-2.136858,40.070184]],"type":"LineString"}},{"type":"Feature","properties":{"name":"25 Cuenca - Zaragoza","day":25,"variant":"original","ferry":false,"optional":false,"anchorCount":4,"distanceMeters":285973.9,"durationSeconds":16738.2,"source":"osrm-driving-via-kml-anchors"},"geometry":{"coordinates":[[-2.136858,40.070184],[-2.207123,40.083468],[-2.302612,40.244724],[-2.274457,40.382922],[-2.218003,40.404659],[-2.238727,40.449475],[-2.214339,40.50379],[-2.149774,40.52763],[-2.104294,40.573587],[-2.037487,40.577729],[-2.026805,40.664396],[-1.977459,40.673736],[-1.928668,40.721451],[-1.95082,40.744109],[-1.93799,40.794275],[-1.887077,40.843225],[-1.861933,40.873816],[-1.844287,40.998222],[-1.874181,41.073086],[-1.779654,41.190142],[-1.789166,41.212278],[-1.749932,41.215097],[-1.688104,41.256152],[-1.643415,41.353358],[-1.499239,41.415287],[-1.434726,41.488361],[-1.40447,41.47869],[-1.344137,41.493981],[-1.184817,41.560084],[-1.144579,41.543697],[-1.070221,41.610563],[-0.975352,41.63387],[-0.936282,41.665353],[-0.889102,41.648802]],"type":"LineString"}},{"type":"Feature","properties":{"name":"25 Cuenca - Zaragoza","day":25,"variant":"direct","ferry":false,"optional":false,"anchorCount":4,"distanceMeters":318798.5,"durationSeconds":13301.1,"source":"osrm-driving-direct"},"geometry":{"coordinates":[[-2.136858,40.070184],[-2.147832,40.039689],[-2.050573,40.009594],[-2.01299,39.93821],[-1.944866,39.926122],[-1.874808,39.939987],[-1.855949,39.907018],[-1.786217,39.902693],[-1.682238,39.955994],[-1.646726,40.041627],[-1.597677,40.087643],[-1.313668,40.119057],[-1.258199,40.095439],[-1.261183,40.121025],[-1.112247,40.337517],[-1.131851,40.35646],[-1.109049,40.375555],[-1.224173,40.442012],[-1.317705,40.650951],[-1.338209,40.786781],[-1.302292,40.899297],[-1.267368,40.922632],[-1.259372,40.985621],[-1.292766,41.16708],[-1.239471,41.222326],[-1.246123,41.263373],[-1.176373,41.406305],[-0.97252,41.55921],[-0.889102,41.648802]],"type":"LineString"}},{"type":"Feature","properties":{"name":"26 Zaragoza - Castelldefels","day":26,"variant":"original","ferry":false,"optional":false,"anchorCount":4,"distanceMeters":313131.1,"durationSeconds":13581.3,"source":"osrm-driving-via-kml-anchors"},"geometry":{"coordinates":[[-0.889102,41.648802],[-0.875995,41.67887],[-0.826021,41.673928],[-0.700462,41.615876],[-0.653473,41.571353],[-0.491498,41.522714],[-0.190771,41.525884],[0.022921,41.509933],[0.064064,41.525001],[0.120481,41.496291],[0.277944,41.464009],[0.4424,41.513362],[0.486586,41.541473],[0.621009,41.549478],[0.620041,41.617612],[0.631756,41.544276],[0.696328,41.541868],[0.76064,41.506855],[0.83279,41.510639],[0.931442,41.430669],[1.147736,41.402623],[1.161555,41.375992],[1.163879,41.392044],[1.273957,41.393228],[1.353272,41.294334],[1.540696,41.267413],[1.508352,41.207017],[1.529656,41.193427],[1.657228,41.208428],[1.685036,41.241754],[1.73221,41.25716],[1.765514,41.241912],[1.791869,41.25289],[1.857985,41.243913],[1.979652,41.278496]],"type":"LineString"}},{"type":"Feature","properties":{"name":"26 Zaragoza - Castelldefels","day":26,"variant":"direct","ferry":false,"optional":false,"anchorCount":4,"distanceMeters":291222,"durationSeconds":11755.6,"source":"osrm-driving-direct"},"geometry":{"coordinates":[[-0.889102,41.648802],[-0.875995,41.67887],[-0.826021,41.673928],[-0.700462,41.615876],[-0.653473,41.571353],[-0.491498,41.522714],[-0.190771,41.525884],[0.022921,41.509933],[0.064064,41.525001],[0.120481,41.496291],[0.276855,41.464056],[0.4424,41.513362],[0.488555,41.541889],[0.60277,41.55455],[0.651576,41.537557],[0.694251,41.54235],[0.757208,41.507518],[0.836116,41.509279],[0.903448,41.446858],[0.967277,41.41865],[1.12417,41.407102],[1.178104,41.38652],[1.275504,41.392661],[1.353272,41.294334],[1.541078,41.267188],[1.508352,41.207017],[1.529656,41.193427],[1.657228,41.208428],[1.685036,41.241754],[1.73221,41.25716],[1.765514,41.241912],[1.791869,41.25289],[1.857985,41.243913],[1.979652,41.278496]],"type":"LineString"}},{"type":"Feature","properties":{"name":"28 Barcelona - Genua per Faehre","day":28,"variant":"original","ferry":true,"optional":false,"anchorCount":2,"distanceMeters":null,"durationSeconds":null,"source":"kml"},"geometry":{"type":"LineString","coordinates":[[2.1677,41.3523],[8.9463,44.4056]]}},{"type":"Feature","properties":{"name":"28 Barcelona - Genua per Faehre","day":28,"variant":"direct","ferry":true,"optional":false,"anchorCount":2,"distanceMeters":null,"durationSeconds":null,"source":"kml"},"geometry":{"type":"LineString","coordinates":[[2.1677,41.3523],[8.9463,44.4056]]}},{"type":"Feature","properties":{"name":"29 Genua - Aosta","day":29,"variant":"original","ferry":false,"optional":false,"anchorCount":4,"distanceMeters":254003.8,"durationSeconds":11272.1,"source":"osrm-driving-via-kml-anchors"},"geometry":{"coordinates":[[8.946297,44.405595],[8.934267,44.406759],[8.883472,44.427867],[8.756927,44.430288],[8.715845,44.445444],[8.744615,44.454126],[8.733337,44.490391],[8.659334,44.575343],[8.666935,44.724171],[8.574308,44.87198],[8.616004,44.91219],[8.626075,44.93454],[8.571861,44.93693],[8.537583,44.985446],[8.537758,45.028898],[8.490146,45.108308],[8.497109,45.185575],[8.468428,45.244992],[8.378648,45.294758],[8.29293,45.308193],[7.998528,45.413944],[7.847929,45.426054],[7.818094,45.556669],[7.68578,45.665067],[7.651955,45.738982],[7.320518,45.737126]],"type":"LineString"}},{"type":"Feature","properties":{"name":"29 Genua - Aosta","day":29,"variant":"direct","ferry":false,"optional":false,"anchorCount":4,"distanceMeters":247493.4,"durationSeconds":10243.8,"source":"osrm-driving-direct"},"geometry":{"coordinates":[[8.946297,44.405595],[8.901004,44.410209],[8.883472,44.427867],[8.756927,44.430288],[8.715697,44.445688],[8.744615,44.454126],[8.733337,44.490391],[8.659334,44.575343],[8.666935,44.724171],[8.570111,44.878172],[8.577047,44.924891],[8.490387,45.107513],[8.497109,45.185575],[8.468838,45.244696],[8.378648,45.294758],[8.29293,45.308193],[7.998528,45.413944],[7.847929,45.426054],[7.818094,45.556669],[7.68578,45.665067],[7.651955,45.738982],[7.320518,45.737126]],"type":"LineString"}},{"type":"Feature","properties":{"name":"30 Aosta - Berikon","day":30,"variant":"original","ferry":false,"optional":false,"anchorCount":4,"distanceMeters":356934.7,"durationSeconds":17461.9,"source":"osrm-driving-via-kml-anchors"},"geometry":{"coordinates":[[7.320518,45.737126],[7.29294,45.790892],[7.23033,45.82122],[7.14397,45.819998],[7.180304,45.832426],[7.16067,45.850261],[7.200575,45.904365],[7.208815,45.970429],[7.146576,46.023446],[7.153033,46.079089],[7.053889,46.073605],[7.072164,46.102869],[7.080012,46.115474],[7.034205,46.146777],[7.00314,46.232795],[6.931051,46.338771],[6.928235,46.429226],[6.860891,46.475528],[6.719561,46.499465],[6.656281,46.541351],[6.632248,46.519656],[6.625623,46.548816],[6.798733,46.476766],[6.884489,46.479487],[6.932575,46.589517],[6.968791,46.61388],[7.039295,46.627647],[7.092028,46.68653],[7.091521,46.785206],[7.172973,46.847736],[7.34538,46.890325],[7.407328,46.950441],[7.470493,46.970878],[7.573002,47.081025],[7.604546,47.218691],[7.706115,47.260619],[7.729831,47.286718],[7.802655,47.311587],[7.920453,47.304413],[8.017861,47.32222],[8.119801,47.388871],[8.186732,47.397202],[8.260219,47.348129],[8.338562,47.360758],[8.372114,47.350746]],"type":"LineString"}},{"type":"Feature","properties":{"name":"30 Aosta - Berikon","day":30,"variant":"direct","ferry":false,"optional":false,"anchorCount":4,"distanceMeters":310221.5,"durationSeconds":14872.8,"source":"osrm-driving-direct"},"geometry":{"coordinates":[[7.320518,45.737126],[7.29294,45.790892],[7.23033,45.82122],[7.143911,45.820098],[7.180304,45.832426],[7.16067,45.850261],[7.200575,45.904365],[7.20877,45.970601],[7.146576,46.023446],[7.152997,46.079117],[7.051978,46.074907],[7.097058,46.112908],[7.03409,46.146954],[7.00314,46.232795],[6.92811,46.346105],[6.92993,46.426698],[6.86285,46.474999],[6.906517,46.510254],[6.923872,46.578934],[6.965845,46.612633],[7.033319,46.624718],[7.067112,46.651193],[7.093149,46.689013],[7.090424,46.783717],[7.160314,46.839506],[7.217942,46.868205],[7.345789,46.890495],[7.407328,46.950441],[7.470638,46.971],[7.572823,47.080703],[7.611428,47.224186],[7.793505,47.309864],[7.920883,47.304435],[8.019097,47.322561],[8.126812,47.390985],[8.19017,47.396795],[8.260219,47.348129],[8.338562,47.360758],[8.372114,47.350746]],"type":"LineString"}}]}
